latitude,longitude,city,numberofcalls,bouroughs,state,zipcode,location
40.54409609,-74.14115469,STATEN ISLAND,0,STATEN ISLAND, NY,10308,Club/Bar/Restaurant
40.72979348,-73.99884181,NEW YORK,18,MANHATTAN, NY,10012,Club/Bar/Restaurant
40.54420877,-74.14103979,STATEN ISLAND,21,STATEN ISLAND, NY,10308,Club/Bar/Restaurant
40.86637626,-73.92825812,New York,160,MANHATTAN, NY,10034,Club/Bar/Restaurant
40.63520686,-74.02028461,,17,BROOKLYN, NY,11220,Club/Bar/Restaurant
40.79186116,-73.94539159,NEW YORK,211,MANHATTAN, NY,10029,Club/Bar/Restaurant
40.71879472,-73.98901165,NEW YORK,41,MANHATTAN, NY,10002,Club/Bar/Restaurant
40.86954934,-73.91634837,NY,271,MANHATTAN, NY,10034,Club/Bar/Restaurant
40.73924884,-73.88445696,ELMHURST,15,QUEENS, NY,11373,Club/Bar/Restaurant
40.72278878,-74.00459619,NEW YORK,43,MANHATTAN, NY,10013,Club/Bar/Restaurant
40.72581057,-73.99199058,NEW YORK,42,MANHATTAN, NY,10003,Club/Bar/Restaurant
40.68935074,-73.81613264,SOUTH RICHMOND HILL,46,QUEENS, NY,11419,Club/Bar/Restaurant
40.77933383,-73.95066995,NEW YORK,16,MANHATTAN, NY,10128,Club/Bar/Restaurant
40.72349367,-73.98825325,NEW YORK,1175,MANHATTAN, NY,10009,Club/Bar/Restaurant
40.83767128,-73.78290106,BRONX,11,BRONX, NY,10464,Club/Bar/Restaurant
40.72320273,-73.98827856,NEW YORK,24,MANHATTAN, NY,10009,Club/Bar/Restaurant
40.86437703,-73.92653575,NEW YORK,458,MANHATTAN, NY,10040,Club/Bar/Restaurant
40.58413031,-73.93277355,,58,BROOKLYN, NY,11235,Club/Bar/Restaurant
40.59013616,-73.97389624,,38,BROOKLYN, NY,11223,Club/Bar/Restaurant
40.64269519,-73.96977506,,128,BROOKLYN, NY,11218,Club/Bar/Restaurant
40.6368429,-73.93075319,,28,BROOKLYN, NY,11203,Club/Bar/Restaurant
40.58488412,-73.92664159,,45,BROOKLYN, NY,11234,Club/Bar/Restaurant
40.74252091,-74.00051966,NEW YORK,23,MANHATTAN, NY,10011,Club/Bar/Restaurant
40.74736716,-73.88655054,JACKSON HEIGHTS,42,QUEENS, NY,11372,Club/Bar/Restaurant
40.51478878,-74.24842226,STATEN ISLAND,72,STATEN ISLAND, NY,10307,Club/Bar/Restaurant
40.59034214,-74.06662421,STATEN ISLAND,42,STATEN ISLAND, NY,10305,Club/Bar/Restaurant
40.7137782,-73.95746753,,42,BROOKLYN, NY,11211,Club/Bar/Restaurant
40.84711145,-73.93818244,NEW YORK,127,MANHATTAN, NY,10033,Club/Bar/Restaurant
40.72953107,-73.9804155,NEW YORK,,MANHATTAN, NY,10009,Club/Bar/Restaurant
40.66196937,-73.96163481,,16,BROOKLYN, NY,11225,Club/Bar/Restaurant
40.76081394,-73.98718902,NEW YORK,19,MANHATTAN, NY,10036,Club/Bar/Restaurant
40.66919734,-73.89645248,,24,BROOKLYN, NY,11207,Club/Bar/Restaurant
40.66479938,-73.73491026,ROSEDALE,39,QUEENS, NY,11422,Club/Bar/Restaurant
40.85114171,-73.78846705,BRONX,57,BRONX, NY,10464,Club/Bar/Restaurant
40.70383481,-73.93097214,,43,BROOKLYN, NY,11237,Club/Bar/Restaurant
40.7612619,-73.9942713,NEW YORK,43,MANHATTAN, NY,10036,Club/Bar/Restaurant
40.76373637,-73.91464744,ASTORIA,31,QUEENS, NY,11103,Club/Bar/Restaurant
40.85706015,-73.90468411,BRONX,23,BRONX, NY,10453,Club/Bar/Restaurant
40.87575492,-73.85086586,BRONX,21,BRONX, NY,10469,Club/Bar/Restaurant
40.61336789,-73.96302421,,63,BROOKLYN, NY,11230,Club/Bar/Restaurant
40.77090216,-73.7352894,LITTLE NECK,85,QUEENS, NY,11362,Club/Bar/Restaurant
40.67775273,-73.99811085,,30,BROOKLYN, NY,11231,Club/Bar/Restaurant
40.68187917,-73.7660803,JAMAICA,,QUEENS, NY,11434,Club/Bar/Restaurant
40.68272042,-73.96329223,,231,BROOKLYN, NY,11238,Club/Bar/Restaurant
40.69957784,-73.83235864,RICHMOND HILL,79,QUEENS, NY,11418,Club/Bar/Restaurant
40.5995808,-73.98996033,,62,BROOKLYN, NY,11214,Club/Bar/Restaurant
40.7475205,-73.9824024,NEW YORK,40,MANHATTAN, NY,10016,Club/Bar/Restaurant
40.63559076,-73.97774084,,37,BROOKLYN, NY,11218,Club/Bar/Restaurant
40.69822499,-73.80633492,JAMAICA,106,QUEENS, NY,11435,Club/Bar/Restaurant
40.69489819,-73.93155477,,14,BROOKLYN, NY,11221,Club/Bar/Restaurant
40.72271742,-74.00444827,NEW YORK,14,MANHATTAN, NY,10013,Club/Bar/Restaurant
40.74860668,-73.97810369,NEW YORK,70,MANHATTAN, NY,10016,Club/Bar/Restaurant
40.86210781,-73.91928608,NEW YORK,29,MANHATTAN, NY,10034,Club/Bar/Restaurant
40.6716626,-73.95091902,,42,BROOKLYN, NY,11216,Club/Bar/Restaurant
40.68142275,-73.95710239,,302,BROOKLYN, NY,11238,Club/Bar/Restaurant
40.62863721,-74.08003528,STATEN ISLAND,90,STATEN ISLAND, NY,10304,Club/Bar/Restaurant
40.86813967,-73.93041833,NEW YORK,14,MANHATTAN, NY,10034,Club/Bar/Restaurant
40.61655033,-73.93020153,,89,BROOKLYN, NY,11234,Club/Bar/Restaurant
40.68642817,-73.86869412,,18,BROOKLYN, NY,11208,Club/Bar/Restaurant
40.76449114,-73.98165065,NEW YORK,44,MANHATTAN, NY,10019,Club/Bar/Restaurant
40.69403903,-73.96078695,,40,BROOKLYN, NY,11205,Club/Bar/Restaurant
40.73250431,-73.9848383,NEW YORK,80,MANHATTAN, NY,10003,Club/Bar/Restaurant
40.81986557,-73.95852336,NEW YORK,118,MANHATTAN, NY,10027,Club/Bar/Restaurant
40.73249706,-74.00183297,NEW YORK,217,MANHATTAN, NY,10014,Club/Bar/Restaurant
40.88228797,-73.82769936,BRONX,10,BRONX, NY,10475,Club/Bar/Restaurant
40.75524246,-73.97327568,NEW YORK,16,MANHATTAN, NY,10017,Club/Bar/Restaurant
40.65972716,-73.98791847,,93,BROOKLYN, NY,11215,Club/Bar/Restaurant
40.58485012,-73.81903413,FAR ROCKAWAY,106,QUEENS, NY,11693,Club/Bar/Restaurant
40.69161916,-73.90573918,,117,BROOKLYN, NY,11207,Club/Bar/Restaurant
40.76035852,-73.98928635,NEW YORK,42,MANHATTAN, NY,10036,Club/Bar/Restaurant
40.71696661,-73.95482851,,36,BROOKLYN, NY,11211,Club/Bar/Restaurant
40.72306557,-73.98907949,NEW YORK,98,MANHATTAN, NY,10002,Club/Bar/Restaurant
40.79585513,-73.93552852,NEW YORK,148,MANHATTAN, NY,10029,Club/Bar/Restaurant
40.71957476,-73.99950577,NEW YORK,10,MANHATTAN, NY,10013,Club/Bar/Restaurant
40.62084753,-74.02677137,,25,BROOKLYN, NY,11209,Club/Bar/Restaurant
40.72483716,-73.97832075,NEW YORK,127,MANHATTAN, NY,10009,Club/Bar/Restaurant
40.8384769,-73.91310235,BRONX,65,BRONX, NY,10456,Club/Bar/Restaurant
40.75618226,-73.93008771,ASTORIA,18,QUEENS, NY,11106,Club/Bar/Restaurant
40.72979695,-73.95838458,,93,BROOKLYN, NY,11222,Club/Bar/Restaurant
40.62075694,-74.02683617,,143,BROOKLYN, NY,11209,Club/Bar/Restaurant
40.76331469,-73.92819586,ASTORIA,267,QUEENS, NY,11106,Club/Bar/Restaurant
40.71795041,-73.95792662,,64,BROOKLYN, NY,11249,Club/Bar/Restaurant
40.7111325,-73.96654457,,70,BROOKLYN, NY,11249,Club/Bar/Restaurant
40.75256615,-73.90524869,WOODSIDE,45,QUEENS, NY,11377,Club/Bar/Restaurant
40.74294904,-73.99646701,NEW YORK,85,MANHATTAN, NY,10011,Club/Bar/Restaurant
40.73234787,-73.98493936,NEW YORK,41,MANHATTAN, NY,10003,Club/Bar/Restaurant
40.71992609,-74.0002886,NEW YORK,55,MANHATTAN, NY,10013,Club/Bar/Restaurant
40.67596498,-73.81819204,SOUTH OZONE PARK,95,QUEENS, NY,11420,Club/Bar/Restaurant
40.63597511,-73.97814065,,183,BROOKLYN, NY,11218,Club/Bar/Restaurant
40.76349768,-73.87813729,EAST ELMHURST,59,QUEENS, NY,11369,Club/Bar/Restaurant
40.71175719,-73.94278797,,27,BROOKLYN, NY,11211,Club/Bar/Restaurant
40.74091496,-73.99208259,NEW YORK,40,MANHATTAN, NY,10010,Club/Bar/Restaurant
40.75007365,-73.98636819,NEW YORK,30,MANHATTAN, NY,10018,Club/Bar/Restaurant
40.77756088,-73.95102149,NEW YORK,22,MANHATTAN, NY,10028,Club/Bar/Restaurant
40.72114459,-73.99370114,NEW YORK,87,MANHATTAN, NY,10002,Club/Bar/Restaurant
40.75612923,-73.994297,NEW YORK,16,MANHATTAN, NY,10018,Club/Bar/Restaurant
40.76579016,-73.98728192,NEW YORK,60,MANHATTAN, NY,10019,Club/Bar/Restaurant
40.74934479,-73.9769377,NEW YORK,48,MANHATTAN, NY,10016,Club/Bar/Restaurant
40.7327221,-74.00327627,NEW YORK,31,MANHATTAN, NY,10014,Club/Bar/Restaurant
40.73029727,-73.95326078,,16,BROOKLYN, NY,11222,Club/Bar/Restaurant
40.77680945,-73.95253489,NEW YORK,11,MANHATTAN, NY,10028,Club/Bar/Restaurant
40.71102508,-73.95029487,,40,BROOKLYN, NY,11211,Club/Bar/Restaurant
40.86720969,-73.92253385,NEW YORK,141,MANHATTAN, NY,10034,Club/Bar/Restaurant
40.86769186,-73.92121362,NEW YORK,16,MANHATTAN, NY,10034,Club/Bar/Restaurant
40.7174035,-73.95605473,,38,BROOKLYN, NY,11211,Club/Bar/Restaurant
40.72591124,-73.9836492,NEW YORK,32,MANHATTAN, NY,10009,Club/Bar/Restaurant
40.51770136,-74.24054207,STATEN ISLAND,36,STATEN ISLAND, NY,10307,Club/Bar/Restaurant
40.74928842,-73.98454214,NEW YORK,63,MANHATTAN, NY,10001,Club/Bar/Restaurant
40.62343625,-74.02509733,,57,BROOKLYN, NY,11209,Club/Bar/Restaurant
40.72707618,-74.000184,NEW YORK,40,MANHATTAN, NY,10012,Club/Bar/Restaurant
40.68958479,-73.97198946,,16,BROOKLYN, NY,11205,Club/Bar/Restaurant
40.73915309,-74.00112587,NEW YORK,76,MANHATTAN, NY,10011,Club/Bar/Restaurant
40.74195612,-73.97792905,NEW YORK,13,MANHATTAN, NY,10016,Club/Bar/Restaurant
40.70607594,-74.0042019,NEW YORK,17,MANHATTAN, NY,10038,Club/Bar/Restaurant
40.71286133,-73.95712905,,34,BROOKLYN, NY,11211,Club/Bar/Restaurant
40.743596,-73.98600864,NEW YORK,40,MANHATTAN, NY,10016,Club/Bar/Restaurant
40.67462684,-73.87725059,,19,BROOKLYN, NY,11208,Club/Bar/Restaurant
40.86941776,-73.91657993,NEW YORK,28,MANHATTAN, NY,10034,Club/Bar/Restaurant
40.68035203,-73.97476588,,114,BROOKLYN, NY,11217,Club/Bar/Restaurant
40.86385196,-73.92523119,NEW YORK,194,MANHATTAN, NY,10034,Club/Bar/Restaurant
40.77596729,-73.91512641,ASTORIA,82,QUEENS, NY,11105,Club/Bar/Restaurant
40.76227854,-73.92601303,ASTORIA,87,QUEENS, NY,11106,Club/Bar/Restaurant
40.72670835,-74.00275643,NEW YORK,14,MANHATTAN, NY,10012,Club/Bar/Restaurant
40.59916024,-73.96126399,,45,BROOKLYN, NY,11223,Club/Bar/Restaurant
40.73029441,-73.98223737,NEW YORK,66,MANHATTAN, NY,10009,Club/Bar/Restaurant
40.75686026,-73.96709552,NEW YORK,44,MANHATTAN, NY,10022,Club/Bar/Restaurant
40.73913663,-74.00108618,NEW YORK,49,MANHATTAN, NY,10011,Club/Bar/Restaurant
40.71522127,-73.99171409,NY,184,MANHATTAN, NY,10002,Club/Bar/Restaurant
40.69332462,-73.96710163,,108,BROOKLYN, NY,11205,Club/Bar/Restaurant
40.6395296,-73.95128856,,287,BROOKLYN, NY,11226,Club/Bar/Restaurant
40.63555239,-73.97802189,,55,BROOKLYN, NY,11218,Club/Bar/Restaurant
40.81726755,-73.9422565,NEW YORK,120,MANHATTAN, NY,10030,Club/Bar/Restaurant
40.72894882,-73.97836993,NEW YORK,62,MANHATTAN, NY,10009,Club/Bar/Restaurant
40.69355175,-73.96476476,,16,BROOKLYN, NY,11205,Club/Bar/Restaurant
40.73434974,-74.00300933,NEW YORK,301,MANHATTAN, NY,10014,Club/Bar/Restaurant
40.78536042,-73.97298193,NEW YORK,186,MANHATTAN, NY,10024,Club/Bar/Restaurant
40.69313307,-73.96920047,,75,BROOKLYN, NY,11205,Club/Bar/Restaurant
40.7296035,-73.98823774,NEW YORK,183,MANHATTAN, NY,10003,Club/Bar/Restaurant
40.85256252,-73.78944935,BRONX,12,BRONX, NY,10464,Club/Bar/Restaurant
40.63283667,-74.02723013,,70,BROOKLYN, NY,11209,Club/Bar/Restaurant
40.76115165,-73.92364989,ASTORIA,42,QUEENS, NY,11106,Club/Bar/Restaurant
40.8658736,-73.92765489,NEW YORK,126,MANHATTAN, NY,10034,Club/Bar/Restaurant
40.75548196,-73.81543034,FLUSHING,16,QUEENS, NY,11355,Club/Bar/Restaurant
40.64998168,-73.83758618,HOWARD BEACH,399,QUEENS, NY,11414,Club/Bar/Restaurant
40.62204852,-74.03163848,,15,BROOKLYN, NY,11209,Club/Bar/Restaurant
40.69357091,-73.96460248,,36,BROOKLYN, NY,11205,Club/Bar/Restaurant
40.70586461,-74.00376907,NEW YORK,20,MANHATTAN, NY,10038,Club/Bar/Restaurant
40.68555676,-73.84149102,OZONE PARK,32,QUEENS, NY,11416,Club/Bar/Restaurant
40.64595269,-73.95197214,,42,BROOKLYN, NY,11226,Club/Bar/Restaurant
40.87959654,-73.90430103,BRONX,17,BRONX, NY,10463,Club/Bar/Restaurant
40.7602542,-73.98904452,NEW YORK,11,MANHATTAN, NY,10036,Club/Bar/Restaurant
40.63980683,-73.95130637,,26,BROOKLYN, NY,11226,Club/Bar/Restaurant
40.66071028,-73.99409972,,30,BROOKLYN, NY,11215,Club/Bar/Restaurant
40.72100987,-73.95542824,,102,BROOKLYN, NY,11249,Club/Bar/Restaurant
40.75624515,-73.92120466,LONG ISLAND CITY,129,QUEENS, NY,11101,Club/Bar/Restaurant
40.68689522,-73.99090992,,23,BROOKLYN, NY,11201,Club/Bar/Restaurant
40.75803956,-73.79561736,FLUSHING,15,QUEENS, NY,11358,Club/Bar/Restaurant
40.75578209,-73.883331,JACKSON HEIGHTS,57,QUEENS, NY,11372,Club/Bar/Restaurant
40.75045253,-73.98729207,NEW YORK,15,MANHATTAN, NY,10001,Club/Bar/Restaurant
40.88956351,-73.89903879,BRONX,16,BRONX, NY,10471,Club/Bar/Restaurant
40.7581599,-73.9625937,NEW YORK,92,MANHATTAN, NY,10022,Club/Bar/Restaurant
40.79578676,-73.94676079,NEW YORK,11,MANHATTAN, NY,10029,Club/Bar/Restaurant
40.67915413,-73.98342993,,1513,BROOKLYN, NY,11217,Club/Bar/Restaurant
40.80285303,-73.95650039,NEW YORK,91,MANHATTAN, NY,10026,Club/Bar/Restaurant
40.72951901,-73.99981238,NEW YORK,120,MANHATTAN, NY,10012,Club/Bar/Restaurant
40.80746061,-73.919309,BRONX,76,BRONX, NY,10454,Club/Bar/Restaurant
40.73321576,-73.98992216,NEW YORK,65,MANHATTAN, NY,10003,Club/Bar/Restaurant
40.72386918,-73.98388421,NEW YORK,40,MANHATTAN, NY,10009,Club/Bar/Restaurant
40.72277419,-73.98517963,NEW YORK,26,MANHATTAN, NY,10009,Club/Bar/Restaurant
40.70279083,-73.92937189,,21,BROOKLYN, NY,11237,Club/Bar/Restaurant
40.67301996,-73.98651012,,19,BROOKLYN, NY,11215,Club/Bar/Restaurant
40.62986376,-74.02845743,,15,BROOKLYN, NY,11209,Club/Bar/Restaurant
40.7378916,-73.71046402,GLEN OAKS,44,QUEENS, NY,11004,Club/Bar/Restaurant
40.73683863,-73.98783593,NEW YORK,24,MANHATTAN, NY,10003,Club/Bar/Restaurant
40.74736158,-73.88645672,JACKSON HEIGHTS,24,QUEENS, NY,11372,Club/Bar/Restaurant
40.6301397,-74.10879366,STATEN ISLAND,53,STATEN ISLAND, NY,10310,Club/Bar/Restaurant
40.68598692,-73.99416238,,11,BROOKLYN, NY,11201,Club/Bar/Restaurant
40.7505438,-73.99836504,NEW YORK,10,MANHATTAN, NY,10001,Club/Bar/Restaurant
40.68282211,-73.93799942,,,BROOKLYN, NY,11216,Club/Bar/Restaurant
40.73416286,-74.00798156,NEW YORK,57,MANHATTAN, NY,10014,Club/Bar/Restaurant
40.66046172,-73.98033486,,73,BROOKLYN, NY,11215,Club/Bar/Restaurant
40.7440955,-73.98561878,NEW YORK,38,MANHATTAN, NY,10016,Club/Bar/Restaurant
40.80452411,-73.95530368,NEW YORK,12,MANHATTAN, NY,10026,Club/Bar/Restaurant
40.65162237,-74.00447957,,17,BROOKLYN, NY,11232,Club/Bar/Restaurant
40.76527581,-73.91791611,ASTORIA,29,QUEENS, NY,11103,Club/Bar/Restaurant
40.51358865,-74.25123739,STATEN ISLAND,50,STATEN ISLAND, NY,10307,Club/Bar/Restaurant
40.72136411,-73.99266213,NEW YORK,78,MANHATTAN, NY,10002,Club/Bar/Restaurant
40.70753056,-73.78659995,JAMAICA,388,QUEENS, NY,11433,Club/Bar/Restaurant
40.85359837,-73.93061428,NEW YORK,18,MANHATTAN, NY,10040,Club/Bar/Restaurant
40.69940259,-73.92745325,,19,BROOKLYN, NY,11221,Club/Bar/Restaurant
40.86618344,-73.91893043,NEW YORK,87,MANHATTAN, NY,10034,Club/Bar/Restaurant
40.8692067,-73.9169743,NEW YORK,30,MANHATTAN, NY,10034,Club/Bar/Restaurant
40.76743782,-73.92062464,ASTORIA,112,QUEENS, NY,11102,Club/Bar/Restaurant
40.86592029,-73.92770907,New York,117,MANHATTAN, NY,10034,Club/Bar/Restaurant
40.71758787,-73.95731359,,38,BROOKLYN, NY,11211,Club/Bar/Restaurant
40.69058524,-73.95831169,,55,BROOKLYN, NY,11205,Club/Bar/Restaurant
40.63367687,-74.00656803,,14,BROOKLYN, NY,11219,Club/Bar/Restaurant
40.70547174,-73.94290878,,68,BROOKLYN, NY,11206,Club/Bar/Restaurant
40.66820407,-73.9506476,,146,BROOKLYN, NY,11225,Club/Bar/Restaurant
40.72974957,-73.99961394,NEW YORK,41,MANHATTAN, NY,10012,Club/Bar/Restaurant
40.70342134,-73.90874124,RIDGEWOOD,109,QUEENS, NY,11385,Club/Bar/Restaurant
40.72933786,-74.0010319,NEW YORK,99,MANHATTAN, NY,10012,Club/Bar/Restaurant
40.71892321,-73.98452032,NEW YORK,57,MANHATTAN, NY,10002,Club/Bar/Restaurant
40.73211582,-73.86718968,REGO PARK,20,QUEENS, NY,11374,Club/Bar/Restaurant
40.66064331,-73.96062997,,162,BROOKLYN, NY,11225,Club/Bar/Restaurant
40.67904393,-73.96835251,,11,BROOKLYN, NY,11238,Club/Bar/Restaurant
40.77478495,-73.90877704,ASTORIA,,QUEENS, NY,11105,Club/Bar/Restaurant
40.61023813,-73.98370275,,22,BROOKLYN, NY,11204,Club/Bar/Restaurant
40.72959583,-74.00282511,NEW YORK,25,MANHATTAN, NY,10014,Club/Bar/Restaurant
40.68237476,-73.99342718,,11,BROOKLYN, NY,11231,Club/Bar/Restaurant
40.7212051,-73.99670626,NEW YORK,,MANHATTAN, NY,10012,Club/Bar/Restaurant
40.74173312,-74.00308184,NEW YORK,91,MANHATTAN, NY,10011,Club/Bar/Restaurant
40.78124208,-73.95223925,NEW YORK,14,MANHATTAN, NY,10128,Club/Bar/Restaurant
40.64018175,-73.95530567,,642,BROOKLYN, NY,11226,Club/Bar/Restaurant
40.71976847,-73.96084757,,16,BROOKLYN, NY,11249,Club/Bar/Restaurant
40.71134933,-73.95117114,,13,BROOKLYN, NY,11211,Club/Bar/Restaurant
40.71352894,-73.95887449,,17,BROOKLYN, NY,11211,Club/Bar/Restaurant
40.72630655,-73.98411452,NEW YORK,11,MANHATTAN, NY,10009,Club/Bar/Restaurant
40.74505782,-73.97860649,NEW YORK,13,MANHATTAN, NY,10016,Club/Bar/Restaurant
40.71461498,-73.99959599,NEW YORK,74,MANHATTAN, NY,10013,Club/Bar/Restaurant
40.71447021,-73.80246765,JAMAICA,,QUEENS, NY,11432,Club/Bar/Restaurant
40.86564533,-73.92693205,NEW YORK,26,MANHATTAN, NY,10034,Club/Bar/Restaurant
40.71823482,-73.98931116,NEW YORK,40,MANHATTAN, NY,10002,Club/Bar/Restaurant
40.72916768,-74.00119065,NEW YORK,15,MANHATTAN, NY,10012,Club/Bar/Restaurant
40.74011361,-74.00596145,NY,110,MANHATTAN, NY,10014,Club/Bar/Restaurant
40.72488931,-73.97828105,NEW YORK,88,MANHATTAN, NY,10009,Club/Bar/Restaurant
40.78131764,-73.94922052,NEW YORK,35,MANHATTAN, NY,10128,Club/Bar/Restaurant
40.59655143,-73.97703729,,67,BROOKLYN, NY,11223,Club/Bar/Restaurant
40.65778597,-73.95324671,,65,BROOKLYN, NY,11225,Club/Bar/Restaurant
40.70252976,-73.81356446,JAMAICA,15,QUEENS, NY,11435,Club/Bar/Restaurant
40.68321658,-73.95387066,,106,BROOKLYN, NY,11216,Club/Bar/Restaurant
40.74238268,-73.87090067,ELMHURST,83,QUEENS, NY,11373,Club/Bar/Restaurant
40.73941098,-74.00539123,NEW YORK,16,MANHATTAN, NY,10014,Club/Bar/Restaurant
40.74203508,-73.99834359,NEW YORK,24,MANHATTAN, NY,10011,Club/Bar/Restaurant
40.68261354,-73.99323967,,25,BROOKLYN, NY,11231,Club/Bar/Restaurant
40.72553423,-73.97780461,NEW YORK,54,MANHATTAN, NY,10009,Club/Bar/Restaurant
40.68138125,-74.00444551,,34,BROOKLYN, NY,11231,Club/Bar/Restaurant
40.82925663,-73.94837452,NEW YORK,20,MANHATTAN, NY,10031,Club/Bar/Restaurant
40.67786527,-73.99806758,,23,BROOKLYN, NY,11231,Club/Bar/Restaurant
40.71884964,-73.98921727,NEW YORK,38,MANHATTAN, NY,10002,Club/Bar/Restaurant
40.66217506,-73.95370139,,18,BROOKLYN, NY,11225,Club/Bar/Restaurant
40.77850171,-73.95632493,NEW YORK,151,MANHATTAN, NY,10028,Club/Bar/Restaurant
40.82837372,-73.8240774,BRONX,13,BRONX, NY,10465,Club/Bar/Restaurant
40.86797939,-73.92024792,NEW YORK,42,MANHATTAN, NY,10034,Club/Bar/Restaurant
40.72104319,-73.95643113,,,BROOKLYN, NY,11249,Club/Bar/Restaurant
40.82283051,-73.95306933,NEW YORK,60,MANHATTAN, NY,10031,Club/Bar/Restaurant
40.68947714,-73.96958077,,32,BROOKLYN, NY,11205,Club/Bar/Restaurant
40.73945487,-74.00597582,NEW YORK,12,MANHATTAN, NY,10014,Club/Bar/Restaurant
40.76516441,-73.9877369,NEW YORK,17,MANHATTAN, NY,10019,Club/Bar/Restaurant
40.75739823,-73.90354533,WOODSIDE,32,QUEENS, NY,11377,Club/Bar/Restaurant
40.83131818,-73.85090765,BRONX,16,BRONX, NY,10462,Club/Bar/Restaurant
40.71153872,-73.94507144,,74,BROOKLYN, NY,11211,Club/Bar/Restaurant
40.76568038,-73.98736136,NEW YORK,55,MANHATTAN, NY,10019,Club/Bar/Restaurant
40.68026692,-73.9746902,,43,BROOKLYN, NY,11217,Club/Bar/Restaurant
40.7463425,-73.89134499,ELMHURST,65,QUEENS, NY,11373,Club/Bar/Restaurant
40.88945854,-73.8982722,BRONX,14,BRONX, NY,10471,Club/Bar/Restaurant
40.67141401,-73.9844268,,21,BROOKLYN, NY,11215,Club/Bar/Restaurant
40.75006808,-73.88119355,JACKSON HEIGHTS,65,QUEENS, NY,11372,Club/Bar/Restaurant
40.74258786,-73.98041167,NEW YORK,98,MANHATTAN, NY,10016,Club/Bar/Restaurant
40.84145055,-73.93577346,NEW YORK,21,MANHATTAN, NY,10032,Club/Bar/Restaurant
40.62526616,-73.92756266,,20,BROOKLYN, NY,11234,Club/Bar/Restaurant
40.76045412,-73.91527612,ASTORIA,177,QUEENS, NY,11103,Club/Bar/Restaurant
40.54195147,-74.17742807,STATEN ISLAND,51,STATEN ISLAND, NY,10312,Club/Bar/Restaurant
40.73349828,-73.95481369,,12,BROOKLYN, NY,11222,Club/Bar/Restaurant
40.71495071,-73.95175288,,,BROOKLYN, NY,11211,Club/Bar/Restaurant
40.82415421,-73.9483821,NEW YORK,24,MANHATTAN, NY,10031,Club/Bar/Restaurant
40.70872939,-73.77898909,HOLLIS,161,QUEENS, NY,11423,Club/Bar/Restaurant
40.71817453,-73.99037175,NEW YORK,12,MANHATTAN, NY,10002,Club/Bar/Restaurant
40.77480809,-73.91028259,ASTORIA,10,QUEENS, NY,11105,Club/Bar/Restaurant
40.75413091,-73.949068,LONG ISLAND CITY,12,QUEENS, NY,11101,Club/Bar/Restaurant
40.76494318,-73.91720536,ASTORIA,244,QUEENS, NY,11103,Club/Bar/Restaurant
40.74586649,-73.99204952,NEW YORK,10,MANHATTAN, NY,10001,Club/Bar/Restaurant
40.71395678,-73.95793275,,15,BROOKLYN, NY,11211,Club/Bar/Restaurant
40.58073897,-73.83395295,ROCKAWAY PARK,44,QUEENS, NY,11694,Club/Bar/Restaurant
40.71144313,-73.94609232,,83,BROOKLYN, NY,11211,Club/Bar/Restaurant
40.62637037,-74.07545381,STATEN ISLAND,14,STATEN ISLAND, NY,10304,Club/Bar/Restaurant
40.70251036,-73.99306814,,12,BROOKLYN, NY,11201,Club/Bar/Restaurant
40.77116239,-73.9566294,NEW YORK,35,MANHATTAN, NY,10021,Club/Bar/Restaurant
40.7147337,-73.96677363,,12,BROOKLYN, NY,11249,Club/Bar/Restaurant
40.75444761,-73.93013645,LONG ISLAND CITY,121,QUEENS, NY,11101,Club/Bar/Restaurant
40.74135013,-73.98131059,NEW YORK,18,MANHATTAN, NY,10016,Club/Bar/Restaurant
40.79513631,-73.96959389,NEW YORK,41,MANHATTAN, NY,10025,Club/Bar/Restaurant
40.80275151,-73.95659798,NEW YORK,22,MANHATTAN, NY,10026,Club/Bar/Restaurant
40.84706204,-73.93817525,NEW YORK,33,MANHATTAN, NY,10033,Club/Bar/Restaurant
40.7068971,-73.90311705,RIDGEWOOD,11,QUEENS, NY,11385,Club/Bar/Restaurant
40.60534388,-73.98183485,,99,BROOKLYN, NY,11223,Club/Bar/Restaurant
40.67690761,-73.9503239,,15,BROOKLYN, NY,11216,Club/Bar/Restaurant
40.76362248,-73.99701462,NEW YORK,202,MANHATTAN, NY,10036,Club/Bar/Restaurant
40.86931906,-73.91673192,NEW YORK,10,MANHATTAN, NY,10034,Club/Bar/Restaurant
40.68296065,-73.95939451,,19,BROOKLYN, NY,11238,Club/Bar/Restaurant
40.64631775,-73.9519899,,47,BROOKLYN, NY,11226,Club/Bar/Restaurant
40.86522878,-73.91964383,NEW YORK,55,MANHATTAN, NY,10034,Club/Bar/Restaurant
40.85205434,-73.82903921,BRONX,190,BRONX, NY,10461,Club/Bar/Restaurant
40.75066178,-74.00343234,NEW YORK,10,MANHATTAN, NY,10001,Club/Bar/Restaurant
40.7205353,-73.99466441,NEW YORK,29,MANHATTAN, NY,10012,Club/Bar/Restaurant
40.7703909,-73.91268214,ASTORIA,14,QUEENS, NY,11103,Club/Bar/Restaurant
40.67486925,-73.98154192,,,BROOKLYN, NY,11215,Club/Bar/Restaurant
40.77683657,-73.97921731,NEW YORK,14,MANHATTAN, NY,10023,Club/Bar/Restaurant
40.72674376,-73.99168018,NEW YORK,44,MANHATTAN, NY,10012,Club/Bar/Restaurant
40.74883018,-73.98551309,NEW YORK,10,MANHATTAN, NY,10001,Club/Bar/Restaurant
40.73971565,-74.00534434,NEW YORK,22,MANHATTAN, NY,10014,Club/Bar/Restaurant
40.74089181,-73.98165715,NEW YORK,36,MANHATTAN, NY,10016,Club/Bar/Restaurant
40.84681098,-73.93580082,NEW YORK,14,MANHATTAN, NY,10033,Club/Bar/Restaurant
40.72970289,-73.77936693,HOLLIS,11,QUEENS, NY,11423,Club/Bar/Restaurant
40.72587728,-73.9775339,NEW YORK,14,MANHATTAN, NY,10009,Club/Bar/Restaurant
40.84672579,-73.93562018,NEW YORK,11,MANHATTAN, NY,10033,Club/Bar/Restaurant
40.73051434,-73.98470164,NEW YORK,32,MANHATTAN, NY,10003,Club/Bar/Restaurant
40.78417568,-73.97758645,NEW YORK,37,MANHATTAN, NY,10024,Club/Bar/Restaurant
40.74621419,-73.91503078,WOODSIDE,27,QUEENS, NY,11377,Club/Bar/Restaurant
40.71965964,-73.99306996,NEW YORK,62,MANHATTAN, NY,10002,Club/Bar/Restaurant
40.67821199,-73.97923002,,37,BROOKLYN, NY,11217,Club/Bar/Restaurant
40.6605783,-73.99063597,,26,BROOKLYN, NY,11215,Club/Bar/Restaurant
40.74462061,-74.00269222,NEW YORK,11,MANHATTAN, NY,10011,Club/Bar/Restaurant
40.77623713,-73.95586787,NEW YORK,23,MANHATTAN, NY,10028,Club/Bar/Restaurant
40.72579798,-73.97916828,NEW YORK,41,MANHATTAN, NY,10009,Club/Bar/Restaurant
40.72870931,-74.00024174,NEW YORK,34,MANHATTAN, NY,10012,Club/Bar/Restaurant
40.85701115,-73.93248689,NEW YORK,147,MANHATTAN, NY,10040,Club/Bar/Restaurant
40.71121192,-73.96593854,,25,BROOKLYN, NY,11249,Club/Bar/Restaurant
40.76167795,-73.96045834,NEW YORK,11,MANHATTAN, NY,10065,Club/Bar/Restaurant
40.73426727,-74.00622072,NEW YORK,17,MANHATTAN, NY,10014,Club/Bar/Restaurant
40.67181585,-73.84309182,OZONE PARK,,QUEENS, NY,11417,Club/Bar/Restaurant
40.80444141,-73.94790614,NEW YORK,12,MANHATTAN, NY,10026,Club/Bar/Restaurant
40.76334753,-73.98905845,NEW YORK,51,MANHATTAN, NY,10019,Club/Bar/Restaurant
40.76627668,-73.95641958,NEW YORK,39,MANHATTAN, NY,10021,Club/Bar/Restaurant
40.85205828,-73.93477641,NEW YORK,86,MANHATTAN, NY,10033,Club/Bar/Restaurant
40.76324872,-73.98913066,NEW YORK,16,MANHATTAN, NY,10019,Club/Bar/Restaurant
40.71613509,-73.98946661,NEW YORK,44,MANHATTAN, NY,10002,Club/Bar/Restaurant
40.58966104,-74.06730402,STATEN ISLAND,36,STATEN ISLAND, NY,10305,Club/Bar/Restaurant
40.72239575,-73.98801534,NEW YORK,22,MANHATTAN, NY,10002,Club/Bar/Restaurant
40.72982208,-73.98077622,NEW YORK,16,MANHATTAN, NY,10009,Club/Bar/Restaurant
40.59959958,-73.98581555,,55,BROOKLYN, NY,11223,Club/Bar/Restaurant
40.76385801,-73.98869015,NEW YORK,14,MANHATTAN, NY,10019,Club/Bar/Restaurant
40.70808154,-74.01444559,NEW YORK,19,MANHATTAN, NY,10006,Club/Bar/Restaurant
40.76330097,-73.92820671,ASTORIA,282,QUEENS, NY,11106,Club/Bar/Restaurant
40.72597827,-74.00133491,NEW YORK,43,MANHATTAN, NY,10012,Club/Bar/Restaurant
40.64510255,-73.97047305,,95,BROOKLYN, NY,11218,Club/Bar/Restaurant
40.73260346,-73.98768155,NYC,11,MANHATTAN, NY,10003,Club/Bar/Restaurant
40.76430472,-73.98309468,NEW YORK,53,MANHATTAN, NY,10019,Club/Bar/Restaurant
40.72110344,-73.99418095,NEW YORK,50,MANHATTAN, NY,10012,Club/Bar/Restaurant
40.70412645,-73.90171808,RIDGEWOOD,18,QUEENS, NY,11385,Club/Bar/Restaurant
40.80189077,-73.96842414,NEW YORK,144,MANHATTAN, NY,10025,Club/Bar/Restaurant
40.81453554,-73.95914444,NEW YORK,184,MANHATTAN, NY,10027,Club/Bar/Restaurant
40.61567436,-74.03423242,,41,BROOKLYN, NY,11209,Club/Bar/Restaurant
40.85059339,-73.9011402,BRONX,30,BRONX, NY,10457,Club/Bar/Restaurant
40.71839401,-73.98920652,NEW YORK,26,MANHATTAN, NY,10002,Club/Bar/Restaurant
40.7622605,-73.98800456,NEW YORK,102,MANHATTAN, NY,10019,Club/Bar/Restaurant
40.77303423,-73.95642599,NEW YORK,30,MANHATTAN, NY,10075,Club/Bar/Restaurant
40.77867848,-73.91429249,ASTORIA,18,QUEENS, NY,11105,Club/Bar/Restaurant
40.69440359,-73.93064653,,16,BROOKLYN, NY,11221,Club/Bar/Restaurant
40.84682457,-73.93556225,NEW YORK,66,MANHATTAN, NY,10033,Club/Bar/Restaurant
40.68148609,-73.97702246,,18,BROOKLYN, NY,11217,Club/Bar/Restaurant
40.67085414,-73.98491359,,14,BROOKLYN, NY,11215,Club/Bar/Restaurant
40.76154468,-73.92445081,ASTORIA,289,QUEENS, NY,11106,Club/Bar/Restaurant
40.84413857,-73.93751656,NEW YORK,15,MANHATTAN, NY,10032,Club/Bar/Restaurant
40.74268834,-74.0003717,NEW YORK,130,MANHATTAN, NY,10011,Club/Bar/Restaurant
40.75676421,-73.96715332,NEW YORK,44,MANHATTAN, NY,10022,Club/Bar/Restaurant
40.76804592,-73.9839385,NEW YORK,26,MANHATTAN, NY,10019,Club/Bar/Restaurant
40.68220447,-73.93787741,,49,BROOKLYN, NY,11216,Club/Bar/Restaurant
40.68821529,-73.96278078,,14,BROOKLYN, NY,11238,Club/Bar/Restaurant
40.74908619,-73.99389339,NEW YORK,36,MANHATTAN, NY,10001,Club/Bar/Restaurant
40.76121189,-73.98690016,NEW YORK,53,MANHATTAN, NY,10019,Club/Bar/Restaurant
40.71527342,-73.99168522,NEW YORK,40,MANHATTAN, NY,10002,Club/Bar/Restaurant
40.68138729,-73.97707658,,12,BROOKLYN, NY,11217,Club/Bar/Restaurant
40.62838143,-74.02904041,,54,BROOKLYN, NY,11209,Club/Bar/Restaurant
40.77350816,-73.91167435,ASTORIA,14,QUEENS, NY,11105,Club/Bar/Restaurant
40.72231555,-73.98321356,NEW YORK,10,MANHATTAN, NY,10009,Club/Bar/Restaurant
40.73787622,-73.98850331,NEW YORK,12,MANHATTAN, NY,10003,Club/Bar/Restaurant
40.70336533,-73.92634531,,20,BROOKLYN, NY,11237,Club/Bar/Restaurant
40.7274952,-73.98535176,NEW YORK,32,MANHATTAN, NY,10009,Club/Bar/Restaurant
40.73877432,-74.00018404,NEW YORK,32,MANHATTAN, NY,10011,Club/Bar/Restaurant
40.77758314,-73.97922791,NEW YORK,24,MANHATTAN, NY,10023,Club/Bar/Restaurant
40.8571179,-73.90482501,BRONX,19,BRONX, NY,10453,Club/Bar/Restaurant
40.72605395,-73.98353372,NEW YORK,15,MANHATTAN, NY,10009,Club/Bar/Restaurant
40.72473066,-73.98145235,NEW YORK,68,MANHATTAN, NY,10009,Club/Bar/Restaurant
40.7221652,-73.98815969,NEW YORK,72,MANHATTAN, NY,10002,Club/Bar/Restaurant
40.626026,-74.17672214,STATEN ISLAND,26,STATEN ISLAND, NY,10303,Club/Bar/Restaurant
40.71574278,-74.00824269,NEW YORK,26,MANHATTAN, NY,10013,Club/Bar/Restaurant
40.72925895,-73.90022336,MASPETH,21,QUEENS, NY,11378,Club/Bar/Restaurant
40.76272656,-73.9269872,ASTORIA,19,QUEENS, NY,11106,Club/Bar/Restaurant
40.76723794,-73.91741911,ASTORIA,,QUEENS, NY,11103,Club/Bar/Restaurant
40.65780242,-73.98277206,,15,BROOKLYN, NY,11215,Club/Bar/Restaurant
40.755483,-73.88616134,JACKSON HEIGHTS,42,QUEENS, NY,11372,Club/Bar/Restaurant
40.70145292,-73.88665032,RIDGEWOOD,18,QUEENS, NY,11385,Club/Bar/Restaurant
40.75897464,-73.91899955,ASTORIA,14,QUEENS, NY,11103,Club/Bar/Restaurant
40.68672159,-73.98426818,,14,BROOKLYN, NY,11217,Club/Bar/Restaurant
40.73240037,-73.98784396,NEW YORK,28,MANHATTAN, NY,10003,Club/Bar/Restaurant
40.80854614,-73.9449372,NEW YORK,57,MANHATTAN, NY,10027,Club/Bar/Restaurant
40.70727997,-73.95387926,,19,BROOKLYN, NY,11211,Club/Bar/Restaurant
40.88674715,-73.85716662,BRONX,161,BRONX, NY,10466,Club/Bar/Restaurant
40.84858654,-73.91805909,BRONX,18,BRONX, NY,10453,Club/Bar/Restaurant
40.72844754,-73.98467686,NEW YORK,82,MANHATTAN, NY,10003,Club/Bar/Restaurant
40.7331091,-74.00339897,NEW YORK,20,MANHATTAN, NY,10014,Club/Bar/Restaurant
40.7230555,-73.94458212,,11,BROOKLYN, NY,11222,Club/Bar/Restaurant
40.76386068,-73.98791763,NEW YORK,18,MANHATTAN, NY,10019,Club/Bar/Restaurant
40.72141089,-73.9949746,NEW YORK,22,MANHATTAN, NY,10012,Club/Bar/Restaurant
40.71085754,-73.96491072,,32,BROOKLYN, NY,11249,Club/Bar/Restaurant
40.76004503,-73.87836379,EAST ELMHURST,28,QUEENS, NY,11369,Club/Bar/Restaurant
40.7222742,-73.9820483,NEW YORK,15,MANHATTAN, NY,10009,Club/Bar/Restaurant
40.74036888,-74.00579908,NEW YORK,21,MANHATTAN, NY,10014,Club/Bar/Restaurant
40.85237109,-73.9346279,NEW YORK,100,MANHATTAN, NY,10033,Club/Bar/Restaurant
40.7138099,-73.96174926,,23,BROOKLYN, NY,11249,Club/Bar/Restaurant
40.7455572,-73.97774741,NEW YORK,55,MANHATTAN, NY,10016,Club/Bar/Restaurant
40.79892213,-73.96308729,NEW YORK,257,MANHATTAN, NY,10025,Club/Bar/Restaurant
40.76233478,-73.98980224,NEW YORK,91,MANHATTAN, NY,10019,Club/Bar/Restaurant
40.71763055,-73.98546215,NEW YORK,10,MANHATTAN, NY,10002,Club/Bar/Restaurant
40.68293027,-73.93505,,20,BROOKLYN, NY,11233,Club/Bar/Restaurant
40.72568792,-73.9776891,NEW YORK,70,MANHATTAN, NY,10009,Club/Bar/Restaurant
40.74166025,-73.98108677,NEW YORK,10,MANHATTAN, NY,10016,Club/Bar/Restaurant
40.85652475,-73.89202173,BRONX,12,BRONX, NY,10458,Club/Bar/Restaurant
40.52313781,-74.21623925,STATEN ISLAND,14,STATEN ISLAND, NY,10309,Club/Bar/Restaurant
40.73831505,-73.98561642,NEW YORK,41,MANHATTAN, NY,10010,Club/Bar/Restaurant
40.73991339,-74.00079029,NEW YORK,29,MANHATTAN, NY,10011,Club/Bar/Restaurant
40.7287944,-74.00043657,NEW YORK,23,MANHATTAN, NY,10012,Club/Bar/Restaurant
40.87132564,-73.87703574,BRONX,107,BRONX, NY,10467,Club/Bar/Restaurant
40.71531994,-73.98988518,NEW YORK,62,MANHATTAN, NY,10002,Club/Bar/Restaurant
40.76568266,-73.98364305,NEW YORK,44,MANHATTAN, NY,10019,Club/Bar/Restaurant
40.72115008,-73.99370114,NEW YORK,47,MANHATTAN, NY,10002,   Club/Bar/Restaurant
40.68327789,-73.99546783,,37,BROOKLYN, NY,11231,Club/Bar/Restaurant
40.71604975,-73.96214117,,13,BROOKLYN, NY,11249,Club/Bar/Restaurant
40.73506048,-74.00663215,NEW YORK,33,MANHATTAN, NY,10014,Club/Bar/Restaurant
40.61758878,-74.02955441,,19,BROOKLYN, NY,11209,Club/Bar/Restaurant
40.71299888,-73.96633081,,85,BROOKLYN, NY,11249,Club/Bar/Restaurant
40.77902925,-73.95089043,NEW YORK,17,MANHATTAN, NY,10128,Club/Bar/Restaurant
40.63765525,-74.07798873,STATEN ISLAND,20,STATEN ISLAND, NY,10301,Club/Bar/Restaurant
40.76848584,-73.95550116,NEW YORK,28,MANHATTAN, NY,10021,Club/Bar/Restaurant
40.65108755,-73.94447252,,196,BROOKLYN, NY,11203,Club/Bar/Restaurant
40.72111717,-73.99421703,NEW YORK,55,MANHATTAN, NY,10012,Club/Bar/Restaurant
40.75177243,-73.98462818,NEW YORK,24,MANHATTAN, NY,10018,Club/Bar/Restaurant
40.74002306,-74.00529023,NEW YORK,18,MANHATTAN, NY,10014,Club/Bar/Restaurant
40.72763258,-73.89248675,MASPETH,93,QUEENS, NY,11378,Club/Bar/Restaurant
40.77631597,-73.90145267,ASTORIA,14,QUEENS, NY,11105,Club/Bar/Restaurant
40.76338296,-73.98673729,NEW YORK,16,MANHATTAN, NY,10019,Club/Bar/Restaurant
40.74033035,-73.9924796,NEW YORK,18,MANHATTAN, NY,10011,Club/Bar/Restaurant
40.79339574,-73.9404245,NEW YORK,46,MANHATTAN, NY,10029,Club/Bar/Restaurant
40.70347321,-73.8955048,RIDGEWOOD,20,QUEENS, NY,11385,Club/Bar/Restaurant
40.68186975,-73.94937197,,167,BROOKLYN, NY,11216,Club/Bar/Restaurant
40.63914998,-74.07565203,STATEN ISLAND,18,STATEN ISLAND, NY,10301,Club/Bar/Restaurant
40.76550199,-73.98746608,NEW YORK,45,MANHATTAN, NY,10019,Club/Bar/Restaurant
40.82000567,-73.95887372,NEW YORK,76,MANHATTAN, NY,10027,Club/Bar/Restaurant
40.76431686,-73.9957836,NEW YORK,,MANHATTAN, NY,10036,Club/Bar/Restaurant
40.7290798,-74.00349257,NEW YORK,10,MANHATTAN, NY,10014,Club/Bar/Restaurant
40.73753336,-73.99127108,NEW YORK,47,MANHATTAN, NY,10003,Club/Bar/Restaurant
40.85180412,-73.93192829,NYC,250,MANHATTAN, NY,10033,Club/Bar/Restaurant
40.68152493,-73.97922177,,39,BROOKLYN, NY,11217,Club/Bar/Restaurant
40.72072702,-73.98888867,NEW YORK,49,MANHATTAN, NY,10002,Club/Bar/Restaurant
40.74578928,-73.98802918,NEW YORK,20,MANHATTAN, NY,10001,Club/Bar/Restaurant
40.72952612,-73.98387202,NEW YORK,21,MANHATTAN, NY,10009,Club/Bar/Restaurant
40.80292804,-73.96757482,NEW YORK,61,MANHATTAN, NY,10025,Club/Bar/Restaurant
40.75779259,-73.91646706,ASTORIA,15,QUEENS, NY,11103,Club/Bar/Restaurant
40.73888085,-73.98904803,NEW YORK,27,MANHATTAN, NY,10003,Club/Bar/Restaurant
40.72201915,-73.98344452,NEW YORK,10,MANHATTAN, NY,10009,Club/Bar/Restaurant
40.58924884,-74.1015729,STATEN ISLAND,30,STATEN ISLAND, NY,10304,Club/Bar/Restaurant
40.72642799,-73.99001699,NEW YORK,13,MANHATTAN, NY,10003,Club/Bar/Restaurant
40.67350675,-73.95693444,,42,BROOKLYN, NY,11238,Club/Bar/Restaurant
40.71838331,-73.99284643,NEW YORK,30,MANHATTAN, NY,10002,Club/Bar/Restaurant
40.75550463,-73.96806713,NEW YORK,17,MANHATTAN, NY,10022,Club/Bar/Restaurant
40.7086008,-73.93767607,,18,BROOKLYN, NY,11206,Club/Bar/Restaurant
40.7286749,-73.90089533,MASPETH,10,QUEENS, NY,11378,Club/Bar/Restaurant
40.7107541,-73.96785411,,25,BROOKLYN, NY,11249,Club/Bar/Restaurant
40.71387984,-73.95769833,,76,BROOKLYN, NY,11211,Club/Bar/Restaurant
40.61301907,-74.12369864,STATEN ISLAND,12,STATEN ISLAND, NY,10314,Club/Bar/Restaurant
40.68400462,-73.93227625,,18,BROOKLYN, NY,11233,Club/Bar/Restaurant
40.86620047,-73.92805946,NEW YORK,98,MANHATTAN, NY,10034,Club/Bar/Restaurant
40.73560607,-73.71632317,BELLEROSE,20,QUEENS, NY,11426,Club/Bar/Restaurant
40.69318384,-73.99858642,,17,BROOKLYN, NY,11201,Club/Bar/Restaurant
40.72785198,-73.9850883,NEW YORK,12,MANHATTAN, NY,10009,Club/Bar/Restaurant
40.74391735,-73.98786712,NEW YORK,53,MANHATTAN, NY,10001,Club/Bar/Restaurant
40.71933772,-73.98492787,NEW YORK,18,MANHATTAN, NY,10002,Club/Bar/Restaurant
40.58740438,-73.80982103,FAR ROCKAWAY,28,QUEENS, NY,11693,Club/Bar/Restaurant
40.74102858,-73.92167375,SUNNYSIDE,58,QUEENS, NY,11104,Club/Bar/Restaurant
40.65662476,-73.96009532,,44,BROOKLYN, NY,11225,Club/Bar/Restaurant
40.73428366,-73.99249472,NEW YORK,14,MANHATTAN, NY,10003,Club/Bar/Restaurant
40.85650354,-73.93276214,NEW YORK,28,MANHATTAN, NY,10040,Club/Bar/Restaurant
40.74310102,-73.89741304,WOODSIDE,59,QUEENS, NY,11377,Club/Bar/Restaurant
40.72224762,-73.98889924,NEW YORK,33,MANHATTAN, NY,10002,Club/Bar/Restaurant
40.86623261,-73.88615252,BRONX,11,BRONX, NY,10458,Club/Bar/Restaurant
40.72155867,-73.98880917,NEW YORK,28,MANHATTAN, NY,10002,Club/Bar/Restaurant
40.81119422,-73.94374289,NEW YORK,11,MANHATTAN, NY,10027,Club/Bar/Restaurant
40.74642855,-73.8953472,JACKSON HEIGHTS,355,QUEENS, NY,11372,Club/Bar/Restaurant
40.5983312,-73.96091877,,12,BROOKLYN, NY,11223,Club/Bar/Restaurant
40.70247911,-73.92687285,,80,BROOKLYN, NY,11237,Club/Bar/Restaurant
40.80441984,-73.95536877,NEW YORK,20,MANHATTAN, NY,10026,Club/Bar/Restaurant
40.71444753,-73.99813145,NEW YORK,42,MANHATTAN, NY,10013,Club/Bar/Restaurant
40.69313305,-73.96912113,,91,BROOKLYN, NY,11205,Club/Bar/Restaurant
40.7159289,-73.96191037,,31,BROOKLYN, NY,11249,Club/Bar/Restaurant
40.75596635,-73.80457526,FLUSHING,13,QUEENS, NY,11358,Club/Bar/Restaurant
40.63131316,-74.02784198,,32,BROOKLYN, NY,11209,Club/Bar/Restaurant
40.76754135,-73.9120144,ASTORIA,57,QUEENS, NY,11103,Club/Bar/Restaurant
40.72408245,-73.97885855,NEW YORK,20,MANHATTAN, NY,10009,Club/Bar/Restaurant
40.75454927,-73.93029877,ASTORIA,29,QUEENS, NY,11106,Club/Bar/Restaurant
40.76346859,-73.99281632,NEW YORK,95,MANHATTAN, NY,10036,Club/Bar/Restaurant
40.68158489,-73.97696835,,40,BROOKLYN, NY,11217,Club/Bar/Restaurant
40.72998331,-73.95762316,,30,BROOKLYN, NY,11222,Club/Bar/Restaurant
40.7215366,-73.98762948,NEW YORK,30,MANHATTAN, NY,10002,Club/Bar/Restaurant
40.63975221,-73.96766852,,25,BROOKLYN, NY,11218,Club/Bar/Restaurant
40.71450243,-73.99812784,NEW YORK,12,MANHATTAN, NY,10013,Club/Bar/Restaurant
40.69742251,-73.93479065,,24,BROOKLYN, NY,11206,Club/Bar/Restaurant
40.75614579,-73.92879555,ASTORIA,17,QUEENS, NY,11106,Club/Bar/Restaurant
40.7572476,-73.96828648,NEW YORK,12,MANHATTAN, NY,10022,Club/Bar/Restaurant
40.61960115,-74.02782628,,12,BROOKLYN, NY,11209,Club/Bar/Restaurant
40.71177784,-73.95193553,,22,BROOKLYN, NY,11211,Club/Bar/Restaurant
40.72099783,-73.94087523,,16,BROOKLYN, NY,11222,Club/Bar/Restaurant
40.7167266,-73.9589122,,20,BROOKLYN, NY,11211,Club/Bar/Restaurant
40.64051333,-74.01508315,,38,BROOKLYN, NY,11220,Club/Bar/Restaurant
40.72228596,-73.98807308,NEW YORK,12,MANHATTAN, NY,10002,Club/Bar/Restaurant
40.72934923,-73.95749728,,10,BROOKLYN, NY,11222,Club/Bar/Restaurant
40.69464039,-73.84847981,WOODHAVEN,90,QUEENS, NY,11421,Club/Bar/Restaurant
40.59915804,-73.9892546,,12,BROOKLYN, NY,11214,Club/Bar/Restaurant
40.86049954,-73.92775111,NEW YORK,10,MANHATTAN, NY,10040,Club/Bar/Restaurant
40.77578986,-73.90248607,ASTORIA,70,QUEENS, NY,11105,Club/Bar/Restaurant
40.59812047,-73.96278419,,22,BROOKLYN, NY,11223,Club/Bar/Restaurant
40.70518692,-73.90619969,RIDGEWOOD,28,QUEENS, NY,11385,Club/Bar/Restaurant
40.75979023,-73.98792559,NEW YORK,11,MANHATTAN, NY,10036,Club/Bar/Restaurant
40.70963675,-73.83002488,KEW GARDENS,393,QUEENS, NY,11415,Club/Bar/Restaurant
40.68723335,-73.95690033,,91,BROOKLYN, NY,11238,Club/Bar/Restaurant
40.77298743,-73.91638663,ASTORIA,44,QUEENS, NY,11102,Club/Bar/Restaurant
40.68681048,-74.00182811,,12,BROOKLYN, NY,11231,Club/Bar/Restaurant
40.71757069,-73.99050532,NEW YORK,75,MANHATTAN, NY,10002,Club/Bar/Restaurant
40.80649425,-73.95384302,NEW YORK,28,MANHATTAN, NY,10026,Club/Bar/Restaurant
40.76426695,-73.9157911,ASTORIA,27,QUEENS, NY,11103,Club/Bar/Restaurant
40.61136982,-73.97348455,,16,BROOKLYN, NY,11204,Club/Bar/Restaurant
40.68585026,-73.86501746,WOODHAVEN,140,QUEENS, NY,11421,Club/Bar/Restaurant
40.86627931,-73.88619945,BRONX,12,BRONX, NY,10458,Club/Bar/Restaurant
40.70410551,-73.93390408,,11,BROOKLYN, NY,11206,Club/Bar/Restaurant
40.72473421,-73.98739077,NEW YORK,23,MANHATTAN, NY,10003,Club/Bar/Restaurant
40.67386906,-73.95013149,,86,BROOKLYN, NY,11216,Club/Bar/Restaurant
40.62359289,-73.97579959,,14,BROOKLYN, NY,11230,Club/Bar/Restaurant
40.84589889,-73.83154171,BRONX,10,BRONX, NY,10461,Club/Bar/Restaurant
40.71881923,-73.98712494,NEW YORK,78,MANHATTAN, NY,10002,Club/Bar/Restaurant
40.62666393,-74.07564508,STATEN ISLAND,19,STATEN ISLAND, NY,10304,Club/Bar/Restaurant
40.82732499,-73.94980691,NEW YORK,27,MANHATTAN, NY,10031,Club/Bar/Restaurant
40.72821933,-73.98196732,NEW YORK,11,MANHATTAN, NY,10009,Club/Bar/Restaurant
40.63575526,-74.13495687,STATEN ISLAND,69,STATEN ISLAND, NY,10302,Club/Bar/Restaurant
40.70277711,-73.92938633,,198,BROOKLYN, NY,11237,Club/Bar/Restaurant
40.86323823,-73.92692385,NEW YORK,24,MANHATTAN, NY,10040,Club/Bar/Restaurant
40.84861945,-73.91801929,BRONX,12,BRONX, NY,10453,Club/Bar/Restaurant
40.77075354,-73.95694015,NEW YORK,57,MANHATTAN, NY,10021,Club/Bar/Restaurant
40.80150481,-73.9484719,NEW YORK,16,MANHATTAN, NY,10026,Club/Bar/Restaurant
40.7219211,-73.99003931,NEW YORK,45,MANHATTAN, NY,10002,Club/Bar/Restaurant
40.73021752,-73.98200647,NEW YORK,12,MANHATTAN, NY,10009,Club/Bar/Restaurant
40.73954279,-73.99607024,NEW YORK,15,MANHATTAN, NY,10011,Club/Bar/Restaurant
40.69750288,-73.93616458,,35,BROOKLYN, NY,11206,Club/Bar/Restaurant
40.72971389,-74.00074326,NEW YORK,125,MANHATTAN, NY,10012,Club/Bar/Restaurant
40.76058323,-73.98592204,NEW YORK,319,MANHATTAN, NY,10036,Club/Bar/Restaurant
40.70773915,-73.95593125,,22,BROOKLYN, NY,11211,Club/Bar/Restaurant
40.62637478,-74.02987171,,45,BROOKLYN, NY,11209,Club/Bar/Restaurant
40.62559384,-74.02421915,,20,BROOKLYN, NY,11209,Club/Bar/Restaurant
40.67115877,-73.98463595,,33,BROOKLYN, NY,11215,Club/Bar/Restaurant
40.77811034,-73.98042649,NEW YORK,11,MANHATTAN, NY,10023,Club/Bar/Restaurant
40.72986873,-73.98074374,NEW YORK,17,MANHATTAN, NY,10009,Club/Bar/Restaurant
40.71990073,-73.98774162,NEW YORK,14,MANHATTAN, NY,10002,Club/Bar/Restaurant
40.76148861,-73.96060645,NEW YORK,10,MANHATTAN, NY,10065,Club/Bar/Restaurant
40.67376199,-73.95686217,,34,BROOKLYN, NY,11238,Club/Bar/Restaurant
40.86573352,-73.92748873,NEW YORK,63,MANHATTAN, NY,10034,Club/Bar/Restaurant
40.77741014,-73.9787983,NEW YORK,11,MANHATTAN, NY,10023,Club/Bar/Restaurant
40.7212238,-73.98863606,NEW YORK,29,MANHATTAN, NY,10002,Club/Bar/Restaurant
40.76103624,-73.9870157,NEW YORK,43,MANHATTAN, NY,10019,Club/Bar/Restaurant
40.84276852,-73.93670827,NEW YORK,29,MANHATTAN, NY,10032,Club/Bar/Restaurant
40.73039457,-74.00227671,NEW YORK,13,MANHATTAN, NY,10014,Club/Bar/Restaurant
40.52320824,-74.23487515,STATEN ISLAND,56,STATEN ISLAND, NY,10309,Club/Bar/Restaurant
40.72136094,-73.94246586,,18,BROOKLYN, NY,11222,Club/Bar/Restaurant
40.72981901,-73.97892168,NEW YORK,25,MANHATTAN, NY,10009,Club/Bar/Restaurant
40.74521022,-73.97246049,NEW YORK,22,MANHATTAN, NY,10016,Club/Bar/Restaurant
40.84420068,-73.93565154,NEW YORK,10,MANHATTAN, NY,10033,Club/Bar/Restaurant
40.63331431,-74.02702136,,55,BROOKLYN, NY,11209,Club/Bar/Restaurant
40.74276218,-73.8960278,WOODSIDE,43,QUEENS, NY,11377,Club/Bar/Restaurant
40.70273581,-73.93378282,,133,BROOKLYN, NY,11206,Club/Bar/Restaurant
40.74202303,-73.91894077,WOODSIDE,,QUEENS, NY,11377,Club/Bar/Restaurant
40.71911165,-73.95851391,,33,BROOKLYN, NY,11249,Club/Bar/Restaurant
40.68230634,-73.92894289,,205,BROOKLYN, NY,11233,Club/Bar/Restaurant
40.67828644,-73.96862327,,50,BROOKLYN, NY,11238,Club/Bar/Restaurant
40.72341408,-73.98833624,NEW YORK,21,MANHATTAN, NY,10003,Club/Bar/Restaurant
40.70369027,-73.92802565,,55,BROOKLYN, NY,11237,Club/Bar/Restaurant
40.68180409,-73.94986236,,120,BROOKLYN, NY,11216,Club/Bar/Restaurant
40.72706617,-73.97977402,NEW YORK,21,MANHATTAN, NY,10009,Club/Bar/Restaurant
40.72124893,-73.99458138,NEW YORK,14,MANHATTAN, NY,10012,Club/Bar/Restaurant
40.69334103,-73.96688165,,114,BROOKLYN, NY,11205,Club/Bar/Restaurant
40.6895765,-73.97175508,,36,BROOKLYN, NY,11205,Club/Bar/Restaurant
40.72677922,-73.98898508,NEW YORK,11,MANHATTAN, NY,10003,Club/Bar/Restaurant
40.72306913,-73.95039412,,86,BROOKLYN, NY,11222,Club/Bar/Restaurant
40.71162426,-73.95939148,,96,BROOKLYN, NY,11211,Club/Bar/Restaurant
40.76061551,-73.87288317,EAST ELMHURST,11,QUEENS, NY,11369,Club/Bar/Restaurant
40.82572712,-73.94880363,NEW YORK,23,MANHATTAN, NY,10031,Club/Bar/Restaurant
40.6899826,-73.97123926,,11,BROOKLYN, NY,11205,Club/Bar/Restaurant
40.71708494,-73.9914433,NEW YORK,32,MANHATTAN, NY,10002,Club/Bar/Restaurant
40.73306797,-73.9982933,NEW YORK,30,MANHATTAN, NY,10011,Club/Bar/Restaurant
40.72781936,-73.98776542,NEW YORK,24,MANHATTAN, NY,10003,Club/Bar/Restaurant
40.78084021,-73.94957114,NEW YORK,70,MANHATTAN, NY,10128,Club/Bar/Restaurant
40.68242682,-73.93793128,,11,BROOKLYN, NY,11233,Club/Bar/Restaurant
40.70739295,-73.94267269,,11,BROOKLYN, NY,11206,Club/Bar/Restaurant
40.84270816,-73.93675169,NEW YORK,728,MANHATTAN, NY,10032,Club/Bar/Restaurant
40.77761333,-73.97925678,NEW YORK,15,MANHATTAN, NY,10023,Club/Bar/Restaurant
40.75633063,-73.96747478,NEW YORK,31,MANHATTAN, NY,10022,Club/Bar/Restaurant
40.7657348,-73.98360333,NEW YORK,228,MANHATTAN, NY,10019,Club/Bar/Restaurant
40.7221796,-73.94986445,,24,BROOKLYN, NY,11222,Club/Bar/Restaurant
40.75929243,-73.9682458,NEW YORK,13,MANHATTAN, NY,10022,Club/Bar/Restaurant
40.71024228,-73.96350792,,59,BROOKLYN, NY,11211,Club/Bar/Restaurant
40.68268743,-73.96313,,22,BROOKLYN, NY,11238,Club/Bar/Restaurant
40.72282442,-73.99442252,NEW YORK,54,MANHATTAN, NY,10012,Club/Bar/Restaurant
40.7193687,-73.9932179,NEW YORK,59,MANHATTAN, NY,10002,Club/Bar/Restaurant
40.6801084,-73.86059446,OZONE PARK,60,QUEENS, NY,11416,Club/Bar/Restaurant
40.68470544,-73.94418492,,28,BROOKLYN, NY,11221,Club/Bar/Restaurant
40.82350569,-73.89181878,BRONX,12,BRONX, NY,10459,Club/Bar/Restaurant
40.72100917,-73.98407971,NEW YORK,18,MANHATTAN, NY,10002,Club/Bar/Restaurant
40.71916742,-73.8421903,FOREST HILLS,26,QUEENS, NY,11375,Club/Bar/Restaurant
40.7702664,-73.9188378,ASTORIA,10,QUEENS, NY,11102,Club/Bar/Restaurant
40.74263781,-73.95358052,LONG ISLAND CITY,50,QUEENS, NY,11101,Club/Bar/Restaurant
40.68829839,-73.95708715,,81,BROOKLYN, NY,11238,Club/Bar/Restaurant
40.72712725,-73.9841937,NEW YORK,11,MANHATTAN, NY,10009,Club/Bar/Restaurant
40.67383824,-73.96299069,,60,BROOKLYN, NY,11238,Club/Bar/Restaurant
40.63972478,-73.96772979,,12,BROOKLYN, NY,11218,Club/Bar/Restaurant
40.71954389,-73.84250687,FOREST HILLS,63,QUEENS, NY,11375,Club/Bar/Restaurant
40.7438043,-73.98373864,NEW YORK,34,MANHATTAN, NY,10016,Club/Bar/Restaurant
40.72663629,-73.9480788,,16,BROOKLYN, NY,11222,Club/Bar/Restaurant
40.78591202,-73.97260615,NEW YORK,61,MANHATTAN, NY,10024,Club/Bar/Restaurant
40.80635431,-73.9539551,NEW YORK,17,MANHATTAN, NY,10026,Club/Bar/Restaurant
40.77666244,-73.95554624,NEW YORK,11,MANHATTAN, NY,10028,Club/Bar/Restaurant
40.76045668,-73.98373097,NEW YORK,14,MANHATTAN, NY,10019,Club/Bar/Restaurant
40.71639867,-74.00964963,NEW YORK,13,MANHATTAN, NY,10013,Club/Bar/Restaurant
40.61898465,-74.10608833,STATEN ISLAND,11,STATEN ISLAND, NY,10301,Club/Bar/Restaurant
40.79564993,-73.9367025,NEW YORK,26,MANHATTAN, NY,10029,Club/Bar/Restaurant
40.85465602,-73.93704036,NEW YORK,22,MANHATTAN, NY,10033,Club/Bar/Restaurant
40.61897721,-73.92657171,,185,BROOKLYN, NY,11234,Club/Bar/Restaurant
40.82382294,-73.94428864,NEW YORK,21,MANHATTAN, NY,10031,Club/Bar/Restaurant
40.73524167,-74.00606204,NEW YORK,38,MANHATTAN, NY,10014,Club/Bar/Restaurant
40.71586504,-73.86102109,REGO PARK,25,QUEENS, NY,11374,Club/Bar/Restaurant
40.73815366,-74.0090249,NEW YORK,28,MANHATTAN, NY,10014,Club/Bar/Restaurant
40.72100139,-73.9878785,NEW YORK,24,MANHATTAN, NY,10002,Club/Bar/Restaurant
40.85734316,-73.93231304,NEW YORK,29,MANHATTAN, NY,10040,Club/Bar/Restaurant
40.69959035,-73.94423377,,70,BROOKLYN, NY,11206,Club/Bar/Restaurant
40.72475941,-73.99331115,NEW YORK,13,MANHATTAN, NY,10012,Club/Bar/Restaurant
40.71577141,-73.9588695,,14,BROOKLYN, NY,11211,Club/Bar/Restaurant
40.6571417,-73.91980078,,14,BROOKLYN, NY,11212,Club/Bar/Restaurant
40.75317252,-73.90498435,WOODSIDE,72,QUEENS, NY,11377,Club/Bar/Restaurant
40.70896635,-73.92472682,,10,BROOKLYN, NY,11237,Club/Bar/Restaurant
40.76391016,-73.98865404,NEW YORK,68,MANHATTAN, NY,10019,Club/Bar/Restaurant
40.71093446,-73.96513432,,34,BROOKLYN, NY,11249,Club/Bar/Restaurant
40.83853602,-73.94159476,NEW YORK,40,MANHATTAN, NY,10032,Club/Bar/Restaurant
40.63249702,-73.93392817,,16,BROOKLYN, NY,11234,Club/Bar/Restaurant
40.76502017,-73.91738937,ASTORIA,30,QUEENS, NY,11103,Club/Bar/Restaurant
40.71138031,-73.94674525,,47,BROOKLYN, NY,11211,Club/Bar/Restaurant
40.7188309,-73.99755053,NEW YORK,24,MANHATTAN, NY,10013,Club/Bar/Restaurant
40.72409376,-73.98070211,NEW YORK,25,MANHATTAN, NY,10009,Club/Bar/Restaurant
40.61361381,-73.9810402,,14,BROOKLYN, NY,11204,Club/Bar/Restaurant
40.68334712,-73.96621238,,38,BROOKLYN, NY,11238,Club/Bar/Restaurant
40.79365992,-73.97066719,NEW YORK,106,MANHATTAN, NY,10025,Club/Bar/Restaurant
40.7339463,-74.00048351,NEW YORK,27,MANHATTAN, NY,10014,Club/Bar/Restaurant
40.75667818,-73.9943511,NEW YORK,24,MANHATTAN, NY,10018,Club/Bar/Restaurant
40.82103435,-73.95724362,NY,21,MANHATTAN, NY,10031,Club/Bar/Restaurant
40.72440629,-73.97860951,NEW YORK,15,MANHATTAN, NY,10009,Club/Bar/Restaurant
40.6658646,-73.98904921,,11,BROOKLYN, NY,11215,Club/Bar/Restaurant
40.7199886,-73.98809514,NEW YORK,22,MANHATTAN, NY,10002,Club/Bar/Restaurant
40.67187351,-73.8431061,OZONE PARK,11,QUEENS, NY,11417,Club/Bar/Restaurant
40.76055827,-73.98399084,NEW YORK,35,MANHATTAN, NY,10019,Club/Bar/Restaurant
40.87892449,-73.90478656,BRONX,15,BRONX, NY,10463,Club/Bar/Restaurant
40.84649962,-73.86001444,BRONX,10,BRONX, NY,10462,Club/Bar/Restaurant
40.70066107,-73.92966987,,39,BROOKLYN, NY,11206,Club/Bar/Restaurant
40.76838707,-73.95558787,NEW YORK,45,MANHATTAN, NY,10021,Club/Bar/Restaurant
40.88403476,-73.89796587,BRONX,10,BRONX, NY,10463,Club/Bar/Restaurant
40.71366785,-73.94931535,,46,BROOKLYN, NY,11211,Club/Bar/Restaurant
40.72133686,-73.99708866,NEW YORK,51,MANHATTAN, NY,10012,Club/Bar/Restaurant
40.73388589,-74.00263405,NEW YORK,15,MANHATTAN, NY,10014,Club/Bar/Restaurant
40.72116616,-73.98868657,NEW YORK,44,MANHATTAN, NY,10002,Club/Bar/Restaurant
40.81258038,-73.90596163,BRONX,23,BRONX, NY,10455,Club/Bar/Restaurant
40.70769793,-73.95581586,,93,BROOKLYN, NY,11211,Club/Bar/Restaurant
40.79924045,-73.9628704,NEW YORK,21,MANHATTAN, NY,10025,Club/Bar/Restaurant
40.73184063,-73.98986103,NEW YORK,18,MANHATTAN, NY,10003,Club/Bar/Restaurant
40.75405004,-73.96852622,NEW YORK,70,MANHATTAN, NY,10017,Club/Bar/Restaurant
40.72403031,-73.97888382,NYC,22,MANHATTAN, NY,10009,Club/Bar/Restaurant
40.85198792,-73.93176905,NEW YORK,28,MANHATTAN, NY,10033,Club/Bar/Restaurant
40.70211545,-73.82056959,RICHMOND HILL,19,QUEENS, NY,11418,Club/Bar/Restaurant
40.72141034,-73.98769444,NEW YORK,30,MANHATTAN, NY,10002,Club/Bar/Restaurant
40.70256374,-73.90062398,RIDGEWOOD,18,QUEENS, NY,11385,Club/Bar/Restaurant
40.88355217,-73.89849823,BRONX,56,BRONX, NY,10463,Club/Bar/Restaurant
40.77076607,-73.95384973,NEW YORK,103,MANHATTAN, NY,10075,Club/Bar/Restaurant
40.70791011,-73.9450059,,23,BROOKLYN, NY,11206,Club/Bar/Restaurant
40.69821675,-73.80633134,JAMAICA,26,QUEENS, NY,11435,Club/Bar/Restaurant
40.87153719,-73.8772306,BRONX,49,BRONX, NY,10467,Club/Bar/Restaurant
40.88923532,-73.90039556,BRONX,50,BRONX, NY,10471,Club/Bar/Restaurant
40.75168549,-73.85543864,CORONA,16,QUEENS, NY,11368,Club/Bar/Restaurant
40.76181083,-73.99387056,NEW YORK,30,MANHATTAN, NY,10036,Club/Bar/Restaurant
40.7623246,-73.9764531,NEW YORK,132,MANHATTAN, NY,10019,Club/Bar/Restaurant
40.7603875,-73.92199029,ASTORIA,120,QUEENS, NY,11106,Club/Bar/Restaurant
40.71865809,-73.81360953,FLUSHING,46,QUEENS, NY,11367,Club/Bar/Restaurant
40.75962609,-73.99547346,NEW YORK,20,MANHATTAN, NY,10036,Club/Bar/Restaurant
40.72593131,-74.00842073,NEW YORK,32,MANHATTAN, NY,10013,Club/Bar/Restaurant
40.73178846,-73.98969145,NEW YORK,81,MANHATTAN, NY,10003,Club/Bar/Restaurant
40.84862709,-73.93424121,NEW YORK,14,MANHATTAN, NY,10033,Club/Bar/Restaurant
40.86328205,-73.9267828,NEW YORK,286,MANHATTAN, NY,10040,Club/Bar/Restaurant
40.73400669,-74.00005412,NEW YORK,70,MANHATTAN, NY,10014,Club/Bar/Restaurant
40.73609748,-73.98721542,NEW YORK,70,MANHATTAN, NY,10003,Club/Bar/Restaurant
40.7207874,-73.98885619,NEW YORK,20,MANHATTAN, NY,10002,Club/Bar/Restaurant
40.70619093,-74.00916485,NEW YORK,26,MANHATTAN, NY,10005,Club/Bar/Restaurant
40.71254873,-73.95796249,,40,BROOKLYN, NY,11211,Club/Bar/Restaurant
40.84332975,-73.93914372,NEW YORK,20,MANHATTAN, NY,10032,Club/Bar/Restaurant
40.68067802,-73.96238479,,30,BROOKLYN, NY,11238,Club/Bar/Restaurant
40.73713914,-73.70921876,GLEN OAKS,21,QUEENS, NY,11004,Club/Bar/Restaurant
40.76523994,-73.91390907,ASTORIA,64,QUEENS, NY,11103,Club/Bar/Restaurant
40.80467738,-73.94773257,NEW YORK,19,MANHATTAN, NY,10027,Club/Bar/Restaurant
40.70605964,-73.83143704,KEW GARDENS,33,QUEENS, NY,11415,Club/Bar/Restaurant
40.75934044,-73.99195767,NEW YORK,21,MANHATTAN, NY,10036,Club/Bar/Restaurant
40.72860489,-74.00531458,NEW YORK,10,MANHATTAN, NY,10014,Club/Bar/Restaurant
40.76548132,-73.91369938,ASTORIA,27,QUEENS, NY,11103,Club/Bar/Restaurant
40.73058315,-73.98621703,NEW YORK,24,MANHATTAN, NY,10003,Club/Bar/Restaurant
40.72671632,-73.99169101,NEW YORK,24,MANHATTAN, NY,10012,Club/Bar/Restaurant
40.72924728,-74.00006494,NEW YORK,68,MANHATTAN, NY,10012,Club/Bar/Restaurant
40.67413684,-73.95380845,,22,BROOKLYN, NY,11216,Club/Bar/Restaurant
40.72146258,-73.98852418,NEW YORK,22,MANHATTAN, NY,10002,Club/Bar/Restaurant
40.68088064,-73.98371072,,10,BROOKLYN, NY,11217,Club/Bar/Restaurant
40.65171843,-74.00463814,,10,BROOKLYN, NY,11232,Club/Bar/Restaurant
40.72004918,-73.95534951,,18,BROOKLYN, NY,11211,Club/Bar/Restaurant
40.82259297,-73.94952505,NEW YORK,13,MANHATTAN, NY,10031,Club/Bar/Restaurant
40.85717578,-73.93239997,NEW YORK,20,MANHATTAN, NY,10040,Club/Bar/Restaurant
40.66759276,-73.98100684,,14,BROOKLYN, NY,11215,Club/Bar/Restaurant
40.72983031,-73.98079426,NEW YORK,11,MANHATTAN, NY,10009,Club/Bar/Restaurant
40.7122186,-73.96382426,,15,BROOKLYN, NY,11249,Club/Bar/Restaurant
40.72285427,-73.98957017,NEW YORK,31,MANHATTAN, NY,10002,Club/Bar/Restaurant
40.75568407,-73.88411081,JACKSON HEIGHTS,15,QUEENS, NY,11372,Club/Bar/Restaurant
40.71406302,-74.00770861,NEW YORK,17,MANHATTAN, NY,10007,Club/Bar/Restaurant
40.63322528,-74.13667392,STATEN ISLAND,19,STATEN ISLAND, NY,10302,Club/Bar/Restaurant
40.85044819,-73.9366612,NEW YORK,10,MANHATTAN, NY,10033,Club/Bar/Restaurant
40.78670595,-73.97571503,NEW YORK,10,MANHATTAN, NY,10024,Club/Bar/Restaurant
40.71407655,-73.98984209,NEW YORK,12,MANHATTAN, NY,10002,Club/Bar/Restaurant
40.72854728,-74.0046471,NEW YORK,28,MANHATTAN, NY,10014,Club/Bar/Restaurant
40.77242188,-73.95570793,NEW YORK,27,MANHATTAN, NY,10075,Club/Bar/Restaurant
40.73657808,-73.95530596,,11,BROOKLYN, NY,11222,Club/Bar/Restaurant
40.87904927,-73.84311987,BRONX,11,BRONX, NY,10469,Club/Bar/Restaurant
40.70071878,-73.92978883,,37,BROOKLYN, NY,11206,Club/Bar/Restaurant
40.61478363,-73.93656785,,32,BROOKLYN, NY,11234,Club/Bar/Restaurant
40.70482471,-73.93401518,,87,BROOKLYN, NY,11206,Club/Bar/Restaurant
40.72223429,-73.99433237,NEW YORK,27,MANHATTAN, NY,10012,Club/Bar/Restaurant
40.70227392,-73.81152746,JAMAICA,17,QUEENS, NY,11435,Club/Bar/Restaurant
40.73875786,-74.00019486,NEW YORK,179,MANHATTAN, NY,10011,Club/Bar/Restaurant
40.69622255,-73.93391551,,98,BROOKLYN, NY,11221,Club/Bar/Restaurant
40.72477819,-73.98794997,NEW YORK,11,MANHATTAN, NY,10003,Club/Bar/Restaurant
40.71776846,-73.96366974,,26,BROOKLYN, NY,11249,Club/Bar/Restaurant
40.67127809,-73.95035693,,38,BROOKLYN, NY,11216,Club/Bar/Restaurant
40.72205788,-73.98570651,NEW YORK,42,MANHATTAN, NY,10002,Club/Bar/Restaurant
40.72042228,-73.98817082,NEW YORK,38,MANHATTAN, NY,10002,Club/Bar/Restaurant
40.71942599,-73.9887013,NEW YORK,10,MANHATTAN, NY,10002,Club/Bar/Restaurant
40.74371747,-74.00597259,NEW YORK,28,MANHATTAN, NY,10011,Club/Bar/Restaurant
40.85930241,-73.89807612,BRONX,54,BRONX, NY,10458,Club/Bar/Restaurant
40.72827564,-73.99935778,NEW YORK,37,MANHATTAN, NY,10012,Club/Bar/Restaurant
40.67845538,-73.9496774,,25,BROOKLYN, NY,11216,Club/Bar/Restaurant
40.70484883,-73.90560866,RIDGEWOOD,13,QUEENS, NY,11385,Club/Bar/Restaurant
40.73964395,-73.98965415,NEW YORK,22,MANHATTAN, NY,10010,Club/Bar/Restaurant
40.8172264,-73.94229989,NEW YORK,46,MANHATTAN, NY,10030,Club/Bar/Restaurant
40.68729923,-73.95691111,,199,BROOKLYN, NY,11238,Club/Bar/Restaurant
40.72292768,-73.98354531,NEW YORK,61,MANHATTAN, NY,10009,Club/Bar/Restaurant
40.71757618,-73.99052335,NEW YORK,18,MANHATTAN, NY,10002,Club/Bar/Restaurant
40.8458189,-73.93857399,NEW YORK,64,MANHATTAN, NY,10033,Club/Bar/Restaurant
40.82552296,-73.92654974,BRONX,13,BRONX, NY,10451,Club/Bar/Restaurant
40.76042049,-73.92205884,ASTORIA,15,QUEENS, NY,11106,Club/Bar/Restaurant
40.69492271,-73.95309084,,43,BROOKLYN, NY,11205,Club/Bar/Restaurant
40.85434768,-73.90059963,BRONX,12,BRONX, NY,10457,Club/Bar/Restaurant
40.71355468,-73.96188648,,39,BROOKLYN, NY,11211,Club/Bar/Restaurant
40.61101573,-73.97340545,,15,BROOKLYN, NY,11230,Club/Bar/Restaurant
40.76750843,-73.91203971,ASTORIA,32,QUEENS, NY,11103,Club/Bar/Restaurant
40.87823133,-73.90299396,BRONX,12,BRONX, NY,10463,Club/Bar/Restaurant
40.770663,-73.95701963,NEW YORK,44,MANHATTAN, NY,10021,Club/Bar/Restaurant
40.71189525,-73.95734249,,10,BROOKLYN, NY,11211,Club/Bar/Restaurant
40.72602991,-73.9890754,NEW YORK,20,MANHATTAN, NY,10003,Club/Bar/Restaurant
40.68970483,-73.91852118,,109,BROOKLYN, NY,11221,Club/Bar/Restaurant
40.80921013,-73.94444898,NEW YORK,29,MANHATTAN, NY,10027,Club/Bar/Restaurant
40.72336564,-73.95056707,,10,BROOKLYN, NY,11222,Club/Bar/Restaurant
40.7436844,-73.97359429,NEW YORK,17,MANHATTAN, NY,10016,Club/Bar/Restaurant
40.79756979,-73.93910248,NEW YORK,11,MANHATTAN, NY,10029,Club/Bar/Restaurant
40.72639229,-73.98988711,NEW YORK,18,MANHATTAN, NY,10003,Club/Bar/Restaurant
40.73288601,-73.98624181,NEW YORK,19,MANHATTAN, NY,10003,Club/Bar/Restaurant
40.71346027,-73.95874828,,30,BROOKLYN, NY,11211,Club/Bar/Restaurant
40.76115715,-73.92366432,ASTORIA,16,QUEENS, NY,11106,Club/Bar/Restaurant
40.77638923,-73.97952074,NEW YORK,13,MANHATTAN, NY,10023,Club/Bar/Restaurant
40.7669823,-73.91689597,ASTORIA,20,QUEENS, NY,11103,Club/Bar/Restaurant
40.62553848,-74.07577709,STATEN ISLAND,12,STATEN ISLAND, NY,10304,Club/Bar/Restaurant
40.70789309,-73.78672142,JAMAICA,75,QUEENS, NY,11433,Club/Bar/Restaurant
40.71472927,-73.94180064,,27,BROOKLYN, NY,11211,Club/Bar/Restaurant
40.79976023,-73.96620747,NEW YORK,14,MANHATTAN, NY,10025,Club/Bar/Restaurant
40.7189536,-73.98611482,NEW YORK,22,MANHATTAN, NY,10002,Club/Bar/Restaurant
40.7293296,-74.00235605,NEW YORK,23,MANHATTAN, NY,10014,Club/Bar/Restaurant
40.8985862,-73.86738879,BRONX,19,BRONX, NY,10470,Club/Bar/Restaurant
40.7118486,-73.78986498,JAMAICA,62,QUEENS, NY,11432,Club/Bar/Restaurant
40.67413839,-73.72954485,ROSEDALE,18,QUEENS, NY,11422,Club/Bar/Restaurant
40.69645621,-73.90014263,RIDGEWOOD,13,QUEENS, NY,11385,Club/Bar/Restaurant
40.68315344,-73.95385989,,36,BROOKLYN, NY,11216,Club/Bar/Restaurant
40.65232958,-73.92727379,,25,BROOKLYN, NY,11203,Club/Bar/Restaurant
40.73853272,-74.00387196,NEW YORK,51,MANHATTAN, NY,10014,Club/Bar/Restaurant
40.74279466,-73.91560894,WOODSIDE,96,QUEENS, NY,11377,Club/Bar/Restaurant
40.8512885,-73.89878603,BRONX,31,BRONX, NY,10457,Club/Bar/Restaurant
40.87639511,-73.87964798,BRONX,11,BRONX, NY,10467,Club/Bar/Restaurant
40.76038872,-73.98934771,NEW YORK,11,MANHATTAN, NY,10036,Club/Bar/Restaurant
40.70640957,-73.92261612,,45,BROOKLYN, NY,11237,Club/Bar/Restaurant
40.86265183,-73.92846821,NEW YORK,79,MANHATTAN, NY,10040,Club/Bar/Restaurant
40.69639887,-73.9674968,,32,BROOKLYN, NY,11205,Club/Bar/Restaurant
40.86553576,-73.9272684,NEW YORK,88,MANHATTAN, NY,10034,Club/Bar/Restaurant
40.6896471,-73.91839865,,10,BROOKLYN, NY,11221,Club/Bar/Restaurant
40.70733558,-73.94320295,,15,BROOKLYN, NY,11206,Club/Bar/Restaurant
40.80000172,-73.96604481,NEW YORK,72,MANHATTAN, NY,10025,Club/Bar/Restaurant
40.74550121,-73.98925987,NEW YORK,32,MANHATTAN, NY,10001,Club/Bar/Restaurant
40.70223509,-73.81128232,JAMAICA,21,QUEENS, NY,11435,Club/Bar/Restaurant
40.78873125,-73.97426256,NYC,23,MANHATTAN, NY,10024,Club/Bar/Restaurant
40.70405345,-73.90977549,RIDGEWOOD,64,QUEENS, NY,11385,Club/Bar/Restaurant
40.77757461,-73.95105398,NEW YORK,143,MANHATTAN, NY,10028,Club/Bar/Restaurant
40.79856266,-73.96336198,NEW YORK,20,MANHATTAN, NY,10025,Club/Bar/Restaurant
40.86895885,-73.91583208,NEW YORK,65,MANHATTAN, NY,10034,Club/Bar/Restaurant
40.6857644,-73.82746439,SOUTH RICHMOND HILL,99,QUEENS, NY,11419,Club/Bar/Restaurant
40.76754409,-73.91201078,ASTORIA,73,QUEENS, NY,11103,Club/Bar/Restaurant
40.70605965,-73.83144065,KEW GARDENS,19,QUEENS, NY,11415,Club/Bar/Restaurant
40.71924727,-73.84237049,FOREST HILLS,14,QUEENS, NY,11375,Club/Bar/Restaurant
40.64600662,-73.99860904,,19,BROOKLYN, NY,11232,Club/Bar/Restaurant
40.8390628,-73.9412076,NEW YORK,140,MANHATTAN, NY,10032,Club/Bar/Restaurant
40.74406051,-74.00680988,NEW YORK,12,MANHATTAN, NY,10011,Club/Bar/Restaurant
40.74420325,-74.00669441,NEW YORK,119,MANHATTAN, NY,10011,Club/Bar/Restaurant
40.8598744,-73.89321652,BRONX,34,BRONX, NY,10458,Club/Bar/Restaurant
40.62267862,-74.02541404,,32,BROOKLYN, NY,11209,Club/Bar/Restaurant
40.85399666,-73.88889542,BRONX,12,BRONX, NY,10458,Club/Bar/Restaurant
40.66859873,-73.99339609,,38,BROOKLYN, NY,11215,Club/Bar/Restaurant
40.76056167,-73.9897231,NEW YORK,44,MANHATTAN, NY,10036,Club/Bar/Restaurant
40.73420647,-73.95492868,,13,BROOKLYN, NY,11222,Club/Bar/Restaurant
40.620266,-73.99822054,,13,BROOKLYN, NY,11219,Club/Bar/Restaurant
40.70169627,-73.92181373,,103,BROOKLYN, NY,11237,Club/Bar/Restaurant
40.776993,-73.97910533,NEW YORK,11,MANHATTAN, NY,10023,Club/Bar/Restaurant
40.74244241,-73.98050554,NEW YORK,100,MANHATTAN, NY,10016,Club/Bar/Restaurant
40.65683338,-73.96013845,,67,BROOKLYN, NY,11225,Club/Bar/Restaurant
40.67854566,-73.973429,,18,BROOKLYN, NY,11217,Club/Bar/Restaurant
40.75784759,-73.91660416,ASTORIA,49,QUEENS, NY,11103,Club/Bar/Restaurant
40.7276114,-74.00127,NEW YORK,23,MANHATTAN, NY,10012,Club/Bar/Restaurant
40.76478896,-73.9959027,NEW YORK,30,MANHATTAN, NY,10036,Club/Bar/Restaurant
40.77159735,-73.90757916,ASTORIA,23,QUEENS, NY,11105,Club/Bar/Restaurant
40.72986362,-73.98316836,NEW YORK,26,MANHATTAN, NY,10009,Club/Bar/Restaurant
40.7520028,-73.98325661,NEW YORK,24,MANHATTAN, NY,10018,Club/Bar/Restaurant
40.67937376,-73.88643908,,12,BROOKLYN, NY,11207,Club/Bar/Restaurant
40.83045842,-73.94749912,NEW YORK,31,MANHATTAN, NY,10031,Club/Bar/Restaurant
40.79318722,-73.94056193,NEW YORK,18,MANHATTAN, NY,10029,Club/Bar/Restaurant
40.71765265,-73.95444927,,23,BROOKLYN, NY,11211,Club/Bar/Restaurant
40.76964227,-73.90999712,ASTORIA,13,QUEENS, NY,11105,Club/Bar/Restaurant
40.72250863,-73.9920487,NEW YORK,37,MANHATTAN, NY,10002,Club/Bar/Restaurant
40.76152269,-73.92440391,ASTORIA,23,QUEENS, NY,11106,Club/Bar/Restaurant
40.73465934,-73.98828737,NEW YORK,20,MANHATTAN, NY,10003,Club/Bar/Restaurant
40.62277199,-73.99796111,,47,BROOKLYN, NY,11219,Club/Bar/Restaurant
40.7192403,-73.84532504,FOREST HILLS,14,QUEENS, NY,11375,Club/Bar/Restaurant
40.71948409,-73.99540404,NYC,38,MANHATTAN, NY,10013,Club/Bar/Restaurant
40.74425235,-73.91224003,WOODSIDE,14,QUEENS, NY,11377,Club/Bar/Restaurant
40.75565695,-73.88443932,JACKSON HEIGHTS,21,QUEENS, NY,11372,Club/Bar/Restaurant
40.82427381,-73.95203494,NEW YORK,38,MANHATTAN, NY,10031,Club/Bar/Restaurant
40.80234631,-73.96810968,NEW YORK,69,MANHATTAN, NY,10025,Club/Bar/Restaurant
40.76863581,-73.9111068,ASTORIA,17,QUEENS, NY,11103,Club/Bar/Restaurant
40.760405,-73.98747426,NY,33,MANHATTAN, NY,10036,Club/Bar/Restaurant
40.72114427,-73.98939367,NEW YORK,16,MANHATTAN, NY,10002,Club/Bar/Restaurant
40.69146867,-73.82069199,SOUTH RICHMOND HILL,12,QUEENS, NY,11419,Club/Bar/Restaurant
40.80237264,-73.96430262,NEW YORK,10,MANHATTAN, NY,10025,Club/Bar/Restaurant
40.76761182,-73.91825619,ASTORIA,34,QUEENS, NY,11103,Club/Bar/Restaurant
40.58075262,-73.83390611,ROCKAWAY PARK,12,QUEENS, NY,11694,Club/Bar/Restaurant
40.80645153,-73.96504816,NEW YORK,42,MANHATTAN, NY,10025,Club/Bar/Restaurant
40.67934096,-73.88657253,,40,BROOKLYN, NY,11207,Club/Bar/Restaurant
40.76902594,-73.91524717,ASTORIA,13,QUEENS, NY,11103,Club/Bar/Restaurant
40.74480252,-73.91025803,WOODSIDE,33,QUEENS, NY,11377,Club/Bar/Restaurant
40.76570463,-73.91882892,ASTORIA,10,QUEENS, NY,11103,Club/Bar/Restaurant
40.76011682,-73.98767285,NEW YORK,26,MANHATTAN, NY,10036,Club/Bar/Restaurant
40.69001621,-73.82574419,SOUTH RICHMOND HILL,17,QUEENS, NY,11419,Club/Bar/Restaurant
40.71267449,-73.95661335,,17,BROOKLYN, NY,11211,Club/Bar/Restaurant
40.85124461,-73.8988114,BRONX,19,BRONX, NY,10457,Club/Bar/Restaurant
40.59645556,-73.97803836,,68,BROOKLYN, NY,11223,Club/Bar/Restaurant
40.73287502,-73.98616604,NEW YORK,88,MANHATTAN, NY,10003,Club/Bar/Restaurant
40.63069697,-73.94539737,,142,BROOKLYN, NY,11210,Club/Bar/Restaurant
40.77554692,-73.91454925,ASTORIA,27,QUEENS, NY,11105,Club/Bar/Restaurant
40.62192499,-74.03167804,,22,BROOKLYN, NY,11209,Club/Bar/Restaurant
40.78597322,-73.97625335,NEW YORK,20,MANHATTAN, NY,10024,Club/Bar/Restaurant
40.68268194,-73.96311197,,40,BROOKLYN, NY,11238,Club/Bar/Restaurant
40.82513202,-73.94397319,NEW YORK,27,MANHATTAN, NY,10031,Club/Bar/Restaurant
40.72970008,-74.0044776,NEW YORK,11,MANHATTAN, NY,10014,Club/Bar/Restaurant
40.83917804,-73.94113522,NEW YORK,26,MANHATTAN, NY,10032,Club/Bar/Restaurant
40.723084,-73.98267582,NEW YORK,49,MANHATTAN, NY,10009,Club/Bar/Restaurant
40.76333659,-73.972749,NEW YORK,24,MANHATTAN, NY,10022,Club/Bar/Restaurant
40.78106247,-73.94941932,NEW YORK,20,MANHATTAN, NY,10128,Club/Bar/Restaurant
40.76929579,-73.99493849,NEW YORK,17,MANHATTAN, NY,10019,Club/Bar/Restaurant
40.73132176,-73.98861269,NEW YORK,12,MANHATTAN, NY,10003,Club/Bar/Restaurant
40.65160575,-73.93310919,,45,BROOKLYN, NY,11203,Club/Bar/Restaurant
40.71869299,-73.95465418,,11,BROOKLYN, NY,11211,Club/Bar/Restaurant
40.70411268,-73.9478547,,26,BROOKLYN, NY,11206,Club/Bar/Restaurant
40.67631977,-73.95593759,,43,BROOKLYN, NY,11238,Club/Bar/Restaurant
40.7260026,-74.00931188,NEW YORK,16,MANHATTAN, NY,10013,Club/Bar/Restaurant
40.70624307,-73.94301632,,60,BROOKLYN, NY,11206,Club/Bar/Restaurant
40.78002803,-73.95016753,NEW YORK,45,MANHATTAN, NY,10128,Club/Bar/Restaurant
40.70810405,-73.94306884,,32,BROOKLYN, NY,11206,Club/Bar/Restaurant
40.76524269,-73.91390546,ASTORIA,13,QUEENS, NY,11103,Club/Bar/Restaurant
40.76751941,-73.91202887,ASTORIA,13,QUEENS, NY,11103,Club/Bar/Restaurant
40.72242119,-73.94999415,,25,BROOKLYN, NY,11222,Club/Bar/Restaurant
40.67638691,-73.89157433,,51,BROOKLYN, NY,11207,Club/Bar/Restaurant
40.77027188,-73.91883057,ASTORIA,51,QUEENS, NY,11102,Club/Bar/Restaurant
40.72010392,-73.9884703,NEW YORK,10,MANHATTAN, NY,10002,Club/Bar/Restaurant
40.68808605,-73.9867739,,10,BROOKLYN, NY,11201,Club/Bar/Restaurant
40.76452537,-73.91636115,ASTORIA,12,QUEENS, NY,11103,Club/Bar/Restaurant
40.74093692,-73.9921295,NEW YORK,36,MANHATTAN, NY,10010,Club/Bar/Restaurant
40.74361478,-73.98282205,NEW YORK,21,MANHATTAN, NY,10016,Club/Bar/Restaurant
40.71680457,-73.95458693,,10,BROOKLYN, NY,11211,Club/Bar/Restaurant
40.65262688,-74.00616265,,13,BROOKLYN, NY,11232,Club/Bar/Restaurant
40.75607293,-73.88055479,JACKSON HEIGHTS,161,QUEENS, NY,11372,Club/Bar/Restaurant
40.72787656,-73.98416105,NEW YORK,13,MANHATTAN, NY,10009,Club/Bar/Restaurant
40.75648955,-73.9664893,NEW YORK,25,MANHATTAN, NY,10022,Club/Bar/Restaurant
40.71070456,-73.96739965,,20,BROOKLYN, NY,11249,Club/Bar/Restaurant
40.77667983,-73.95104381,NEW YORK,18,MANHATTAN, NY,10028,Club/Bar/Restaurant
40.79806598,-73.96372343,NEW YORK,73,MANHATTAN, NY,10025,Club/Bar/Restaurant
40.80221094,-73.95696675,NEW YORK,44,MANHATTAN, NY,10026,Club/Bar/Restaurant
40.74225897,-73.98348641,NEW YORK,14,MANHATTAN, NY,10016,Club/Bar/Restaurant
40.72068841,-73.98711375,NEW YORK,29,MANHATTAN, NY,10002,Club/Bar/Restaurant
40.69120105,-73.82157618,SOUTH RICHMOND HILL,10,QUEENS, NY,11419,Club/Bar/Restaurant
40.71894075,-73.95653712,,12,BROOKLYN, NY,11211,Club/Bar/Restaurant
40.73908435,-74.00545255,NEW YORK,16,MANHATTAN, NY,10014,Club/Bar/Restaurant
40.75754542,-73.99256429,NEW YORK,13,MANHATTAN, NY,10036,Club/Bar/Restaurant
40.77738159,-73.94899244,NEW YORK,22,MANHATTAN, NY,10028,Club/Bar/Restaurant
40.75755914,-73.99254985,NEW YORK,34,MANHATTAN, NY,10036,Club/Bar/Restaurant
40.75453592,-73.96875699,NEW YORK,12,MANHATTAN, NY,10022,Club/Bar/Restaurant
40.7847389,-73.84577593,COLLEGE POINT,10,QUEENS, NY,11356,Club/Bar/Restaurant
40.72937008,-73.9871229,NEW YORK,69,MANHATTAN, NY,10003,Club/Bar/Restaurant
40.75820966,-73.99278079,NEW YORK,14,MANHATTAN, NY,10036,Club/Bar/Restaurant
40.70700314,-73.93244766,,28,BROOKLYN, NY,11206,Club/Bar/Restaurant
40.70393413,-73.94755188,,464,BROOKLYN, NY,11206,Club/Bar/Restaurant
40.84674341,-73.7862907,BRONX,15,BRONX, NY,10464,Club/Bar/Restaurant
40.72822197,-73.9812818,NEW YORK,208,MANHATTAN, NY,10009,Club/Bar/Restaurant
40.73306797,-73.99825,NEW YORK,40,MANHATTAN, NY,10011,Club/Bar/Restaurant
40.7269933,-73.98881908,NEW YORK,23,MANHATTAN, NY,10003,Club/Bar/Restaurant
40.72891907,-73.98090277,NEW YORK,36,MANHATTAN, NY,10009,Club/Bar/Restaurant
40.80311646,-73.95631961,NEW YORK,14,MANHATTAN, NY,10026,Club/Bar/Restaurant
40.71762841,-73.96344255,,33,BROOKLYN, NY,11249,Club/Bar/Restaurant
40.70000973,-73.91613554,,16,BROOKLYN, NY,11237,Club/Bar/Restaurant
40.75598052,-73.88143206,JACKSON HEIGHTS,10,QUEENS, NY,11372,Club/Bar/Restaurant
40.73044666,-74.00430446,NEW YORK,10,MANHATTAN, NY,10014,Club/Bar/Restaurant
40.78665655,-73.97575115,NEW YORK,12,MANHATTAN, NY,10024,Club/Bar/Restaurant
40.85756814,-73.93217182,NEW YORK,18,MANHATTAN, NY,10040,Club/Bar/Restaurant
40.71915709,-74.01033185,NEW YORK,32,MANHATTAN, NY,10013,Club/Bar/Restaurant
40.7516051,-73.97089504,NEW YORK,23,MANHATTAN, NY,10017,Club/Bar/Restaurant
40.76698914,-73.98350194,NEW YORK,19,MANHATTAN, NY,10019,Club/Bar/Restaurant
40.6257805,-74.02415437,,12,BROOKLYN, NY,11209,Club/Bar/Restaurant
40.65531376,-73.91606919,,23,BROOKLYN, NY,11212,Club/Bar/Restaurant
40.7193216,-73.98781748,NEW YORK,71,MANHATTAN, NY,10002,Club/Bar/Restaurant
40.63011491,-74.10888369,STATEN ISLAND,11,STATEN ISLAND, NY,10310,Club/Bar/Restaurant
40.75228836,-73.983982,NEW YORK,17,MANHATTAN, NY,10018,Club/Bar/Restaurant
40.82043292,-73.94368811,NEW YORK,18,MANHATTAN, NY,10030,Club/Bar/Restaurant
40.69975139,-73.91568506,,10,BROOKLYN, NY,11237,Club/Bar/Restaurant
40.80597242,-73.95302703,NEW YORK,19,MANHATTAN, NY,10026,Club/Bar/Restaurant
40.78145576,-73.84141438,COLLEGE POINT,29,QUEENS, NY,11356,Club/Bar/Restaurant
40.75667858,-73.92086486,ASTORIA,27,QUEENS, NY,11103,Club/Bar/Restaurant
40.6818709,-73.7660623,JAMAICA,140,QUEENS, NY,11434,Club/Bar/Restaurant
40.65045904,-73.95746105,,34,BROOKLYN, NY,11226,Club/Bar/Restaurant
40.57748673,-73.95960623,,162,BROOKLYN, NY,11235,Club/Bar/Restaurant
40.759412,-73.99561425,NEW YORK,57,MANHATTAN, NY,10036,Club/Bar/Restaurant
40.76755509,-73.91202882,ASTORIA,23,QUEENS, NY,11103,Club/Bar/Restaurant
40.76230119,-73.77033181,BAYSIDE,12,QUEENS, NY,11361,Club/Bar/Restaurant
40.70774599,-73.78732064,JAMAICA,10,QUEENS, NY,11432,Club/Bar/Restaurant
40.70222399,-73.81121022,JAMAICA,41,QUEENS, NY,11435,Club/Bar/Restaurant
40.70504946,-73.90592938,RIDGEWOOD,16,QUEENS, NY,11385,Club/Bar/Restaurant
40.74795437,-73.88094469,JACKSON HEIGHTS,13,QUEENS, NY,11372,Club/Bar/Restaurant
40.71872911,-73.99224756,NEW YORK,166,MANHATTAN, NY,10002,Club/Bar/Restaurant
40.7655706,-73.9874408,NEW YORK,18,MANHATTAN, NY,10019,Club/Bar/Restaurant
40.82513813,-73.95139477,NEW YORK,12,MANHATTAN, NY,10031,Club/Bar/Restaurant
40.71954134,-73.98949493,NEW YORK,40,MANHATTAN, NY,10002,Club/Bar/Restaurant
40.76412403,-73.98659635,NEW YORK,14,MANHATTAN, NY,10019,Club/Bar/Restaurant
40.68432691,-73.86978716,,19,BROOKLYN, NY,11208,Club/Bar/Restaurant
40.68499671,-73.86744578,,15,BROOKLYN, NY,11208,Club/Bar/Restaurant
40.7168144,-73.95883279,,13,BROOKLYN, NY,11249,Club/Bar/Restaurant
40.76455008,-73.91637195,ASTORIA,15,QUEENS, NY,11103,Club/Bar/Restaurant
40.76181566,-73.92332064,ASTORIA,51,QUEENS, NY,11106,Club/Bar/Restaurant
40.79904275,-73.94259015,NEW YORK,24,MANHATTAN, NY,10029,Club/Bar/Restaurant
40.83770759,-73.83458731,BRONX,73,BRONX, NY,10461,Club/Bar/Restaurant
40.80450501,-73.95559267,NEW YORK,31,MANHATTAN, NY,10026,Club/Bar/Restaurant
40.57572784,-73.96113718,,15,BROOKLYN, NY,11235,Club/Bar/Restaurant
40.6807742,-73.96274888,,11,BROOKLYN, NY,11238,Club/Bar/Restaurant
40.85203731,-73.93174731,NEW YORK,17,MANHATTAN, NY,10033,Club/Bar/Restaurant
40.86281834,-73.90782477,BRONX,58,BRONX, NY,10468,Club/Bar/Restaurant
40.76197072,-73.92538166,ASTORIA,70,QUEENS, NY,11106,Club/Bar/Restaurant
40.73267818,-74.00330152,NEW YORK,15,MANHATTAN, NY,10014,Club/Bar/Restaurant
40.67349156,-73.98271754,,10,BROOKLYN, NY,11215,Club/Bar/Restaurant
40.67776602,-73.97287771,,69,BROOKLYN, NY,11217,Club/Bar/Restaurant
40.82498995,-73.95148882,NEW YORK,12,MANHATTAN, NY,10031,Club/Bar/Restaurant
40.7226142,-73.97991607,NEW YORK,180,MANHATTAN, NY,10009,Club/Bar/Restaurant
40.7342125,-74.00329077,NEW YORK,32,MANHATTAN, NY,10014,Club/Bar/Restaurant
40.72709922,-73.98043787,NEW YORK,61,MANHATTAN, NY,10009,Club/Bar/Restaurant
40.76580221,-73.97656017,NEW YORK,10,MANHATTAN, NY,10019,Club/Bar/Restaurant
40.72900793,-73.98865277,NEW YORK,10,MANHATTAN, NY,10003,Club/Bar/Restaurant
40.76348475,-73.98894652,NEW YORK,33,MANHATTAN, NY,10019,Club/Bar/Restaurant
40.79769071,-73.93939131,NEW YORK,12,MANHATTAN, NY,10029,Club/Bar/Restaurant
40.72252688,-73.98308363,NEW YORK,32,MANHATTAN, NY,10009,Club/Bar/Restaurant
40.77429071,-73.94830882,NEW YORK,35,MANHATTAN, NY,10028,Club/Bar/Restaurant
40.71666424,-73.96113798,,45,BROOKLYN, NY,11249,Club/Bar/Restaurant
40.7784632,-73.90916195,ASTORIA,26,QUEENS, NY,11105,Club/Bar/Restaurant
40.72771022,-73.99926759,NEW YORK,59,MANHATTAN, NY,10012,Club/Bar/Restaurant
40.84817343,-73.93778024,NEW YORK,12,MANHATTAN, NY,10033,Club/Bar/Restaurant
40.7110115,-73.95063394,,38,BROOKLYN, NY,11211,Club/Bar/Restaurant
40.78293275,-73.97994843,NEW YORK,22,MANHATTAN, NY,10024,Club/Bar/Restaurant
40.83720479,-73.83423078,BRONX,10,BRONX, NY,10461,Club/Bar/Restaurant
40.70753974,-73.9216121,,18,BROOKLYN, NY,11237,Club/Bar/Restaurant
40.71798239,-73.99029603,NEW YORK,40,MANHATTAN, NY,10002,Club/Bar/Restaurant
40.74527188,-73.97844042,NEW YORK,87,MANHATTAN, NY,10016,Club/Bar/Restaurant
40.70254531,-73.90480405,RIDGEWOOD,16,QUEENS, NY,11385,Club/Bar/Restaurant
40.51125535,-74.24109429,STATEN ISLAND,13,STATEN ISLAND, NY,10307,Club/Bar/Restaurant
40.68337461,-73.96634216,,41,BROOKLYN, NY,11238,Club/Bar/Restaurant
40.72032678,-73.9968939,NEW YORK,20,MANHATTAN, NY,10013,Club/Bar/Restaurant
40.85903026,-73.93082191,NEW YORK,19,MANHATTAN, NY,10040,Club/Bar/Restaurant
40.82130084,-73.95792992,NEW YORK,21,MANHATTAN, NY,10031,Club/Bar/Restaurant
40.71465855,-73.99107207,NEW YORK,12,MANHATTAN, NY,10002,Club/Bar/Restaurant
40.70427792,-73.93300946,,25,BROOKLYN, NY,11206,Club/Bar/Restaurant
40.64183599,-74.01737876,,86,BROOKLYN, NY,11220,Club/Bar/Restaurant
40.8092114,-73.92282171,BRONX,22,BRONX, NY,10454,Club/Bar/Restaurant
40.71287692,-73.90517886,RIDGEWOOD,133,QUEENS, NY,11385,Club/Bar/Restaurant
40.67396577,-73.83966196,OZONE PARK,18,QUEENS, NY,11417,Club/Bar/Restaurant
40.72136648,-73.9882392,NEW YORK,22,MANHATTAN, NY,10002,Club/Bar/Restaurant
40.79876246,-73.94192943,NEW YORK,25,MANHATTAN, NY,10029,Club/Bar/Restaurant
40.74227881,-73.85511261,CORONA,26,QUEENS, NY,11368,Club/Bar/Restaurant
40.83750813,-73.86713108,BRONX,27,BRONX, NY,10460,Club/Bar/Restaurant
40.76152081,-73.92573231,ASTORIA,33,QUEENS, NY,11106,Club/Bar/Restaurant
40.7648305,-73.91699251,ASTORIA,39,QUEENS, NY,11103,Club/Bar/Restaurant
40.7092334,-73.77562212,HOLLIS,23,QUEENS, NY,11423,Club/Bar/Restaurant
40.69471209,-73.95490489,,34,BROOKLYN, NY,11205,Club/Bar/Restaurant
40.72234313,-73.9841768,NYC,15,MANHATTAN, NY,10009,Club/Bar/Restaurant
40.61265522,-74.03378786,,33,BROOKLYN, NY,11209,Club/Bar/Restaurant
40.69369409,-73.96354582,,28,BROOKLYN, NY,11205,Club/Bar/Restaurant
40.72013698,-73.95527009,,22,BROOKLYN, NY,11249,Club/Bar/Restaurant
40.82996179,-73.94786086,NEW YORK,44,MANHATTAN, NY,10031,Club/Bar/Restaurant
40.74026159,-73.99051652,NEW YORK,16,MANHATTAN, NY,10010,Club/Bar/Restaurant
40.7637552,-73.95896983,NEW YORK,11,MANHATTAN, NY,10065,Club/Bar/Restaurant
40.71763107,-73.99047284,NEW YORK,42,MANHATTAN, NY,10002,Club/Bar/Restaurant
40.73700362,-73.70990135,GLEN OAKS,12,QUEENS, NY,11004,Club/Bar/Restaurant
40.86568682,-73.92743455,NEW YORK,13,MANHATTAN, NY,10034,Club/Bar/Restaurant
40.72696506,-73.95306829,,26,BROOKLYN, NY,11222,Club/Bar/Restaurant
40.69470388,-73.95498423,,61,BROOKLYN, NY,11205,Club/Bar/Restaurant
40.78884172,-73.81380307,WHITESTONE,16,QUEENS, NY,11357,Club/Bar/Restaurant
40.70540944,-73.94462204,,61,BROOKLYN, NY,11206,Club/Bar/Restaurant
40.70941165,-73.95847666,,41,BROOKLYN, NY,11211,Club/Bar/Restaurant
40.73150602,-74.00666066,NEW YORK,17,MANHATTAN, NY,10014,Club/Bar/Restaurant
40.78303709,-73.95212964,NEW YORK,12,MANHATTAN, NY,10128,Club/Bar/Restaurant
40.67637873,-73.89163203,,10,BROOKLYN, NY,11207,Club/Bar/Restaurant
40.72936969,-73.98399834,NEW YORK,12,MANHATTAN, NY,10009,Club/Bar/Restaurant
40.75907107,-73.96235496,NEW YORK,10,MANHATTAN, NY,10022,Club/Bar/Restaurant
40.64187522,-73.94860238,,17,BROOKLYN, NY,11226,Club/Bar/Restaurant
40.69736915,-73.92388161,,25,BROOKLYN, NY,11221,Club/Bar/Restaurant
40.75637885,-73.99176672,NEW YORK,12,MANHATTAN, NY,10018,Club/Bar/Restaurant
40.71147227,-73.94389198,,50,BROOKLYN, NY,11206,Club/Bar/Restaurant
40.74737533,-73.88648557,JACKSON HEIGHTS,19,QUEENS, NY,11372,Club/Bar/Restaurant
40.77654198,-73.94963216,NEW YORK,27,MANHATTAN, NY,10028,Club/Bar/Restaurant
40.75538176,-73.9272046,ASTORIA,36,QUEENS, NY,11106,Club/Bar/Restaurant
40.68719196,-73.97461545,,11,BROOKLYN, NY,11217,Club/Bar/Restaurant
40.76577062,-73.91898768,ASTORIA,33,QUEENS, NY,11103,Club/Bar/Restaurant
40.73339718,-74.00633971,NEW YORK,10,MANHATTAN, NY,10014,Club/Bar/Restaurant
40.77714218,-73.95406195,NEW YORK,10,MANHATTAN, NY,10028,Club/Bar/Restaurant
40.5983312,-73.96093318,,11,BROOKLYN, NY,11223,Club/Bar/Restaurant
40.72001385,-73.99611108,NEW YORK,13,MANHATTAN, NY,10013,Club/Bar/Restaurant
40.70927153,-73.7754705,HOLLIS,35,QUEENS, NY,11423,Club/Bar/Restaurant
40.8635725,-73.92601242,NEW YORK,13,MANHATTAN, NY,10040,Club/Bar/Restaurant
40.76428125,-73.9985813,NEW YORK,10,MANHATTAN, NY,10036,Club/Bar/Restaurant
40.71572366,-73.99322188,NEW YORK,17,MANHATTAN, NY,10002,Club/Bar/Restaurant
40.72659664,-73.89419134,MASPETH,11,QUEENS, NY,11378,Club/Bar/Restaurant
40.67985516,-73.96417712,,15,BROOKLYN, NY,11238,Club/Bar/Restaurant
40.71575091,-73.99037932,NEW YORK,10,MANHATTAN, NY,10002,Club/Bar/Restaurant
40.76755506,-73.91199994,ASTORIA,38,QUEENS, NY,11103,Club/Bar/Restaurant
40.72735065,-74.00073963,NEW YORK,14,MANHATTAN, NY,10012,Club/Bar/Restaurant
40.58286501,-73.95546643,,23,BROOKLYN, NY,11235,Club/Bar/Restaurant
40.75698226,-73.98708147,NEW YORK,15,MANHATTAN, NY,10036,Club/Bar/Restaurant
40.86579718,-73.91999746,NEW YORK,15,MANHATTAN, NY,10034,Club/Bar/Restaurant
40.71291268,-73.95503686,,12,BROOKLYN, NY,11211,Club/Bar/Restaurant
40.72643651,-74.00565716,NEW YORK,15,MANHATTAN, NY,10013,Club/Bar/Restaurant
40.76583717,-73.99093525,NEW YORK,37,MANHATTAN, NY,10019,Club/Bar/Restaurant
40.7270994,-73.95268575,,19,BROOKLYN, NY,11222,Club/Bar/Restaurant
40.85392249,-73.914604,BRONX,12,BRONX, NY,10453,Club/Bar/Restaurant
40.70088336,-73.9135053,,97,BROOKLYN, NY,11237,Club/Bar/Restaurant
40.74534875,-73.90350864,WOODSIDE,24,QUEENS, NY,11377,Club/Bar/Restaurant
40.70068821,-73.91314851,,16,BROOKLYN, NY,11237,Club/Bar/Restaurant
40.70807123,-73.94332135,,19,BROOKLYN, NY,11206,Club/Bar/Restaurant
40.71410134,-73.94888215,,45,BROOKLYN, NY,11211,Club/Bar/Restaurant
40.72522408,-73.977848,NEW YORK,29,MANHATTAN, NY,10009,Club/Bar/Restaurant
40.77205768,-73.92543534,ASTORIA,20,QUEENS, NY,11102,Club/Bar/Restaurant
40.72909907,-74.00019123,NEW YORK,17,MANHATTAN, NY,10012,Club/Bar/Restaurant
40.74715646,-73.99126982,NEW YORK,13,MANHATTAN, NY,10001,Club/Bar/Restaurant
40.61682225,-73.93050381,,10,BROOKLYN, NY,11234,Club/Bar/Restaurant
40.64799659,-73.99847926,,54,BROOKLYN, NY,11232,Club/Bar/Restaurant
40.67298661,-73.96074525,,29,BROOKLYN, NY,11238,Club/Bar/Restaurant
40.71104762,-73.94551551,,18,BROOKLYN, NY,11206,Club/Bar/Restaurant
40.64968702,-74.00921474,,15,BROOKLYN, NY,11220,Club/Bar/Restaurant
40.73128095,-74.00669672,NEW YORK,217,MANHATTAN, NY,10014,Club/Bar/Restaurant
40.71961867,-73.99945166,NEW YORK,69,MANHATTAN, NY,10013,Club/Bar/Restaurant
40.72898724,-73.97834105,NEW YORK,53,MANHATTAN, NY,10009,Club/Bar/Restaurant
40.73911741,-74.00104649,NEW YORK,90,MANHATTAN, NY,10011,Club/Bar/Restaurant
40.73278251,-73.99814176,NEW YORK,12,MANHATTAN, NY,10011,Club/Bar/Restaurant
40.72971549,-73.98373486,NEW YORK,11,MANHATTAN, NY,10009,Club/Bar/Restaurant
40.73910094,-74.00100679,NEW YORK,38,MANHATTAN, NY,10011,Club/Bar/Restaurant
40.63795072,-74.07940149,STATEN ISLAND,40,STATEN ISLAND, NY,10301,Club/Bar/Restaurant
40.75593546,-73.96773846,NEW YORK,56,MANHATTAN, NY,10022,Club/Bar/Restaurant
40.67984155,-73.85133644,OZONE PARK,45,QUEENS, NY,11417,Club/Bar/Restaurant
40.86111875,-73.92603322,NEW YORK,32,MANHATTAN, NY,10040,Club/Bar/Restaurant
40.75800513,-73.96819227,NEW YORK,12,MANHATTAN, NY,10022,Club/Bar/Restaurant
40.79894934,-73.94241687,NEW YORK,72,MANHATTAN, NY,10029,Club/Bar/Restaurant
40.71324261,-73.95649033,,34,BROOKLYN, NY,11211,Club/Bar/Restaurant
40.72868941,-73.8955771,MASPETH,26,QUEENS, NY,11378,Club/Bar/Restaurant
40.72832504,-73.9994588,NEW YORK,35,MANHATTAN, NY,10012,Club/Bar/Restaurant
40.6401488,-73.95527326,,29,BROOKLYN, NY,11226,Club/Bar/Restaurant
40.76434915,-73.92345851,ASTORIA,15,QUEENS, NY,11106,Club/Bar/Restaurant
40.7710846,-73.9082189,ASTORIA,31,QUEENS, NY,11105,Club/Bar/Restaurant
40.76522074,-73.91392354,ASTORIA,29,QUEENS, NY,11103,Club/Bar/Restaurant
40.72706466,-73.98879381,NY,12,MANHATTAN, NY,10003,Club/Bar/Restaurant
40.67780765,-73.94976442,,29,BROOKLYN, NY,11216,Club/Bar/Restaurant
40.65335105,-74.01191459,,71,BROOKLYN, NY,11232,Club/Bar/Restaurant
40.8244039,-73.94820124,NEW YORK,18,MANHATTAN, NY,10031,Club/Bar/Restaurant
40.71484896,-73.96670864,,15,BROOKLYN, NY,11249,Club/Bar/Restaurant
40.8645253,-73.92661874,NEW YORK,31,MANHATTAN, NY,10040,Club/Bar/Restaurant
40.70694747,-73.92250008,,105,BROOKLYN, NY,11237,Club/Bar/Restaurant
40.6109084,-73.96256096,,18,BROOKLYN, NY,11230,Club/Bar/Restaurant
40.72860227,-74.00006494,NEW YORK,41,MANHATTAN, NY,10012,Club/Bar/Restaurant
40.86631495,-73.91859765,NEW YORK,17,MANHATTAN, NY,10034,Club/Bar/Restaurant
40.77576316,-73.91015493,ASTORIA,29,QUEENS, NY,11105,Club/Bar/Restaurant
40.64505314,-73.97045865,,10,BROOKLYN, NY,11218,Club/Bar/Restaurant
40.69298072,-73.75759951,SAINT ALBANS,19,QUEENS, NY,11412,Club/Bar/Restaurant
40.86606038,-73.92787523,NEW YORK,11,MANHATTAN, NY,10034,Club/Bar/Restaurant
40.86812319,-73.90044165,BRONX,10,BRONX, NY,10468,Club/Bar/Restaurant
40.80277161,-73.9676363,NEW YORK,50,MANHATTAN, NY,10025,Club/Bar/Restaurant
40.71159894,-73.76983199,HOLLIS,12,QUEENS, NY,11423,Club/Bar/Restaurant
40.7223651,-73.98423091,NEW YORK,13,MANHATTAN, NY,10009,Club/Bar/Restaurant
40.73002665,-73.99418378,NEW YORK,11,MANHATTAN, NY,10003,Club/Bar/Restaurant
40.714248,-73.95164157,,22,BROOKLYN, NY,11211,Club/Bar/Restaurant
40.71021523,-73.84925599,FOREST HILLS,110,QUEENS, NY,11375,Club/Bar/Restaurant
40.63820736,-74.01750752,,16,BROOKLYN, NY,11220,Club/Bar/Restaurant
40.72837719,-74.00077211,NEW YORK,26,MANHATTAN, NY,10012,Club/Bar/Restaurant
40.69817416,-73.94445134,,10,BROOKLYN, NY,11206,Club/Bar/Restaurant
40.72417851,-73.9788008,NEW YORK,24,MANHATTAN, NY,10009,Club/Bar/Restaurant
40.72061916,-73.8460614,FOREST HILLS,12,QUEENS, NY,11375,Club/Bar/Restaurant
40.68187155,-73.87841625,,75,BROOKLYN, NY,11208,Club/Bar/Restaurant
40.76409108,-73.98651694,NEW YORK,15,MANHATTAN, NY,10019,Club/Bar/Restaurant
40.90141806,-73.84689427,BRONX,13,BRONX, NY,10466,Club/Bar/Restaurant
40.73316801,-73.95979691,,39,BROOKLYN, NY,11222,Club/Bar/Restaurant
40.70191143,-73.93697905,,16,BROOKLYN, NY,11206,Club/Bar/Restaurant
40.87289918,-73.918181,NEW YORK,22,MANHATTAN, NY,10034,Club/Bar/Restaurant
40.74366173,-73.92306726,SUNNYSIDE,30,QUEENS, NY,11104,Club/Bar/Restaurant
40.84723219,-73.93812449,NEW YORK,24,MANHATTAN, NY,10033,Club/Bar/Restaurant
40.75729856,-73.92037322,ASTORIA,339,QUEENS, NY,11103,Club/Bar/Restaurant
40.62408812,-74.0308145,,33,BROOKLYN, NY,11209,Club/Bar/Restaurant
40.7260542,-73.98532322,NEW YORK,10,MANHATTAN, NY,10009,Club/Bar/Restaurant
40.76114066,-73.92362824,ASTORIA,15,QUEENS, NY,11106,Club/Bar/Restaurant
40.68031093,-73.96463115,,13,BROOKLYN, NY,11238,Club/Bar/Restaurant
40.74521326,-73.99236718,NEW YORK,17,MANHATTAN, NY,10001,Club/Bar/Restaurant
40.76303703,-73.98595762,NEW YORK,16,MANHATTAN, NY,10019,Club/Bar/Restaurant
40.74562238,-73.99525427,NEW YORK,13,MANHATTAN, NY,10001,Club/Bar/Restaurant
40.72009035,-74.00984497,NEW YORK,10,MANHATTAN, NY,10013,Club/Bar/Restaurant
40.78583881,-73.97666145,NEW YORK,14,MANHATTAN, NY,10024,Club/Bar/Restaurant
40.72874499,-74.0003175,NEW YORK,20,MANHATTAN, NY,10012,Club/Bar/Restaurant
40.72506594,-73.98426995,NEW YORK,42,MANHATTAN, NY,10009,Club/Bar/Restaurant
40.76567165,-73.91876037,ASTORIA,123,QUEENS, NY,11103,Club/Bar/Restaurant
40.61956208,-73.92693127,,49,BROOKLYN, NY,11234,Club/Bar/Restaurant
40.73043027,-74.00012268,NEW YORK,12,MANHATTAN, NY,10012,Club/Bar/Restaurant
40.72517834,-73.98328499,NEW YORK,10,MANHATTAN, NY,10009,Club/Bar/Restaurant
40.7271881,-73.98805056,NEW YORK,29,MANHATTAN, NY,10003,Club/Bar/Restaurant
40.68716729,-73.97475969,,81,BROOKLYN, NY,11217,Club/Bar/Restaurant
40.75608531,-73.99432588,NEW YORK,16,MANHATTAN, NY,10018,Club/Bar/Restaurant
40.72223139,-73.99174569,NEW YORK,14,MANHATTAN, NY,10002,Club/Bar/Restaurant
40.6670974,-73.99465067,,10,BROOKLYN, NY,11215,Club/Bar/Restaurant
40.7567221,-73.99444494,NEW YORK,10,MANHATTAN, NY,10018,Club/Bar/Restaurant
40.73248569,-74.00968804,NEW YORK,71,MANHATTAN, NY,10014,Club/Bar/Restaurant
40.82575824,-73.95093905,NEW YORK,12,MANHATTAN, NY,10031,Club/Bar/Restaurant
40.85209219,-73.93171834,NY,12,MANHATTAN, NY,10033,Club/Bar/Restaurant
40.75927139,-73.96221046,NEW YORK,10,MANHATTAN, NY,10022,Club/Bar/Restaurant
40.72662405,-73.89415161,MASPETH,38,QUEENS, NY,11378,Club/Bar/Restaurant
40.80203533,-73.9570969,NEW YORK,19,MANHATTAN, NY,10026,Club/Bar/Restaurant
40.72228652,-74.0035824,NEW YORK,12,MANHATTAN, NY,10013,Club/Bar/Restaurant
40.72056678,-73.84589557,FOREST HILLS,15,QUEENS, NY,11375,Club/Bar/Restaurant
40.68280954,-73.87517678,,11,BROOKLYN, NY,11208,Club/Bar/Restaurant
40.6763246,-73.98589657,,26,BROOKLYN, NY,11215,Club/Bar/Restaurant
40.76005873,-73.9840054,NEW YORK,18,MANHATTAN, NY,10019,Club/Bar/Restaurant
40.73486525,-73.98875642,NEW YORK,11,MANHATTAN, NY,10003,Club/Bar/Restaurant
40.7192033,-73.98549789,NEW YORK,36,MANHATTAN, NY,10002,Club/Bar/Restaurant
40.63798634,-74.10954149,STATEN ISLAND,51,STATEN ISLAND, NY,10310,Club/Bar/Restaurant
40.72262119,-73.9924347,NEW YORK,47,MANHATTAN, NY,10002,Club/Bar/Restaurant
40.76193294,-73.91084501,ASTORIA,12,QUEENS, NY,11103,Club/Bar/Restaurant
40.72436787,-73.97866364,NEW YORK,40,MANHATTAN, NY,10009,Club/Bar/Restaurant
40.75851818,-73.967434,NEW YORK,14,MANHATTAN, NY,10022,Club/Bar/Restaurant
40.71100589,-73.96536874,,31,BROOKLYN, NY,11249,Club/Bar/Restaurant
40.8605242,-73.92768963,NEW YORK,14,MANHATTAN, NY,10040,Club/Bar/Restaurant
40.79890019,-73.96311619,NEW YORK,23,MANHATTAN, NY,10025,Club/Bar/Restaurant
40.708612,-73.94342188,,24,BROOKLYN, NY,11206,Club/Bar/Restaurant
40.73123668,-73.98868847,NEW YORK,16,MANHATTAN, NY,10003,Club/Bar/Restaurant
40.68207809,-73.83682297,OZONE PARK,38,QUEENS, NY,11417,Club/Bar/Restaurant
40.67699328,-73.88846565,,12,BROOKLYN, NY,11207,Club/Bar/Restaurant
40.70731187,-73.93976925,,14,BROOKLYN, NY,11206,Club/Bar/Restaurant
40.85032261,-73.93301057,NYC,106,MANHATTAN, NY,10033,Club/Bar/Restaurant
40.77641157,-73.95280236,NEW YORK,17,MANHATTAN, NY,10028,Club/Bar/Restaurant
40.7468511,-73.90140603,WOODSIDE,23,QUEENS, NY,11377,Club/Bar/Restaurant
40.71837662,-73.96009803,,61,BROOKLYN, NY,11249,Club/Bar/Restaurant
40.69319208,-73.99858642,,10,BROOKLYN, NY,11201,Club/Bar/Restaurant
40.54154749,-74.1466613,STATEN ISLAND,40,STATEN ISLAND, NY,10308,Club/Bar/Restaurant
40.86637626,-73.92826174,NEW YORK,94,MANHATTAN, NY,10034,Club/Bar/Restaurant
40.61678654,-73.93046423,,166,BROOKLYN, NY,11234,Club/Bar/Restaurant
40.71996962,-73.95544697,,111,BROOKLYN, NY,11249,Club/Bar/Restaurant
40.87910982,-73.84324268,BRONX,12,BRONX, NY,10469,Club/Bar/Restaurant
40.75549389,-73.88606747,JACKSON HEIGHTS,13,QUEENS, NY,11372,Club/Bar/Restaurant
40.76001899,-73.9170346,ASTORIA,21,QUEENS, NY,11103,Club/Bar/Restaurant
40.78091958,-73.94905834,NEW YORK,12,MANHATTAN, NY,10128,Club/Bar/Restaurant
40.86422327,-73.9264383,NEW YORK,12,MANHATTAN, NY,10040,Club/Bar/Restaurant
40.72257198,-74.0036221,NEW YORK,22,MANHATTAN, NY,10013,Club/Bar/Restaurant
40.68910459,-73.95506734,,49,BROOKLYN, NY,11205,Club/Bar/Restaurant
40.77760484,-73.95112256,NEW YORK,14,MANHATTAN, NY,10028,Club/Bar/Restaurant
40.75613305,-73.96760482,NEW YORK,18,MANHATTAN, NY,10022,Club/Bar/Restaurant
40.75579024,-73.88325157,JACKSON HEIGHTS,30,QUEENS, NY,11372,Club/Bar/Restaurant
40.75581747,-73.96783598,NEW YORK,20,MANHATTAN, NY,10022,Club/Bar/Restaurant
40.71808545,-73.95228812,,11,BROOKLYN, NY,11211,Club/Bar/Restaurant
40.63831144,-73.96852676,,42,BROOKLYN, NY,11218,Club/Bar/Restaurant
40.719228,-73.84232724,FOREST HILLS,11,QUEENS, NY,11375,Club/Bar/Restaurant
40.71469129,-73.94268806,,12,BROOKLYN, NY,11211,Club/Bar/Restaurant
40.73419576,-73.99148441,NEW YORK,45,MANHATTAN, NY,10003,Club/Bar/Restaurant
40.77521668,-73.95057551,NEW YORK,16,MANHATTAN, NY,10028,Club/Bar/Restaurant
40.77603408,-73.95603048,NY,37,MANHATTAN, NY,10028,Club/Bar/Restaurant
40.72251864,-73.98306559,NEW YORK,10,MANHATTAN, NY,10009,Club/Bar/Restaurant
40.69897636,-73.91431922,,40,BROOKLYN, NY,11237,Club/Bar/Restaurant
40.76756057,-73.91202159,ASTORIA,18,QUEENS, NY,11103,Club/Bar/Restaurant
40.85500852,-73.92958258,NEW YORK,35,MANHATTAN, NY,10040,Club/Bar/Restaurant
40.77718339,-73.9541558,NEW YORK,25,MANHATTAN, NY,10028,Club/Bar/Restaurant
40.71926915,-73.96152968,,11,BROOKLYN, NY,11249,Club/Bar/Restaurant
40.66031861,-73.9397504,,21,BROOKLYN, NY,11203,Club/Bar/Restaurant
40.61283368,-74.03364748,,16,BROOKLYN, NY,11209,Club/Bar/Restaurant
40.61312358,-73.96295591,,13,BROOKLYN, NY,11230,Club/Bar/Restaurant
40.86586537,-73.92766574,NEW YORK,46,MANHATTAN, NY,10034,Club/Bar/Restaurant
40.65112833,-74.00403627,,13,BROOKLYN, NY,11232,Club/Bar/Restaurant
40.73052634,-74.00005412,NEW YORK,22,MANHATTAN, NY,10012,Club/Bar/Restaurant
40.73281737,-73.98606141,NEW YORK,14,MANHATTAN, NY,10003,Club/Bar/Restaurant
40.82365242,-73.92440559,BRONX,15,BRONX, NY,10451,Club/Bar/Restaurant
40.80043804,-73.96571229,NEW YORK,21,MANHATTAN, NY,10025,Club/Bar/Restaurant
40.68020493,-73.82122343,SOUTH OZONE PARK,21,QUEENS, NY,11420,Club/Bar/Restaurant
40.61173799,-74.15883074,STATEN ISLAND,12,STATEN ISLAND, NY,10314,Club/Bar/Restaurant
40.83293256,-73.85128708,BRONX,37,BRONX, NY,10462,Club/Bar/Restaurant
40.68044536,-73.97483795,,15,BROOKLYN, NY,11217,Club/Bar/Restaurant
40.76801683,-73.92043622,ASTORIA,18,QUEENS, NY,11102,Club/Bar/Restaurant
40.77753987,-73.98318159,NEW YORK,10,MANHATTAN, NY,10023,Club/Bar/Restaurant
40.72164427,-73.99732314,NEW YORK,13,MANHATTAN, NY,10012,Club/Bar/Restaurant
40.7454433,-73.98673003,NEW YORK,13,MANHATTAN, NY,10016,Club/Bar/Restaurant
40.75283249,-73.8642104,CORONA,12,QUEENS, NY,11368,Club/Bar/Restaurant
40.85381137,-73.88746427,BRONX,48,BRONX, NY,10458,Club/Bar/Restaurant
40.71150171,-73.79079671,JAMAICA,59,QUEENS, NY,11432,Club/Bar/Restaurant
40.70923327,-73.90689374,RIDGEWOOD,20,QUEENS, NY,11385,Club/Bar/Restaurant
40.85072806,-73.93650912,NEW YORK,76,MANHATTAN, NY,10033,Club/Bar/Restaurant
40.8549922,-73.92982479,NEW YORK,11,MANHATTAN, NY,10040,Club/Bar/Restaurant
40.727594,-73.98529401,NEW YORK,11,MANHATTAN, NY,10009,Club/Bar/Restaurant
40.67834635,-73.83190727,OZONE PARK,16,QUEENS, NY,11417,Club/Bar/Restaurant
40.76359778,-73.99699657,NY,42,MANHATTAN, NY,10036,Club/Bar/Restaurant
40.73003889,-73.98064627,NEW YORK,19,MANHATTAN, NY,10009,Club/Bar/Restaurant
40.72109465,-73.98728323,NEW YORK,11,MANHATTAN, NY,10002,Club/Bar/Restaurant
40.71307855,-73.96660131,,11,BROOKLYN, NY,11249,Club/Bar/Restaurant
40.73677571,-73.95532748,,80,BROOKLYN, NY,11222,Club/Bar/Restaurant
40.75566577,-73.92496642,ASTORIA,172,QUEENS, NY,11106,Club/Bar/Restaurant
40.85687943,-73.93253402,NEW YORK,18,MANHATTAN, NY,10040,Club/Bar/Restaurant
40.75926849,-73.97114798,NEW YORK,80,MANHATTAN, NY,10022,Club/Bar/Restaurant
40.75557799,-73.88508195,JACKSON HEIGHTS,11,QUEENS, NY,11372,Club/Bar/Restaurant
40.73523231,-73.9828206,NEW YORK,17,MANHATTAN, NY,10003,Club/Bar/Restaurant
40.8660547,-73.91929936,NEW YORK,10,MANHATTAN, NY,10034,Club/Bar/Restaurant
40.71783505,-73.95772468,,13,BROOKLYN, NY,11211,Club/Bar/Restaurant
40.74073263,-73.98176185,NEW YORK,22,MANHATTAN, NY,10010,Club/Bar/Restaurant
40.72224356,-73.95889437,,,BROOKLYN, NY,11249,Club/Bar/Restaurant
40.7938383,-73.97053709,NEW YORK,14,MANHATTAN, NY,10025,Club/Bar/Restaurant
40.81056065,-73.93924954,NEW YORK,14,MANHATTAN, NY,10037,Club/Bar/Restaurant
40.90011529,-73.86765342,BRONX,12,BRONX, NY,10470,Club/Bar/Restaurant
40.71662604,-73.96179814,,38,BROOKLYN, NY,11249,Club/Bar/Restaurant
40.62269783,-74.02540685,,10,BROOKLYN, NY,11209,Club/Bar/Restaurant
40.70930472,-73.90699824,RIDGEWOOD,27,QUEENS, NY,11385,Club/Bar/Restaurant
40.68928026,-73.95507804,,24,BROOKLYN, NY,11205,Club/Bar/Restaurant
40.75737639,-73.90367891,WOODSIDE,22,QUEENS, NY,11377,Club/Bar/Restaurant
40.86597801,-73.91953085,NEW YORK,83,MANHATTAN, NY,10034,Club/Bar/Restaurant
40.62594784,-74.07520116,STATEN ISLAND,13,STATEN ISLAND, NY,10304,Club/Bar/Restaurant
40.71718124,-73.99547634,NEW YORK,13,MANHATTAN, NY,10002,Club/Bar/Restaurant
40.70137091,-73.90524211,RIDGEWOOD,28,QUEENS, NY,11385,Club/Bar/Restaurant
40.70996512,-74.00721759,NEW YORK,22,MANHATTAN, NY,10038,Club/Bar/Restaurant
40.72774509,-73.94213564,,21,BROOKLYN, NY,11222,Club/Bar/Restaurant
40.80058622,-73.9656147,NEW YORK,15,MANHATTAN, NY,10025,Club/Bar/Restaurant
40.67962258,-73.82092935,SOUTH OZONE PARK,10,QUEENS, NY,11420,Club/Bar/Restaurant
40.69572285,-73.76158885,SAINT ALBANS,23,QUEENS, NY,11412,Club/Bar/Restaurant
40.75416793,-73.93059513,LONG ISLAND CITY,104,QUEENS, NY,11101,Club/Bar/Restaurant
40.8450841,-73.93499288,NEW YORK,88,MANHATTAN, NY,10033,Club/Bar/Restaurant
40.80729251,-73.94645539,NY,23,MANHATTAN, NY,10027,Club/Bar/Restaurant
40.74478006,-73.97588188,NEW YORK,12,MANHATTAN, NY,10016,Club/Bar/Restaurant
40.67250249,-73.95780388,,25,BROOKLYN, NY,11238,Club/Bar/Restaurant
40.85660476,-73.93219449,NEW YORK,10,MANHATTAN, NY,10040,Club/Bar/Restaurant
40.76545533,-73.98750219,NEW YORK,13,MANHATTAN, NY,10019,Club/Bar/Restaurant
40.85833748,-73.90265424,BRONX,36,BRONX, NY,10453,Club/Bar/Restaurant
40.724578,-73.95526711,,35,BROOKLYN, NY,11222,Club/Bar/Restaurant
40.71610813,-73.99984849,NEW YORK,14,MANHATTAN, NY,10013,Club/Bar/Restaurant
40.75277207,-73.86418165,CORONA,14,QUEENS, NY,11368,Club/Bar/Restaurant
40.72221014,-73.95755956,,22,BROOKLYN, NY,11249,Club/Bar/Restaurant
40.73457209,-74.00224438,NEW YORK,16,MANHATTAN, NY,10014,Club/Bar/Restaurant
40.7804436,-73.95281395,NEW YORK,12,MANHATTAN, NY,10128,Club/Bar/Restaurant
40.83087217,-73.82638709,BRONX,10,BRONX, NY,10465,Club/Bar/Restaurant
40.69466861,-73.99388395,,11,BROOKLYN, NY,11201,Club/Bar/Restaurant
40.77122551,-73.95658242,NEW YORK,10,MANHATTAN, NY,10021,Club/Bar/Restaurant
40.84986646,-73.78754215,BRONX,14,BRONX, NY,10464,Club/Bar/Restaurant
40.51479975,-74.24842949,STATEN ISLAND,110,STATEN ISLAND, NY,10307,Club/Bar/Restaurant
40.73035573,-73.98999114,NEW YORK,25,MANHATTAN, NY,10003,Club/Bar/Restaurant
40.63755382,-73.96831094,,38,BROOKLYN, NY,11218,Club/Bar/Restaurant
40.704234,-73.9330095,,31,BROOKLYN, NY,11206,Club/Bar/Restaurant
40.69160096,-73.86536281,WOODHAVEN,15,QUEENS, NY,11421,Club/Bar/Restaurant
40.75562188,-73.92500256,ASTORIA,64,QUEENS, NY,11106,Club/Bar/Restaurant
40.51362974,-74.2512771,STATEN ISLAND,20,STATEN ISLAND, NY,10307,Club/Bar/Restaurant
40.75246678,-73.97026304,NEW YORK,245,MANHATTAN, NY,10017,Club/Bar/Restaurant
40.75598053,-73.88144289,JACKSON HEIGHTS,14,QUEENS, NY,11372,Club/Bar/Restaurant
40.7845544,-73.97728661,NEW YORK,103,MANHATTAN, NY,10024,Club/Bar/Restaurant
40.67804218,-73.96871351,,13,BROOKLYN, NY,11238,Club/Bar/Restaurant
40.72842386,-73.99967889,NEW YORK,11,MANHATTAN, NY,10012,Club/Bar/Restaurant
40.51370173,-74.25098966,STATEN ISLAND,25,STATEN ISLAND, NY,10307,Club/Bar/Restaurant
40.75505561,-73.98859419,NEW YORK,10,MANHATTAN, NY,10018,Club/Bar/Restaurant
40.72802505,-73.98629693,NEW YORK,42,MANHATTAN, NY,10003,Club/Bar/Restaurant
40.61128741,-74.0093319,,15,BROOKLYN, NY,11228,Club/Bar/Restaurant
40.6494905,-73.93012743,,20,BROOKLYN, NY,11203,Club/Bar/Restaurant
40.77023389,-73.91561027,ASTORIA,26,QUEENS, NY,11103,Club/Bar/Restaurant
40.7259883,-73.98516809,NEW YORK,22,MANHATTAN, NY,10009,Club/Bar/Restaurant
40.86643394,-73.92833399,NEW YORK,77,MANHATTAN, NY,10034,Club/Bar/Restaurant
40.74360495,-73.99444243,NEW YORK,30,MANHATTAN, NY,10011,Club/Bar/Restaurant
40.72851718,-73.99988815,NEW YORK,12,MANHATTAN, NY,10012,Club/Bar/Restaurant
40.81398419,-73.94654754,NEW YORK,171,MANHATTAN, NY,10027,Club/Bar/Restaurant
40.68268425,-73.96180317,,17,BROOKLYN, NY,11238,Club/Bar/Restaurant
40.81953104,-73.81753607,BRONX,19,BRONX, NY,10465,Club/Bar/Restaurant
40.74727733,-73.92420714,SUNNYSIDE,72,QUEENS, NY,11104,Club/Bar/Restaurant
40.61901245,-73.92587647,,36,BROOKLYN, NY,11234,Club/Bar/Restaurant
40.68161246,-73.95797118,,19,BROOKLYN, NY,11238,Club/Bar/Restaurant
40.7707057,-73.95388227,NEW YORK,11,MANHATTAN, NY,10075,Club/Bar/Restaurant
40.72267233,-73.98296454,NEW YORK,39,MANHATTAN, NY,10009,Club/Bar/Restaurant
40.6471866,-74.00816575,,11,BROOKLYN, NY,11220,Club/Bar/Restaurant
40.70311348,-73.90818264,RIDGEWOOD,13,QUEENS, NY,11385,Club/Bar/Restaurant
40.77242019,-73.97872407,NEW YORK,30,MANHATTAN, NY,10023,Club/Bar/Restaurant
40.74058992,-73.98187736,NEW YORK,18,MANHATTAN, NY,10010,Club/Bar/Restaurant
40.74002303,-74.00605526,NEW YORK,10,MANHATTAN, NY,10014,Club/Bar/Restaurant
40.71300542,-73.93635895,,58,BROOKLYN, NY,11211,Club/Bar/Restaurant
40.76135772,-73.9905099,NEW YORK,16,MANHATTAN, NY,10036,Club/Bar/Restaurant
40.77303219,-73.9782834,NEW YORK,87,MANHATTAN, NY,10023,Club/Bar/Restaurant
40.68244394,-73.96570085,,24,BROOKLYN, NY,11238,Club/Bar/Restaurant
40.70852773,-73.95816341,,13,BROOKLYN, NY,11211,Club/Bar/Restaurant
40.83022246,-73.94768359,NEW YORK,31,MANHATTAN, NY,10031,Club/Bar/Restaurant
40.71810371,-73.95004428,,15,BROOKLYN, NY,11211,Club/Bar/Restaurant
40.87957459,-73.90431552,BRONX,26,BRONX, NY,10463,Club/Bar/Restaurant
40.70498071,-73.92028784,,23,BROOKLYN, NY,11237,Club/Bar/Restaurant
40.81437291,-73.9443688,NEW YORK,93,MANHATTAN, NY,10030,Club/Bar/Restaurant
40.66364413,-73.98968396,,17,BROOKLYN, NY,11215,Club/Bar/Restaurant
40.68113675,-73.95566761,,10,BROOKLYN, NY,11238,Club/Bar/Restaurant
40.63404998,-74.02674784,,16,BROOKLYN, NY,11209,Club/Bar/Restaurant
40.62566796,-74.02418675,,17,BROOKLYN, NY,11209,Club/Bar/Restaurant
40.75443052,-73.9337206,LONG ISLAND CITY,26,QUEENS, NY,11101,Club/Bar/Restaurant
40.63354698,-74.12407536,STATEN ISLAND,209,STATEN ISLAND, NY,10310,Club/Bar/Restaurant
40.77152041,-73.92651543,ASTORIA,17,QUEENS, NY,11102,Club/Bar/Restaurant
40.85737258,-73.88601586,BRONX,10,BRONX, NY,10458,Club/Bar/Restaurant
40.60502681,-74.00486539,,18,BROOKLYN, NY,11214,Club/Bar/Restaurant
40.7572323,-73.98979219,NEW YORK,39,MANHATTAN, NY,10036,Club/Bar/Restaurant
40.85084212,-73.78824389,BRONX,13,BRONX, NY,10464,Club/Bar/Restaurant
40.73444802,-73.95495738,,11,BROOKLYN, NY,11222,Club/Bar/Restaurant
40.74499613,-73.98877275,NEW YORK,19,MANHATTAN, NY,10001,Club/Bar/Restaurant
40.68002534,-73.97450642,,21,BROOKLYN, NY,11217,Club/Bar/Restaurant
40.82592677,-73.82137752,BRONX,54,BRONX, NY,10465,Club/Bar/Restaurant
40.72618332,-73.98632618,NEW YORK,20,MANHATTAN, NY,10003,Club/Bar/Restaurant
40.82835954,-73.88184148,BRONX,36,BRONX, NY,10472,Club/Bar/Restaurant
40.61927054,-73.92185985,,12,BROOKLYN, NY,11234,Club/Bar/Restaurant
40.68629416,-73.97346557,,25,BROOKLYN, NY,11217,Club/Bar/Restaurant
40.68727394,-73.99010939,,24,BROOKLYN, NY,11201,Club/Bar/Restaurant
40.72582685,-73.98967794,NEW YORK,19,MANHATTAN, NY,10003,Club/Bar/Restaurant
40.72972602,-73.98085924,NEW YORK,14,MANHATTAN, NY,10009,Club/Bar/Restaurant
40.79600328,-73.93540919,NEW YORK,15,MANHATTAN, NY,10029,Club/Bar/Restaurant
40.62346224,-74.03105917,,34,BROOKLYN, NY,11209,Club/Bar/Restaurant
40.72588449,-73.98965268,NEW YORK,11,MANHATTAN, NY,10003,Club/Bar/Restaurant
40.85932419,-73.93123734,NEW YORK,223,MANHATTAN, NY,10040,Club/Bar/Restaurant
40.63733699,-73.93079592,,28,BROOKLYN, NY,11203,Club/Bar/Restaurant
40.68262178,-73.99325769,,10,BROOKLYN, NY,11231,Club/Bar/Restaurant
40.75812247,-73.91716691,ASTORIA,15,QUEENS, NY,11103,Club/Bar/Restaurant
40.73940544,-74.00644854,NEW YORK,11,MANHATTAN, NY,10014,Club/Bar/Restaurant
40.72418316,-74.00319648,NEW YORK,10,MANHATTAN, NY,10012,Club/Bar/Restaurant
40.73981713,-74.00680222,NEW YORK,44,MANHATTAN, NY,10014,Club/Bar/Restaurant
40.82450978,-73.95185049,NEW YORK,41,MANHATTAN, NY,10031,Club/Bar/Restaurant
40.69491177,-73.953181,,19,BROOKLYN, NY,11205,Club/Bar/Restaurant
40.75471111,-73.92575434,ASTORIA,17,QUEENS, NY,11106,Club/Bar/Restaurant
40.68736451,-73.99003366,,13,BROOKLYN, NY,11201,Club/Bar/Restaurant
40.74653461,-73.91782372,SUNNYSIDE,14,QUEENS, NY,11104,Club/Bar/Restaurant
40.86596699,-73.92776686,NEW YORK,26,MANHATTAN, NY,10034,Club/Bar/Restaurant
40.79770616,-73.94860847,NEW YORK,13,MANHATTAN, NY,10029,Club/Bar/Restaurant
40.71638437,-73.96142312,,22,BROOKLYN, NY,11249,Club/Bar/Restaurant
40.88188601,-73.86373345,BRONX,22,BRONX, NY,10467,Club/Bar/Restaurant
40.72424568,-73.98774082,NEW YORK,26,MANHATTAN, NY,10003,Club/Bar/Restaurant
40.68207438,-73.9602135,,13,BROOKLYN, NY,11238,Club/Bar/Restaurant
40.72725629,-73.98447148,NEW YORK,46,MANHATTAN, NY,10009,Club/Bar/Restaurant
40.83349654,-73.82850509,BRONX,20,BRONX, NY,10461,Club/Bar/Restaurant
40.73899939,-74.00076141,NEW YORK,11,MANHATTAN, NY,10011,Club/Bar/Restaurant
40.77729237,-73.95215543,NEW YORK,37,MANHATTAN, NY,10028,Club/Bar/Restaurant
40.63098847,-74.1021192,STATEN ISLAND,27,STATEN ISLAND, NY,10301,Club/Bar/Restaurant
40.73994328,-73.99156306,NEW YORK,15,MANHATTAN, NY,10011,Club/Bar/Restaurant
40.76003236,-74.00275781,NEW YORK,18,MANHATTAN, NY,10018,Club/Bar/Restaurant
40.76201265,-73.9109929,ASTORIA,24,QUEENS, NY,11103,Club/Bar/Restaurant
40.82138121,-73.90090178,BRONX,12,BRONX, NY,10459,Club/Bar/Restaurant
40.76337544,-73.9964587,NEW YORK,10,MANHATTAN, NY,10036,Club/Bar/Restaurant
40.90151967,-73.84693744,BRONX,14,BRONX, NY,10466,Club/Bar/Restaurant
40.71863699,-73.95900843,,15,BROOKLYN, NY,11249,Club/Bar/Restaurant
40.83050507,-73.94746295,NEW YORK,33,MANHATTAN, NY,10031,Club/Bar/Restaurant
40.72976329,-73.99878408,NEW YORK,11,MANHATTAN, NY,10012,Club/Bar/Restaurant
40.75846113,-73.98286876,NEW YORK,15,MANHATTAN, NY,10036,Club/Bar/Restaurant
40.74718652,-73.98969629,NEW YORK,13,MANHATTAN, NY,10001,Club/Bar/Restaurant
40.86466396,-73.92888905,NEW YORK,10,MANHATTAN, NY,10040,Club/Bar/Restaurant
40.71488601,-73.96226087,,10,BROOKLYN, NY,11249,Club/Bar/Restaurant
40.68149095,-73.77232272,JAMAICA,16,QUEENS, NY,11434,Club/Bar/Restaurant
40.71070488,-73.96853587,,20,BROOKLYN, NY,11249,Club/Bar/Restaurant
40.73748845,-73.88345324,ELMHURST,19,QUEENS, NY,11373,Club/Bar/Restaurant
40.8670152,-73.92310895,NEW YORK,55,MANHATTAN, NY,10034,Club/Bar/Restaurant
40.54452762,-74.14067346,STATEN ISLAND,21,STATEN ISLAND, NY,10308,Club/Bar/Restaurant
40.71407488,-73.95115833,,13,BROOKLYN, NY,11211,Club/Bar/Restaurant
40.76139103,-74.0017363,NEW YORK,20,MANHATTAN, NY,10018,Club/Bar/Restaurant
40.7288524,-73.95741462,,10,BROOKLYN, NY,11222,Club/Bar/Restaurant
40.86582691,-73.9276007,NEW YORK,116,MANHATTAN, NY,10034,Club/Bar/Restaurant
40.69701262,-73.83697034,RICHMOND HILL,26,QUEENS, NY,11418,Club/Bar/Restaurant
40.72176714,-73.98749235,NEW YORK,62,MANHATTAN, NY,10002,Club/Bar/Restaurant
40.71919324,-73.99984127,NEW YORK,30,MANHATTAN, NY,10013,Club/Bar/Restaurant
40.67569953,-73.95613989,,10,BROOKLYN, NY,11238,Club/Bar/Restaurant
40.74026183,-74.00586403,NEW YORK,24,MANHATTAN, NY,10014,Club/Bar/Restaurant
40.54051909,-74.17716522,STATEN ISLAND,26,STATEN ISLAND, NY,10312,Club/Bar/Restaurant
40.80115778,-73.96788631,NEW YORK,29,MANHATTAN, NY,10025,Club/Bar/Restaurant
40.71996664,-73.98802299,NEW YORK,56,MANHATTAN, NY,10002,Club/Bar/Restaurant
40.67058189,-73.93095248,,25,BROOKLYN, NY,11213,Club/Bar/Restaurant
40.8262017,-73.82167669,BRONX,10,BRONX, NY,10465,Club/Bar/Restaurant
40.79546828,-73.9358106,NEW YORK,17,MANHATTAN, NY,10029,Club/Bar/Restaurant
40.67071912,-73.93094873,,15,BROOKLYN, NY,11213,Club/Bar/Restaurant
40.76167245,-73.96044751,NEW YORK,60,MANHATTAN, NY,10065,Club/Bar/Restaurant
40.75707705,-73.96693659,NEW YORK,16,MANHATTAN, NY,10022,Club/Bar/Restaurant
40.78151772,-73.94857764,NEW YORK,11,MANHATTAN, NY,10128,Club/Bar/Restaurant
40.67482164,-73.97635782,,14,BROOKLYN, NY,11215,Club/Bar/Restaurant
40.63834188,-74.01735262,,12,BROOKLYN, NY,11220,Club/Bar/Restaurant
40.7630701,-73.92770879,ASTORIA,23,QUEENS, NY,11106,Club/Bar/Restaurant
40.68154141,-73.97925782,,42,BROOKLYN, NY,11217,Club/Bar/Restaurant
40.66569819,-73.95090178,,24,BROOKLYN, NY,11225,Club/Bar/Restaurant
40.71770885,-73.95787266,,10,BROOKLYN, NY,11249,Club/Bar/Restaurant
40.75625559,-73.92450373,ASTORIA,12,QUEENS, NY,11106,Club/Bar/Restaurant
40.75548198,-73.92513266,ASTORIA,17,QUEENS, NY,11106,Club/Bar/Restaurant
40.70925791,-73.77552104,HOLLIS,34,QUEENS, NY,11423,Club/Bar/Restaurant
40.72726727,-73.98449673,NEW YORK,,MANHATTAN, NY,10009,Club/Bar/Restaurant
40.67535923,-73.95628432,,34,BROOKLYN, NY,11238,Club/Bar/Restaurant
40.72767633,-73.98521823,NEW YORK,26,MANHATTAN, NY,10009,Club/Bar/Restaurant
40.74228478,-74.0044171,NEW YORK,17,MANHATTAN, NY,10011,Club/Bar/Restaurant
40.86821952,-73.91824099,NEW YORK,30,MANHATTAN, NY,10034,Club/Bar/Restaurant
40.83068342,-73.94735801,NEW YORK,13,MANHATTAN, NY,10031,Club/Bar/Restaurant
40.7557629,-73.88335269,JACKSON HEIGHTS,18,QUEENS, NY,11372,Club/Bar/Restaurant
40.72726477,-73.98640894,NEW YORK,14,MANHATTAN, NY,10003,Club/Bar/Restaurant
40.73938896,-73.9202178,WOODSIDE,17,QUEENS, NY,11377,Club/Bar/Restaurant
40.7495058,-73.95515292,LONG ISLAND CITY,11,QUEENS, NY,11101,Club/Bar/Restaurant
40.85783979,-73.9320414,NEW YORK,33,MANHATTAN, NY,10040,Club/Bar/Restaurant
40.64043183,-73.99432131,,26,BROOKLYN, NY,11219,Club/Bar/Restaurant
40.65904306,-73.96052639,,10,BROOKLYN, NY,11225,Club/Bar/Restaurant
40.63523081,-73.95023243,,11,BROOKLYN, NY,11210,Club/Bar/Restaurant
40.75155382,-74.00362729,NY,45,MANHATTAN, NY,10001,Club/Bar/Restaurant
40.78655569,-73.79308146,BAYSIDE,17,QUEENS, NY,11360,Club/Bar/Restaurant
40.670532,-73.93015946,,31,BROOKLYN, NY,11213,Club/Bar/Restaurant
40.64911954,-73.83738647,HOWARD BEACH,95,QUEENS, NY,11414,Club/Bar/Restaurant
40.58790188,-73.95588792,,74,BROOKLYN, NY,11235,Club/Bar/Restaurant
40.72228696,-73.9574621,,17,BROOKLYN, NY,11249,Club/Bar/Restaurant
40.72631194,-73.98336048,NEW YORK,39,MANHATTAN, NY,10009,Club/Bar/Restaurant
40.72050519,-73.99683617,NEW YORK,15,MANHATTAN, NY,10013,Club/Bar/Restaurant
40.7202352,-73.98447673,NEW YORK,10,MANHATTAN, NY,10002,Club/Bar/Restaurant
40.85320563,-73.78991724,BRONX,10,BRONX, NY,10464,Club/Bar/Restaurant
40.67987442,-73.97471558,,17,BROOKLYN, NY,11217,Club/Bar/Restaurant
40.77719359,-73.95223855,NEW YORK,41,MANHATTAN, NY,10028,Club/Bar/Restaurant
40.87432431,-73.8568751,BRONX,10,BRONX, NY,10469,Club/Bar/Restaurant
40.77279783,-73.91610164,ASTORIA,54,QUEENS, NY,11102,Club/Bar/Restaurant
40.73938894,-74.00684909,NEW YORK,37,MANHATTAN, NY,10014,Club/Bar/Restaurant
40.72648555,-73.98921603,NEW YORK,16,MANHATTAN, NY,10003,Club/Bar/Restaurant
40.7565272,-73.99401904,NEW YORK,11,MANHATTAN, NY,10018,Club/Bar/Restaurant
40.73453342,-73.99226737,NEW YORK,17,MANHATTAN, NY,10003,Club/Bar/Restaurant
40.63770615,-74.07981556,STATEN ISLAND,19,STATEN ISLAND, NY,10301,Club/Bar/Restaurant
40.65982841,-73.94763701,,10,BROOKLYN, NY,11203,Club/Bar/Restaurant
40.78358839,-73.97801636,NEW YORK,13,MANHATTAN, NY,10024,Club/Bar/Restaurant
40.7664578,-73.92042364,ASTORIA,22,QUEENS, NY,11102,Club/Bar/Restaurant
40.76132004,-73.91709074,ASTORIA,11,QUEENS, NY,11103,Club/Bar/Restaurant
40.70789538,-73.78647615,JAMAICA,16,QUEENS, NY,11432,Club/Bar/Restaurant
40.69779413,-73.93670886,,15,BROOKLYN, NY,11206,Club/Bar/Restaurant
40.77139424,-73.98215781,NEW YORK,14,MANHATTAN, NY,10023,Club/Bar/Restaurant
40.67928681,-73.96360417,,10,BROOKLYN, NY,11238,Club/Bar/Restaurant
40.54430774,-74.14090687,STATEN ISLAND,34,STATEN ISLAND, NY,10308,Club/Bar/Restaurant
40.66049705,-73.93978989,,68,BROOKLYN, NY,11203,Club/Bar/Restaurant
40.6981756,-73.9849579,,59,BROOKLYN, NY,11201,Club/Bar/Restaurant
40.69132926,-73.95175916,,17,BROOKLYN, NY,11205,Club/Bar/Restaurant
40.74725134,-73.95259565,LONG ISLAND CITY,15,QUEENS, NY,11101,Club/Bar/Restaurant
40.67407979,-73.96304823,,21,BROOKLYN, NY,11238,Club/Bar/Restaurant
40.73445655,-73.99206531,NEW YORK,10,MANHATTAN, NY,10003,Club/Bar/Restaurant
40.84571889,-73.93635125,NEW YORK,13,MANHATTAN, NY,10033,Club/Bar/Restaurant
40.63952685,-73.95126694,,11,BROOKLYN, NY,11226,Club/Bar/Restaurant
40.73231592,-74.00051236,NEW YORK,12,MANHATTAN, NY,10011,Club/Bar/Restaurant
40.72417495,-74.00226207,NEW YORK,22,MANHATTAN, NY,10012,Club/Bar/Restaurant
40.72150321,-73.98395693,NEW YORK,15,MANHATTAN, NY,10002,Club/Bar/Restaurant
40.62501047,-74.03042587,,29,BROOKLYN, NY,11209,Club/Bar/Restaurant
40.6298145,-74.14039929,STATEN ISLAND,24,STATEN ISLAND, NY,10302,Club/Bar/Restaurant
40.62490067,-74.03048346,,65,BROOKLYN, NY,11209,Club/Bar/Restaurant
40.67358845,-73.96295477,,18,BROOKLYN, NY,11238,Club/Bar/Restaurant
40.76007077,-73.99654912,NEW YORK,12,MANHATTAN, NY,10036,Club/Bar/Restaurant
40.70836494,-73.94336077,,12,BROOKLYN, NY,11206,Club/Bar/Restaurant
40.71848659,-73.98309187,NEW YORK,17,MANHATTAN, NY,10002,Club/Bar/Restaurant
40.71281939,-73.95511268,,60,BROOKLYN, NY,11211,Club/Bar/Restaurant
40.61896075,-73.92658253,,44,BROOKLYN, NY,11234,Club/Bar/Restaurant
40.72727826,-73.98456889,NEW YORK,21,MANHATTAN, NY,10009,Club/Bar/Restaurant
40.74830206,-73.97833838,NEW YORK,10,MANHATTAN, NY,10016,Club/Bar/Restaurant
40.71066973,-73.93653431,,20,BROOKLYN, NY,11206,Club/Bar/Restaurant
40.75427528,-73.93586473,LONG ISLAND CITY,17,QUEENS, NY,11101,Club/Bar/Restaurant
40.77149309,-73.98241411,NEW YORK,19,MANHATTAN, NY,10023,Club/Bar/Restaurant
40.87802224,-73.90240484,BRONX,10,BRONX, NY,10463,Club/Bar/Restaurant
40.83745035,-73.93869013,NEW YORK,22,MANHATTAN, NY,10032,Club/Bar/Restaurant
40.75178639,-73.94792566,LONG ISLAND CITY,12,QUEENS, NY,11101,Club/Bar/Restaurant
40.71010746,-73.84870075,FOREST HILLS,56,QUEENS, NY,11375,Club/Bar/Restaurant
40.85441802,-73.88753192,BRONX,14,BRONX, NY,10458,Club/Bar/Restaurant
40.72463439,-73.98018965,NEW YORK,33,MANHATTAN, NY,10009,Club/Bar/Restaurant
40.63520061,-73.95020002,,16,BROOKLYN, NY,11210,Club/Bar/Restaurant
40.74261883,-73.95415793,LONG ISLAND CITY,10,QUEENS, NY,11101,Club/Bar/Restaurant
40.74507493,-73.90428495,WOODSIDE,22,QUEENS, NY,11377,Club/Bar/Restaurant
40.70603768,-73.83142988,KEW GARDENS,20,QUEENS, NY,11415,Club/Bar/Restaurant
40.76009771,-73.98862943,NEW YORK,72,MANHATTAN, NY,10036,Club/Bar/Restaurant
40.85163365,-73.84400868,BRONX,16,BRONX, NY,10461,Club/Bar/Restaurant
40.82605852,-73.87829732,BRONX,19,BRONX, NY,10472,Club/Bar/Restaurant
40.75707156,-73.96692938,NEW YORK,17,MANHATTAN, NY,10022,Club/Bar/Restaurant
40.7379031,-73.9838339,NEW YORK,41,MANHATTAN, NY,10010,Club/Bar/Restaurant
40.66315501,-73.98470988,,31,BROOKLYN, NY,11215,Club/Bar/Restaurant
40.7536108,-73.90392257,WOODSIDE,10,QUEENS, NY,11377,Club/Bar/Restaurant
40.64182776,-74.01738596,,11,BROOKLYN, NY,11220,Club/Bar/Restaurant
40.86676099,-73.92061093,NEW YORK,44,MANHATTAN, NY,10034,Club/Bar/Restaurant
40.69956716,-73.83068528,RICHMOND HILL,127,QUEENS, NY,11418,Club/Bar/Restaurant
40.80288579,-73.96393753,NEW YORK,20,MANHATTAN, NY,10025,Club/Bar/Restaurant
40.63148095,-74.00797649,,18,BROOKLYN, NY,11219,Club/Bar/Restaurant
40.69462615,-73.93104298,,12,BROOKLYN, NY,11221,Club/Bar/Restaurant
40.70081771,-73.92998708,,12,BROOKLYN, NY,11206,Club/Bar/Restaurant
40.86909004,-73.93158518,NEW YORK,14,MANHATTAN, NY,10034,Club/Bar/Restaurant
40.8541375,-73.88695764,BRONX,50,BRONX, NY,10458,Club/Bar/Restaurant
40.63436537,-74.13582957,STATEN ISLAND,11,STATEN ISLAND, NY,10302,Club/Bar/Restaurant
40.64041492,-74.01160961,,14,BROOKLYN, NY,11220,Club/Bar/Restaurant
40.88956084,-73.89913283,BRONX,30,BRONX, NY,10471,Club/Bar/Restaurant
40.88955257,-73.89908583,BRONX,26,BRONX, NY,10471,Club/Bar/Restaurant
40.62650206,-74.07553682,STATEN ISLAND,45,STATEN ISLAND, NY,10304,Club/Bar/Restaurant
40.90127661,-73.85208191,BRONX,21,BRONX, NY,10470,Club/Bar/Restaurant
40.71742349,-73.95815061,,29,BROOKLYN, NY,11211,Club/Bar/Restaurant
40.67721797,-73.95768914,,77,BROOKLYN, NY,11238,Club/Bar/Restaurant
40.70798579,-73.83097049,KEW GARDENS,29,QUEENS, NY,11415,Club/Bar/Restaurant
40.75856779,-73.91810847,ASTORIA,13,QUEENS, NY,11103,Club/Bar/Restaurant
40.75106308,-73.8722373,JACKSON HEIGHTS,10,QUEENS, NY,11372,Club/Bar/Restaurant
40.76965595,-73.90995017,ASTORIA,11,QUEENS, NY,11105,Club/Bar/Restaurant
40.67628864,-73.98379116,,12,BROOKLYN, NY,11215,Club/Bar/Restaurant
40.75981907,-73.91389803,ASTORIA,11,QUEENS, NY,11103,Club/Bar/Restaurant
40.85233095,-73.88923437,BRONX,12,BRONX, NY,10457,Club/Bar/Restaurant
40.76323255,-73.99285606,NEW YORK,28,MANHATTAN, NY,10036,Club/Bar/Restaurant
40.8057161,-73.96556148,NEW YORK,48,MANHATTAN, NY,10025,Club/Bar/Restaurant
40.76543908,-73.98972234,NEW YORK,11,MANHATTAN, NY,10019,Club/Bar/Restaurant
40.75575482,-73.88350791,JACKSON HEIGHTS,12,QUEENS, NY,11372,Club/Bar/Restaurant
40.71899008,-74.00330806,NEW YORK,11,MANHATTAN, NY,10013,Club/Bar/Restaurant
40.76997974,-73.95751829,NEW YORK,15,MANHATTAN, NY,10021,Club/Bar/Restaurant
40.82200374,-73.93991835,NEW YORK,14,MANHATTAN, NY,10039,Club/Bar/Restaurant
40.71461032,-73.80254298,JAMAICA,12,QUEENS, NY,11432,Club/Bar/Restaurant
40.63195652,-74.13255334,STATEN ISLAND,10,STATEN ISLAND, NY,10302,Club/Bar/Restaurant
40.62582338,-73.92761249,,50,BROOKLYN, NY,11234,Club/Bar/Restaurant
40.65240861,-73.92639076,,13,BROOKLYN, NY,11203,Club/Bar/Restaurant
40.80865068,-73.94545729,NEW YORK,12,MANHATTAN, NY,10027,Club/Bar/Restaurant
40.75196007,-74.00262754,NEW YORK,28,MANHATTAN, NY,10001,Club/Bar/Restaurant
40.75577379,-73.88326243,JACKSON HEIGHTS,143,QUEENS, NY,11372,Club/Bar/Restaurant
40.64606398,-73.94907482,,31,BROOKLYN, NY,11226,Club/Bar/Restaurant
40.68174132,-73.9768385,,12,BROOKLYN, NY,11217,Club/Bar/Restaurant
40.71895716,-73.9974892,NEW YORK,19,MANHATTAN, NY,10013,Club/Bar/Restaurant
40.70786637,-73.94538826,,15,BROOKLYN, NY,11206,Club/Bar/Restaurant
40.61826634,-74.10518308,STATEN ISLAND,19,STATEN ISLAND, NY,10301,Club/Bar/Restaurant
40.72517298,-73.98419056,NEW YORK,,MANHATTAN, NY,10009,Club/Bar/Restaurant
40.80242871,-73.96833358,NEW YORK,14,MANHATTAN, NY,10025,Club/Bar/Restaurant
40.76350737,-73.90949641,ASTORIA,32,QUEENS, NY,11103,Club/Bar/Restaurant
40.7113011,-73.94758936,,70,BROOKLYN, NY,11211,Club/Bar/Restaurant
40.68320971,-73.96563917,,21,BROOKLYN, NY,11238,Club/Bar/Restaurant
40.70573362,-73.92152766,,24,BROOKLYN, NY,11237,Club/Bar/Restaurant
40.7451164,-73.98446732,NEW YORK,12,MANHATTAN, NY,10016,Club/Bar/Restaurant
40.84814867,-73.93278143,NEW YORK,10,MANHATTAN, NY,10033,Club/Bar/Restaurant
40.71189366,-73.94126205,,12,BROOKLYN, NY,11211,Club/Bar/Restaurant
40.72288755,-73.99457403,NEW YORK,10,MANHATTAN, NY,10012,Club/Bar/Restaurant
40.75680596,-73.96922878,NEW YORK,14,MANHATTAN, NY,10022,Club/Bar/Restaurant
40.76643238,-73.98678361,NEW YORK,11,MANHATTAN, NY,10019,Club/Bar/Restaurant
40.72513011,-74.00315323,NEW YORK,10,MANHATTAN, NY,10012,Club/Bar/Restaurant
40.68255971,-73.81414309,SOUTH OZONE PARK,14,QUEENS, NY,11420,Club/Bar/Restaurant
40.62556773,-74.03018836,,11,BROOKLYN, NY,11209,Club/Bar/Restaurant
40.77680121,-73.95251685,NEW YORK,35,MANHATTAN, NY,10028,Club/Bar/Restaurant
40.7121645,-73.96643223,,47,BROOKLYN, NY,11249,Club/Bar/Restaurant
40.72168764,-73.98839066,NEW YORK,89,MANHATTAN, NY,10002,Club/Bar/Restaurant
40.71829131,-73.95230962,,41,BROOKLYN, NY,11211,Club/Bar/Restaurant
40.61629488,-73.92989924,,12,BROOKLYN, NY,11234,Club/Bar/Restaurant
40.8659314,-73.91961044,NEW YORK,10,MANHATTAN, NY,10034,Club/Bar/Restaurant
40.75820114,-73.98909539,NEW YORK,14,MANHATTAN, NY,10036,Club/Bar/Restaurant
40.81442778,-73.94432902,NEW YORK,168,MANHATTAN, NY,10030,Club/Bar/Restaurant
40.72270842,-73.98595891,NEW YORK,19,MANHATTAN, NY,10009,Club/Bar/Restaurant
40.78959019,-73.94317972,NEW YORK,13,MANHATTAN, NY,10029,Club/Bar/Restaurant
40.68033713,-73.96077698,,181,BROOKLYN, NY,11238,Club/Bar/Restaurant
40.85374431,-73.79030955,BRONX,59,BRONX, NY,10464,Club/Bar/Restaurant
40.71205737,-73.96614372,,11,BROOKLYN, NY,11249,Club/Bar/Restaurant
40.81904474,-73.81723392,BRONX,43,BRONX, NY,10465,Club/Bar/Restaurant
40.70587836,-73.91287846,RIDGEWOOD,11,QUEENS, NY,11385,Club/Bar/Restaurant
40.75546118,-73.88629853,JACKSON HEIGHTS,28,QUEENS, NY,11372,Club/Bar/Restaurant
40.7765625,-73.95270477,NEW YORK,34,MANHATTAN, NY,10028,Club/Bar/Restaurant
40.86380538,-73.92535778,NEW YORK,25,MANHATTAN, NY,10034,Club/Bar/Restaurant
40.72302927,-73.983787,NEW YORK,38,MANHATTAN, NY,10009,Club/Bar/Restaurant
40.86924949,-73.91542314,NEW YORK,18,MANHATTAN, NY,10034,Club/Bar/Restaurant
40.76617995,-73.98759592,NEW YORK,16,MANHATTAN, NY,10019,Club/Bar/Restaurant
40.73322706,-74.00529691,NEW YORK,21,MANHATTAN, NY,10014,Club/Bar/Restaurant
40.72576132,-73.99477584,NEW YORK,14,MANHATTAN, NY,10012,Club/Bar/Restaurant
40.72579598,-73.98373582,NEW YORK,51,MANHATTAN, NY,10009,Club/Bar/Restaurant
40.85050642,-73.93286218,NEW YORK,27,MANHATTAN, NY,10033,Club/Bar/Restaurant
40.74642854,-73.89533998,JACKSON HEIGHTS,154,QUEENS, NY,11372,Club/Bar/Restaurant
40.59955577,-73.98674822,,12,BROOKLYN, NY,11214,Club/Bar/Restaurant
40.77228954,-73.91539465,ASTORIA,15,QUEENS, NY,11102,Club/Bar/Restaurant
40.79959992,-73.9625957,NEW YORK,14,MANHATTAN, NY,10025,Club/Bar/Restaurant
40.88722438,-73.90473127,BRONX,10,BRONX, NY,10463,Club/Bar/Restaurant
40.70224685,-73.94334794,,29,BROOKLYN, NY,11206,Club/Bar/Restaurant
40.72021137,-73.99366154,NEW YORK,19,MANHATTAN, NY,10002,Club/Bar/Restaurant
40.74449832,-73.98110761,NEW YORK,12,MANHATTAN, NY,10016,Club/Bar/Restaurant
40.7808738,-73.91740581,ASTORIA,10,QUEENS, NY,11105,Club/Bar/Restaurant
40.69254612,-73.9273922,,50,BROOKLYN, NY,11221,Club/Bar/Restaurant
40.60320654,-73.97237862,,10,BROOKLYN, NY,11223,Club/Bar/Restaurant
40.72195166,-73.9962697,NEW YORK,10,MANHATTAN, NY,10013,Club/Bar/Restaurant
40.71760489,-73.95882508,,22,BROOKLYN, NY,11249,Club/Bar/Restaurant
40.68224416,-73.97976598,,18,BROOKLYN, NY,11217,Club/Bar/Restaurant
40.71863314,-74.00608218,NEW YORK,34,MANHATTAN, NY,10013,Club/Bar/Restaurant
40.77472725,-73.90869768,ASTORIA,96,QUEENS, NY,11105,Club/Bar/Restaurant
40.67900933,-74.01096737,,20,BROOKLYN, NY,11231,Club/Bar/Restaurant
40.76881394,-73.91075637,ASTORIA,14,QUEENS, NY,11103,Club/Bar/Restaurant
40.72037837,-73.98821412,NEW YORK,14,MANHATTAN, NY,10002,Club/Bar/Restaurant
40.63492412,-74.02039982,,22,BROOKLYN, NY,11220,Club/Bar/Restaurant
40.76064275,-73.8726918,EAST ELMHURST,11,QUEENS, NY,11369,Club/Bar/Restaurant
40.85809258,-73.90191352,BRONX,13,BRONX, NY,10453,Club/Bar/Restaurant
40.82542074,-73.95117416,NEW YORK,16,MANHATTAN, NY,10031,Club/Bar/Restaurant
40.67511234,-73.95664499,,15,BROOKLYN, NY,11238,Club/Bar/Restaurant
40.71625298,-73.96249818,,12,BROOKLYN, NY,11249,Club/Bar/Restaurant
40.8578263,-73.88687184,BRONX,16,BRONX, NY,10458,Club/Bar/Restaurant
40.75575619,-73.964786,NEW YORK,11,MANHATTAN, NY,10022,Club/Bar/Restaurant
40.76464356,-73.91658843,ASTORIA,14,QUEENS, NY,11103,Club/Bar/Restaurant
40.62708439,-74.02363248,,10,BROOKLYN, NY,11209,Club/Bar/Restaurant
40.70724156,-73.95392978,,21,BROOKLYN, NY,11211,Club/Bar/Restaurant
40.73360593,-73.99774483,NEW YORK,51,MANHATTAN, NY,10011,Club/Bar/Restaurant
40.79770759,-73.94018227,NEW YORK,38,MANHATTAN, NY,10029,Club/Bar/Restaurant
40.7329305,-74.0074943,NEW YORK,14,MANHATTAN, NY,10014,Club/Bar/Restaurant
40.63709769,-73.93463702,,33,BROOKLYN, NY,11203,Club/Bar/Restaurant
40.76568542,-73.91882894,ASTORIA,12,QUEENS, NY,11103,Club/Bar/Restaurant
40.75237897,-73.97034248,NEW YORK,23,MANHATTAN, NY,10017,Club/Bar/Restaurant
40.6218893,-74.03171405,,13,BROOKLYN, NY,11209,Club/Bar/Restaurant
40.74677464,-73.89870301,WOODSIDE,16,QUEENS, NY,11377,Club/Bar/Restaurant
40.76300249,-73.97617129,NEW YORK,16,MANHATTAN, NY,10019,Club/Bar/Restaurant
40.78485902,-73.97709151,NEW YORK,12,MANHATTAN, NY,10024,Club/Bar/Restaurant
40.85717239,-73.88619695,BRONX,14,BRONX, NY,10458,Club/Bar/Restaurant
40.87916462,-73.84317384,BRONX,20,BRONX, NY,10466,Club/Bar/Restaurant
40.74644833,-73.99146479,NEW YORK,43,MANHATTAN, NY,10001,Club/Bar/Restaurant
40.61805645,-73.99931562,,16,BROOKLYN, NY,11228,Club/Bar/Restaurant
40.76751296,-73.77991676,BAYSIDE,11,QUEENS, NY,11361,Club/Bar/Restaurant
40.80384372,-73.95607351,NEW YORK,13,MANHATTAN, NY,10026,Club/Bar/Restaurant
40.66065514,-73.99054225,,41,BROOKLYN, NY,11215,Club/Bar/Restaurant
40.60898748,-73.99371172,,13,BROOKLYN, NY,11214,Club/Bar/Restaurant
40.69072751,-73.95706755,,37,BROOKLYN, NY,11205,Club/Bar/Restaurant
40.72344702,-73.98828573,NEW YORK,31,MANHATTAN, NY,10009,Club/Bar/Restaurant
40.69862097,-73.92012955,,36,BROOKLYN, NY,11237,Club/Bar/Restaurant
40.68020767,-73.82122342,SOUTH OZONE PARK,16,QUEENS, NY,11420,Club/Bar/Restaurant
40.72881842,-73.98749824,NEW YORK,22,MANHATTAN, NY,10003,Club/Bar/Restaurant
40.76572112,-73.91886139,ASTORIA,24,QUEENS, NY,11103,Club/Bar/Restaurant
40.57997359,-73.95980632,,86,BROOKLYN, NY,11235,Club/Bar/Restaurant
40.79416672,-73.93986041,NEW YORK,11,MANHATTAN, NY,10029,Club/Bar/Restaurant
40.69494763,-73.93160881,,13,BROOKLYN, NY,11221,Club/Bar/Restaurant
40.70614247,-73.83176505,KEW GARDENS,11,QUEENS, NY,11415,Club/Bar/Restaurant
40.68674049,-73.84403746,OZONE PARK,16,QUEENS, NY,11416,Club/Bar/Restaurant
40.68326742,-73.96586628,,24,BROOKLYN, NY,11238,Club/Bar/Restaurant
40.65117671,-73.94161823,,20,BROOKLYN, NY,11203,Club/Bar/Restaurant
40.75590774,-73.92149382,LONG ISLAND CITY,11,QUEENS, NY,11101,Club/Bar/Restaurant
40.74231114,-73.9835694,NEW YORK,75,MANHATTAN, NY,10016,Club/Bar/Restaurant
40.71316905,-73.95798735,,48,BROOKLYN, NY,11211,Club/Bar/Restaurant
40.76796379,-73.91168171,ASTORIA,15,QUEENS, NY,11103,Club/Bar/Restaurant
40.80460198,-73.96637117,NEW YORK,12,MANHATTAN, NY,10025,Club/Bar/Restaurant
40.77224628,-73.95586329,NEW YORK,11,MANHATTAN, NY,10075,Club/Bar/Restaurant
40.73498104,-73.99732622,NEW YORK,23,MANHATTAN, NY,10011,Club/Bar/Restaurant
40.76443729,-73.91232895,ASTORIA,10,QUEENS, NY,11103,Club/Bar/Restaurant
40.70642699,-73.94306666,,17,BROOKLYN, NY,11206,Club/Bar/Restaurant
40.85490701,-73.92964414,NEW YORK,,MANHATTAN, NY,10040,Club/Bar/Restaurant
40.6513983,-73.95895964,,12,BROOKLYN, NY,11226,Club/Bar/Restaurant
40.68815886,-73.81919006,SOUTH RICHMOND HILL,,QUEENS, NY,11419,Club/Bar/Restaurant
40.82255829,-73.90043756,BRONX,23,BRONX, NY,10459,Club/Bar/Restaurant
40.71742241,-74.01025943,NEW YORK,31,MANHATTAN, NY,10013,Club/Bar/Restaurant
40.71304464,-74.00877261,NEW YORK,17,MANHATTAN, NY,10007,Club/Bar/Restaurant
40.67689062,-73.96360548,,,BROOKLYN, NY,11238,Club/Bar/Restaurant
40.74159164,-73.98114813,NEW YORK,19,MANHATTAN, NY,10016,Club/Bar/Restaurant
40.74821319,-73.97340121,NEW YORK,16,MANHATTAN, NY,10016,Club/Bar/Restaurant
40.76330647,-73.92821753,ASTORIA,16,QUEENS, NY,11106,Club/Bar/Restaurant
40.72660323,-73.98602303,NEW YORK,20,MANHATTAN, NY,10003,Club/Bar/Restaurant
40.75245406,-73.9744029,NEW YORK,10,MANHATTAN, NY,10017,Club/Bar/Restaurant
40.71085026,-73.95230412,,58,BROOKLYN, NY,11211,Club/Bar/Restaurant
40.70781421,-73.92161539,,25,BROOKLYN, NY,11237,Club/Bar/Restaurant
40.76497734,-73.77172326,BAYSIDE,10,QUEENS, NY,11361,Club/Bar/Restaurant
40.6708817,-73.94204798,,12,BROOKLYN, NY,11213,Club/Bar/Restaurant
40.69333284,-73.96702951,,53,BROOKLYN, NY,11205,Club/Bar/Restaurant
40.67852184,-73.95102934,,24,BROOKLYN, NY,11216,Club/Bar/Restaurant
40.67698943,-73.96360182,,51,BROOKLYN, NY,11238,Club/Bar/Restaurant
40.83368587,-73.85661199,BRONX,23,BRONX, NY,10462,Club/Bar/Restaurant
40.5772491,-73.963073,,10,BROOKLYN, NY,11235,Club/Bar/Restaurant
40.75637977,-73.92551787,ASTORIA,10,QUEENS, NY,11106,Club/Bar/Restaurant
40.78962999,-73.8141331,WHITESTONE,28,QUEENS, NY,11357,Club/Bar/Restaurant
40.75097045,-73.87286548,JACKSON HEIGHTS,55,QUEENS, NY,11372,Club/Bar/Restaurant
40.84850069,-73.83141585,BRONX,18,BRONX, NY,10461,Club/Bar/Restaurant
40.74346563,-73.92125948,SUNNYSIDE,20,QUEENS, NY,11104,Club/Bar/Restaurant
40.73460504,-74.00059898,NEW YORK,39,MANHATTAN, NY,10014,Club/Bar/Restaurant
40.84291667,-73.93658886,NEW YORK,17,MANHATTAN, NY,10032,Club/Bar/Restaurant
40.68481525,-73.94421728,,23,BROOKLYN, NY,11216,Club/Bar/Restaurant
40.85610707,-73.88862439,BRONX,31,BRONX, NY,10458,Club/Bar/Restaurant
40.60085455,-73.99205958,,22,BROOKLYN, NY,11214,Club/Bar/Restaurant
40.76462701,-73.99554532,NEW YORK,10,MANHATTAN, NY,10019,Club/Bar/Restaurant
40.85396304,-73.89703239,BRONX,14,BRONX, NY,10457,Club/Bar/Restaurant
40.67153627,-73.95765669,,28,BROOKLYN, NY,11238,Club/Bar/Restaurant
40.59464739,-73.98176934,,10,BROOKLYN, NY,11223,Club/Bar/Restaurant
40.63708146,-73.93504778,,54,BROOKLYN, NY,11203,Club/Bar/Restaurant
40.7714957,-73.92651185,ASTORIA,29,QUEENS, NY,11102,Club/Bar/Restaurant
40.76242266,-73.99028594,NEW YORK,44,MANHATTAN, NY,10036,Club/Bar/Restaurant
40.63037828,-73.97710491,,122,BROOKLYN, NY,11230,Club/Bar/Restaurant
40.67793872,-73.82009024,SOUTH OZONE PARK,41,QUEENS, NY,11420,Club/Bar/Restaurant
40.75943779,-73.91421978,ASTORIA,22,QUEENS, NY,11103,Club/Bar/Restaurant
40.80592625,-73.95425521,NEW YORK,21,MANHATTAN, NY,10026,Club/Bar/Restaurant
40.78345666,-73.97808501,NEW YORK,36,MANHATTAN, NY,10024,Club/Bar/Restaurant
40.74014107,-74.00557893,NEW YORK,10,MANHATTAN, NY,10014,Club/Bar/Restaurant
40.74425009,-73.99805122,NEW YORK,11,MANHATTAN, NY,10011,Club/Bar/Restaurant
40.72723158,-73.98445345,NEW YORK,46,MANHATTAN, NY,10009,Club/Bar/Restaurant
40.72729198,-73.98455085,NEW YORK,39,MANHATTAN, NY,10009,Club/Bar/Restaurant
40.77220236,-73.95587054,NEW YORK,13,MANHATTAN, NY,10075,Club/Bar/Restaurant
40.66025365,-73.98380587,,26,BROOKLYN, NY,11215,Club/Bar/Restaurant
40.67542201,-73.81335543,SOUTH OZONE PARK,16,QUEENS, NY,11420,Club/Bar/Restaurant
40.76742353,-73.9897798,NEW YORK,13,MANHATTAN, NY,10019,Club/Bar/Restaurant
40.86395063,-73.92501778,NEW YORK,13,MANHATTAN, NY,10034,Club/Bar/Restaurant
40.76755781,-73.91199994,ASTORIA,21,QUEENS, NY,11103,Club/Bar/Restaurant
40.73296636,-74.00383916,NEW YORK,19,MANHATTAN, NY,10014,Club/Bar/Restaurant
40.71406587,-73.94937276,,19,BROOKLYN, NY,11211,Club/Bar/Restaurant
40.79502253,-73.9442369,NEW YORK,32,MANHATTAN, NY,10029,Club/Bar/Restaurant
40.67903383,-73.89557193,,34,BROOKLYN, NY,11207,Club/Bar/Restaurant
40.62869214,-74.07998491,STATEN ISLAND,10,STATEN ISLAND, NY,10304,Club/Bar/Restaurant
40.65910619,-73.96052995,,18,BROOKLYN, NY,11225,Club/Bar/Restaurant
40.76264385,-73.95975024,NEW YORK,13,MANHATTAN, NY,10065,Club/Bar/Restaurant
40.70801049,-73.80172213,JAMAICA,14,QUEENS, NY,11432,Club/Bar/Restaurant
40.71946123,-73.98488816,NEW YORK,14,MANHATTAN, NY,10002,Club/Bar/Restaurant
40.67961786,-73.98251405,,21,BROOKLYN, NY,11217,Club/Bar/Restaurant
40.71228453,-73.96400097,,14,BROOKLYN, NY,11249,Club/Bar/Restaurant
40.6300146,-74.07674049,STATEN ISLAND,15,STATEN ISLAND, NY,10304,Club/Bar/Restaurant
40.69995743,-73.83103773,RICHMOND HILL,28,QUEENS, NY,11418,Club/Bar/Restaurant
40.61804273,-73.99932282,,14,BROOKLYN, NY,11228,Club/Bar/Restaurant
40.6842086,-73.9440952,,40,BROOKLYN, NY,11216,Club/Bar/Restaurant
40.72240156,-73.99164826,NEW YORK,28,MANHATTAN, NY,10002,Club/Bar/Restaurant
40.85291783,-73.88873455,BRONX,26,BRONX, NY,10458,Club/Bar/Restaurant
40.7555836,-73.88520105,JACKSON HEIGHTS,42,QUEENS, NY,11372,Club/Bar/Restaurant
40.7180295,-73.95657378,,18,BROOKLYN, NY,11211,Club/Bar/Restaurant
40.64434329,-74.00036755,,11,BROOKLYN, NY,11220,Club/Bar/Restaurant
40.85169711,-73.93199346,NEW YORK,20,MANHATTAN, NY,10033,Club/Bar/Restaurant
40.7416877,-73.98107593,NEW YORK,10,MANHATTAN, NY,10016,Club/Bar/Restaurant
40.80853789,-73.94491553,NEW YORK,12,MANHATTAN, NY,10027,Club/Bar/Restaurant
40.69044996,-73.99509232,,10,BROOKLYN, NY,11201,Club/Bar/Restaurant
40.73299583,-73.98649797,NEW YORK,20,MANHATTAN, NY,10003,Club/Bar/Restaurant
40.86131045,-73.92123202,NEW YORK,26,MANHATTAN, NY,10034,Club/Bar/Restaurant
40.74124965,-73.91984749,WOODSIDE,121,QUEENS, NY,11377,Club/Bar/Restaurant
40.86538748,-73.9271601,NEW YORK,21,MANHATTAN, NY,10040,Club/Bar/Restaurant
40.63825404,-74.01743187,,16,BROOKLYN, NY,11220,Club/Bar/Restaurant
40.85013331,-73.93314811,NEW YORK,18,MANHATTAN, NY,10033,Club/Bar/Restaurant
40.71750776,-73.95594283,,12,BROOKLYN, NY,11211,Club/Bar/Restaurant
40.73765444,-74.00220118,NEW YORK,22,MANHATTAN, NY,10014,Club/Bar/Restaurant
40.74854072,-73.86984571,ELMHURST,22,QUEENS, NY,11373,Club/Bar/Restaurant
40.70062282,-73.92559458,,13,BROOKLYN, NY,11237,Club/Bar/Restaurant
40.67864208,-73.89640537,,34,BROOKLYN, NY,11207,Club/Bar/Restaurant
40.69951772,-73.83066377,RICHMOND HILL,112,QUEENS, NY,11418,Club/Bar/Restaurant
40.68930464,-73.98597315,,19,BROOKLYN, NY,11201,Club/Bar/Restaurant
40.71761221,-73.94962619,,34,BROOKLYN, NY,11211,Club/Bar/Restaurant
40.72279663,-73.98959904,NEW YORK,84,MANHATTAN, NY,10002,Club/Bar/Restaurant
40.86701363,-73.92078779,NEW YORK,129,MANHATTAN, NY,10034,Club/Bar/Restaurant
40.76919736,-73.95716859,NEW YORK,12,MANHATTAN, NY,10021,Club/Bar/Restaurant
40.74394427,-73.98362673,NEW YORK,16,MANHATTAN, NY,10016,Club/Bar/Restaurant
40.73638044,-73.95526279,,14,BROOKLYN, NY,11222,Club/Bar/Restaurant
40.7148373,-73.99961402,NEW YORK,17,MANHATTAN, NY,10013,Club/Bar/Restaurant
40.71043941,-73.85067664,FOREST HILLS,16,QUEENS, NY,11375,Club/Bar/Restaurant
40.76253541,-73.99336512,NEW YORK,60,MANHATTAN, NY,10036,Club/Bar/Restaurant
40.70097792,-73.89220875,RIDGEWOOD,15,QUEENS, NY,11385,Club/Bar/Restaurant
40.6829057,-73.94035736,,196,BROOKLYN, NY,11216,Club/Bar/Restaurant
40.7187346,-73.99221148,NEW YORK,129,MANHATTAN, NY,10002,Club/Bar/Restaurant
40.7704443,-73.79322539,FLUSHING,47,QUEENS, NY,11358,Club/Bar/Restaurant
40.68573695,-73.99114805,,17,BROOKLYN, NY,11201,Club/Bar/Restaurant
40.67839438,-73.94827139,,15,BROOKLYN, NY,11216,Club/Bar/Restaurant
40.85057515,-73.93305369,NEW YORK,14,MANHATTAN, NY,10033,Club/Bar/Restaurant
40.57586737,-73.96863898,,45,BROOKLYN, NY,11235,Club/Bar/Restaurant
40.76559217,-73.98425316,NEW YORK,19,MANHATTAN, NY,10019,Club/Bar/Restaurant
40.72238533,-74.0037664,NEW YORK,10,MANHATTAN, NY,10013,Club/Bar/Restaurant
40.67008191,-73.97890811,,15,BROOKLYN, NY,11215,Club/Bar/Restaurant
40.77588489,-73.91504347,ASTORIA,18,QUEENS, NY,11105,Club/Bar/Restaurant
40.83433133,-73.85048532,BRONX,15,BRONX, NY,10462,Club/Bar/Restaurant
40.72786479,-73.97918929,NEW YORK,23,MANHATTAN, NY,10009,Club/Bar/Restaurant
40.72662273,-73.98863153,NEW YORK,13,MANHATTAN, NY,10003,Club/Bar/Restaurant
40.75510246,-73.97320355,NEW YORK,38,MANHATTAN, NY,10017,Club/Bar/Restaurant
40.78587442,-73.97632561,NEW YORK,19,MANHATTAN, NY,10024,Club/Bar/Restaurant
40.76341639,-73.92842679,ASTORIA,11,QUEENS, NY,11106,Club/Bar/Restaurant
40.74222053,-73.98335289,NEW YORK,17,MANHATTAN, NY,10016,Club/Bar/Restaurant
40.5979307,-73.98549182,,10,BROOKLYN, NY,11223,Club/Bar/Restaurant
40.77202126,-73.95601508,NEW YORK,11,MANHATTAN, NY,10075,Club/Bar/Restaurant
40.70440802,-73.91040979,RIDGEWOOD,21,QUEENS, NY,11385,Club/Bar/Restaurant
40.74538989,-73.97836459,NEW YORK,13,MANHATTAN, NY,10016,Club/Bar/Restaurant
40.70336751,-73.92134651,,23,BROOKLYN, NY,11237,Club/Bar/Restaurant
40.75460334,-73.93356162,LONG ISLAND CITY,17,QUEENS, NY,11101,Club/Bar/Restaurant
40.74383196,-73.98525434,NEW YORK,11,MANHATTAN, NY,10016,Club/Bar/Restaurant
40.80796067,-73.94907738,NEW YORK,70,MANHATTAN, NY,10027,Club/Bar/Restaurant
40.74645261,-73.90082918,WOODSIDE,47,QUEENS, NY,11377,Club/Bar/Restaurant
40.71903953,-73.99911977,NEW YORK,12,MANHATTAN, NY,10013,Club/Bar/Restaurant
40.70818077,-73.91981511,RIDGEWOOD,18,QUEENS, NY,11385,Club/Bar/Restaurant
40.72531399,-74.00348516,NEW YORK,44,MANHATTAN, NY,10012,Club/Bar/Restaurant
40.77329562,-73.9066742,ASTORIA,31,QUEENS, NY,11105,Club/Bar/Restaurant
40.68188521,-73.87836214,,46,BROOKLYN, NY,11208,Club/Bar/Restaurant
40.68283372,-73.96577637,,13,BROOKLYN, NY,11238,Club/Bar/Restaurant
40.74447137,-73.91150714,WOODSIDE,13,QUEENS, NY,11377,Club/Bar/Restaurant
40.75613757,-73.92881721,ASTORIA,33,QUEENS, NY,11106,Club/Bar/Restaurant
40.58866714,-73.94802765,,16,BROOKLYN, NY,11235,Club/Bar/Restaurant
40.83842627,-73.94168882,NEW YORK,11,MANHATTAN, NY,10032,Club/Bar/Restaurant
40.82679836,-73.82236162,BRONX,10,BRONX, NY,10465,Club/Bar/Restaurant
40.80938711,-73.95365679,NEW YORK,81,MANHATTAN, NY,10027,Club/Bar/Restaurant
40.7513208,-73.86245939,CORONA,17,QUEENS, NY,11368,Club/Bar/Restaurant
40.67989801,-73.85042415,OZONE PARK,26,QUEENS, NY,11417,Club/Bar/Restaurant
40.74492306,-73.92120362,SUNNYSIDE,37,QUEENS, NY,11104,Club/Bar/Restaurant
40.7184312,-73.95921418,,63,BROOKLYN, NY,11249,Club/Bar/Restaurant
40.76437033,-73.98136189,NEW YORK,40,MANHATTAN, NY,10019,Club/Bar/Restaurant
40.64633409,-73.90366625,,135,BROOKLYN, NY,11236,Club/Bar/Restaurant
40.85797436,-73.88672337,BRONX,12,BRONX, NY,10458,Club/Bar/Restaurant
40.78744229,-73.95189174,NEW YORK,11,MANHATTAN, NY,10029,Club/Bar/Restaurant
40.73764014,-73.98823272,NEW YORK,10,MANHATTAN, NY,10003,Club/Bar/Restaurant
40.74816627,-73.86882507,CORONA,15,QUEENS, NY,11368,Club/Bar/Restaurant
40.76114388,-73.90914948,ASTORIA,12,QUEENS, NY,11103,Club/Bar/Restaurant
40.73430309,-74.00268458,NEW YORK,17,MANHATTAN, NY,10014,Club/Bar/Restaurant
40.79878494,-73.96321378,NEW YORK,68,MANHATTAN, NY,10025,Club/Bar/Restaurant
40.7192993,-73.98497117,NEW YORK,10,MANHATTAN, NY,10002,Club/Bar/Restaurant
40.86260529,-73.92027606,NEW YORK,14,MANHATTAN, NY,10034,Club/Bar/Restaurant
40.72822623,-73.99925676,NEW YORK,13,MANHATTAN, NY,10012,Club/Bar/Restaurant
40.86722506,-73.92091408,NEW YORK,22,MANHATTAN, NY,10034,Club/Bar/Restaurant
40.77465546,-73.95409255,NEW YORK,15,MANHATTAN, NY,10028,Club/Bar/Restaurant
40.7750012,-73.95385041,NEW YORK,31,MANHATTAN, NY,10028,Club/Bar/Restaurant
40.72244807,-73.98977948,NEW YORK,18,MANHATTAN, NY,10002,Club/Bar/Restaurant
40.77243049,-73.92060785,ASTORIA,136,QUEENS, NY,11102,Club/Bar/Restaurant
40.76367143,-73.98936885,NEW YORK,12,MANHATTAN, NY,10019,Club/Bar/Restaurant
40.72007646,-73.98835487,NEW YORK,10,MANHATTAN, NY,10002,Club/Bar/Restaurant
40.70565143,-73.90698891,RIDGEWOOD,17,QUEENS, NY,11385,Club/Bar/Restaurant
40.80669795,-73.94291226,NEW YORK,110,MANHATTAN, NY,10027,Club/Bar/Restaurant
40.76636939,-73.96250245,NEW YORK,10,MANHATTAN, NY,10065,Club/Bar/Restaurant
40.76434105,-73.9883363,NEW YORK,11,MANHATTAN, NY,10019,Club/Bar/Restaurant
40.72019438,-73.98736999,NEW YORK,30,MANHATTAN, NY,10002,Club/Bar/Restaurant
40.7300087,-73.98064267,NEW YORK,15,MANHATTAN, NY,10009,Club/Bar/Restaurant
40.76623817,-73.99545496,NEW YORK,17,MANHATTAN, NY,10019,Club/Bar/Restaurant
40.68256414,-73.99327212,,19,BROOKLYN, NY,11231,Club/Bar/Restaurant
40.70813957,-73.91976467,RIDGEWOOD,15,QUEENS, NY,11385,Club/Bar/Restaurant
40.74445865,-73.99652106,NEW YORK,38,MANHATTAN, NY,10011,Club/Bar/Restaurant
40.70817762,-74.01426527,NEW YORK,17,MANHATTAN, NY,10006,Club/Bar/Restaurant
40.7248509,-73.95139576,,16,BROOKLYN, NY,11222,Club/Bar/Restaurant
40.76289675,-73.98368344,NEW YORK,12,MANHATTAN, NY,10019,Club/Bar/Restaurant
40.77690823,-73.95246261,NEW YORK,65,MANHATTAN, NY,10028,Club/Bar/Restaurant
40.76569914,-73.91881809,ASTORIA,10,QUEENS, NY,11103,Club/Bar/Restaurant
40.73540013,-73.98565674,NEW YORK,73,MANHATTAN, NY,10003,Club/Bar/Restaurant
40.7103055,-74.00682807,NEW YORK,20,MANHATTAN, NY,10038,Club/Bar/Restaurant
40.82820405,-73.9454268,NEW YORK,10,MANHATTAN, NY,10031,Club/Bar/Restaurant
40.71577635,-73.93407648,,43,BROOKLYN, NY,11211,Club/Bar/Restaurant
40.74107154,-74.00567645,NEW YORK,11,MANHATTAN, NY,10014,Club/Bar/Restaurant
40.68954283,-73.84398403,RICHMOND HILL,22,QUEENS, NY,11418,Club/Bar/Restaurant
40.76002338,-73.98659357,NEW YORK,45,MANHATTAN, NY,10036,Club/Bar/Restaurant
40.6970044,-73.83698117,RICHMOND HILL,39,QUEENS, NY,11418,Club/Bar/Restaurant
40.73295464,-73.98635726,NY,32,MANHATTAN, NY,10003,Club/Bar/Restaurant
40.73119244,-73.9857731,NEW YORK,20,MANHATTAN, NY,10003,Club/Bar/Restaurant
40.72457698,-73.98156423,NEW YORK,16,MANHATTAN, NY,10009,Club/Bar/Restaurant
40.73740361,-73.98419848,NEW YORK,24,MANHATTAN, NY,10010,Club/Bar/Restaurant
40.86193593,-73.92077215,NEW YORK,28,MANHATTAN, NY,10034,Club/Bar/Restaurant
40.60634631,-73.96181083,,11,BROOKLYN, NY,11223,Club/Bar/Restaurant
40.71895913,-73.95438344,,12,BROOKLYN, NY,11211,Club/Bar/Restaurant
40.88330412,-73.85620482,BRONX,25,BRONX, NY,10469,Club/Bar/Restaurant
40.71806827,-73.95749005,,28,BROOKLYN, NY,11249,Club/Bar/Restaurant
40.69517106,-73.84504911,RICHMOND HILL,24,QUEENS, NY,11418,Club/Bar/Restaurant
40.76004232,-73.87838907,EAST ELMHURST,11,QUEENS, NY,11369,Club/Bar/Restaurant
40.71986615,-73.95766928,,11,BROOKLYN, NY,11249,Club/Bar/Restaurant
40.72326039,-73.98843007,NEW YORK,38,MANHATTAN, NY,10009,Club/Bar/Restaurant
40.69002402,-73.97223808,,49,BROOKLYN, NY,11205,Club/Bar/Restaurant
40.62136773,-74.03191912,,11,BROOKLYN, NY,11209,Club/Bar/Restaurant
40.69253478,-73.94118896,,23,BROOKLYN, NY,11221,Club/Bar/Restaurant
40.58344658,-73.82194686,ROCKAWAY PARK,130,QUEENS, NY,11694,Club/Bar/Restaurant
40.60636552,-73.96182162,,28,BROOKLYN, NY,11223,Club/Bar/Restaurant
40.73199094,-73.98410956,NEW YORK,19,MANHATTAN, NY,10003,Club/Bar/Restaurant
40.68127976,-73.95640302,,18,BROOKLYN, NY,11238,Club/Bar/Restaurant
40.71594168,-73.95915438,,10,BROOKLYN, NY,11211,Club/Bar/Restaurant
40.77750365,-73.95200002,NEW YORK,13,MANHATTAN, NY,10028,Club/Bar/Restaurant
40.76456386,-73.91644052,ASTORIA,11,QUEENS, NY,11103,Club/Bar/Restaurant
40.58388195,-73.82304376,ROCKAWAY PARK,23,QUEENS, NY,11694,Club/Bar/Restaurant
40.76872457,-73.95533854,NEW YORK,10,MANHATTAN, NY,10021,Club/Bar/Restaurant
40.67904905,-73.95856767,,11,BROOKLYN, NY,11238,Club/Bar/Restaurant
40.76410632,-73.77125334,BAYSIDE,14,QUEENS, NY,11361,Club/Bar/Restaurant
40.67893081,-73.95796205,,11,BROOKLYN, NY,11238,Club/Bar/Restaurant
40.59425326,-73.75121009,FAR ROCKAWAY,13,QUEENS, NY,11691,Club/Bar/Restaurant
40.73147381,-73.95786757,,17,BROOKLYN, NY,11222,Club/Bar/Restaurant
40.76418991,-73.98670825,NEW YORK,12,MANHATTAN, NY,10019,Club/Bar/Restaurant
40.70813957,-73.91976467,,15,BROOKLYN, NY,11237,Club/Bar/Restaurant
40.81159875,-73.92615689,BRONX,27,BRONX, NY,10454,Club/Bar/Restaurant
40.82714747,-73.95189917,NEW YORK,18,MANHATTAN, NY,10031,Club/Bar/Restaurant
40.80133419,-73.96137028,NEW YORK,23,MANHATTAN, NY,10025,Club/Bar/Restaurant
40.86203193,-73.92068888,NEW YORK,22,MANHATTAN, NY,10034,Club/Bar/Restaurant
40.5831539,-73.82259927,ROCKAWAY PARK,17,QUEENS, NY,11694,Club/Bar/Restaurant
40.59925412,-73.98939502,,17,BROOKLYN, NY,11214,Club/Bar/Restaurant
40.7295606,-73.95755488,,82,BROOKLYN, NY,11222,Club/Bar/Restaurant
40.72531399,-74.00349237,NEW YORK,28,MANHATTAN, NY,10012,Club/Bar/Restaurant
40.70548856,-74.00436056,NEW YORK,46,MANHATTAN, NY,10038,Club/Bar/Restaurant
40.51479699,-74.24843668,STATEN ISLAND,59,STATEN ISLAND, NY,10307,Club/Bar/Restaurant
40.75558631,-73.88516134,JACKSON HEIGHTS,31,QUEENS, NY,11372,Club/Bar/Restaurant
40.82622195,-73.95058821,NEW YORK,14,MANHATTAN, NY,10031,Club/Bar/Restaurant
40.76434928,-73.98830742,NEW YORK,64,MANHATTAN, NY,10019,Club/Bar/Restaurant
40.68039869,-73.97480192,,61,BROOKLYN, NY,11217,Club/Bar/Restaurant
40.74218769,-73.91889726,SUNNYSIDE,40,QUEENS, NY,11104,Club/Bar/Restaurant
40.78092527,-73.94950969,NEW YORK,192,MANHATTAN, NY,10128,Club/Bar/Restaurant
40.67517332,-73.96667076,,80,BROOKLYN, NY,11238,Club/Bar/Restaurant
40.72428175,-74.00783968,NEW YORK,14,MANHATTAN, NY,10013,Club/Bar/Restaurant
40.78336036,-73.95068141,NEW YORK,63,MANHATTAN, NY,10128,Club/Bar/Restaurant
40.75947172,-73.96208761,NEW YORK,18,MANHATTAN, NY,10022,Club/Bar/Restaurant
40.71598276,-73.95181346,,12,BROOKLYN, NY,11211,Club/Bar/Restaurant
40.85827145,-73.90246274,BRONX,,BRONX, NY,10453,Club/Bar/Restaurant
40.84204591,-73.9353428,NEW YORK,145,MANHATTAN, NY,10032,Club/Bar/Restaurant
40.82959962,-73.94813938,NEW YORK,22,MANHATTAN, NY,10031,Club/Bar/Restaurant
40.72202879,-73.95703296,,11,BROOKLYN, NY,11249,Club/Bar/Restaurant
40.78083472,-73.94957475,NEW YORK,148,MANHATTAN, NY,10128,Club/Bar/Restaurant
40.69748642,-73.93617181,,17,BROOKLYN, NY,11206,Club/Bar/Restaurant
40.71436147,-73.96139183,,143,BROOKLYN, NY,11249,Club/Bar/Restaurant
40.72386712,-73.98988389,NEW YORK,20,MANHATTAN, NY,10003,Club/Bar/Restaurant
40.71450142,-73.96128714,,56,BROOKLYN, NY,11211,Club/Bar/Restaurant
40.83116016,-73.8749888,BRONX,56,BRONX, NY,10472,Club/Bar/Restaurant
40.72976604,-74.00069996,NEW YORK,22,MANHATTAN, NY,10012,Club/Bar/Restaurant
40.88352475,-73.8985272,BRONX,18,BRONX, NY,10463,Club/Bar/Restaurant
40.71241628,-73.99436567,NEW YORK,35,MANHATTAN, NY,10002,Club/Bar/Restaurant
40.85135677,-73.89532308,BRONX,23,BRONX, NY,10457,Club/Bar/Restaurant
40.72747392,-73.99235478,NEW YORK,42,MANHATTAN, NY,10003,Club/Bar/Restaurant
40.70295042,-73.9256533,,29,BROOKLYN, NY,11237,Club/Bar/Restaurant
40.79736582,-73.93749906,NEW YORK,63,MANHATTAN, NY,10035,Club/Bar/Restaurant
40.86230784,-73.92280348,NEW YORK,48,MANHATTAN, NY,10034,Club/Bar/Restaurant
40.69645987,-73.98317319,,11,BROOKLYN, NY,11201,Club/Bar/Restaurant
40.86564013,-73.92738037,NEW YORK,12,MANHATTAN, NY,10034,Club/Bar/Restaurant
40.54938693,-74.15070863,STATEN ISLAND,26,STATEN ISLAND, NY,10308,Club/Bar/Restaurant
40.61896738,-74.00883229,,27,BROOKLYN, NY,11228,Club/Bar/Restaurant
40.90367938,-73.8508647,BRONX,17,BRONX, NY,10470,Club/Bar/Restaurant
40.61793824,-73.96388977,,57,BROOKLYN, NY,11230,Club/Bar/Restaurant
40.84895293,-73.9328746,NEW YORK,19,MANHATTAN, NY,10033,Club/Bar/Restaurant
40.7428118,-73.99657889,NEW YORK,37,MANHATTAN, NY,10011,Club/Bar/Restaurant
40.72115966,-73.98097353,NEW YORK,49,MANHATTAN, NY,10009,Club/Bar/Restaurant
40.70560346,-73.93757788,,15,BROOKLYN, NY,11206,Club/Bar/Restaurant
40.70817828,-73.94332847,,15,BROOKLYN, NY,11206,Club/Bar/Restaurant
40.71921777,-74.0063095,NEW YORK,10,MANHATTAN, NY,10013,Club/Bar/Restaurant
40.57906514,-74.10811288,STATEN ISLAND,77,STATEN ISLAND, NY,10306,Club/Bar/Restaurant
40.5625145,-74.19178886,STATEN ISLAND,11,STATEN ISLAND, NY,10312,Club/Bar/Restaurant
40.77632767,-73.95578838,NEW YORK,22,MANHATTAN, NY,10028,Club/Bar/Restaurant
40.72281326,-73.99144978,NEW YORK,18,MANHATTAN, NY,10002,Club/Bar/Restaurant
40.87071468,-73.91476322,NEW YORK,64,MANHATTAN, NY,10034,Club/Bar/Restaurant
40.74368013,-73.97960297,NEW YORK,11,MANHATTAN, NY,10016,Club/Bar/Restaurant
40.68114853,-73.97726414,,20,BROOKLYN, NY,11217,Club/Bar/Restaurant
40.74195489,-73.91961929,SUNNYSIDE,12,QUEENS, NY,11104,Club/Bar/Restaurant
40.72450705,-74.00294755,NEW YORK,13,MANHATTAN, NY,10012,Club/Bar/Restaurant
40.70180454,-73.92363491,,22,BROOKLYN, NY,11237,Club/Bar/Restaurant
40.73235062,-73.98494658,NEW YORK,20,MANHATTAN, NY,10003,Club/Bar/Restaurant
40.74288581,-74.00582817,NEW YORK,15,MANHATTAN, NY,10011,Club/Bar/Restaurant
40.72341065,-73.98280922,NEW YORK,19,MANHATTAN, NY,10009,Club/Bar/Restaurant
40.68149547,-73.95352573,,13,BROOKLYN, NY,11216,Club/Bar/Restaurant
40.67892152,-73.89582809,,128,BROOKLYN, NY,11207,Club/Bar/Restaurant
40.75662327,-73.99396128,NEW YORK,14,MANHATTAN, NY,10018,Club/Bar/Restaurant
40.77914001,-73.98290676,NEW YORK,13,MANHATTAN, NY,10023,Club/Bar/Restaurant
40.7511357,-73.98503256,NEW YORK,12,MANHATTAN, NY,10018,Club/Bar/Restaurant
40.64032707,-74.01171409,,14,BROOKLYN, NY,11220,Club/Bar/Restaurant
40.74787557,-73.99106401,NEW YORK,22,MANHATTAN, NY,10001,Club/Bar/Restaurant
40.76473551,-73.98221735,NEW YORK,14,MANHATTAN, NY,10019,Club/Bar/Restaurant
40.80823938,-73.95258473,NEW YORK,12,MANHATTAN, NY,10027,Club/Bar/Restaurant
40.80428264,-73.95548084,NEW YORK,16,MANHATTAN, NY,10026,Club/Bar/Restaurant
40.69752214,-73.93623669,,12,BROOKLYN, NY,11206,Club/Bar/Restaurant
40.75899736,-73.92009686,ASTORIA,21,QUEENS, NY,11103,Club/Bar/Restaurant
40.70693136,-73.9474341,,94,BROOKLYN, NY,11206,Club/Bar/Restaurant
40.70348142,-73.89547232,RIDGEWOOD,42,QUEENS, NY,11385,Club/Bar/Restaurant
40.67838055,-73.94804066,,11,BROOKLYN, NY,11216,Club/Bar/Restaurant
40.74462497,-73.95347808,LONG ISLAND CITY,36,QUEENS, NY,11101,Club/Bar/Restaurant
40.80230478,-73.94525299,NEW YORK,12,MANHATTAN, NY,10035,Club/Bar/Restaurant
40.71900026,-73.98606791,NEW YORK,12,MANHATTAN, NY,10002,Club/Bar/Restaurant
40.69011887,-73.90709712,,19,BROOKLYN, NY,11207,Club/Bar/Restaurant
40.70056181,-73.91295393,,30,BROOKLYN, NY,11237,Club/Bar/Restaurant
40.67027724,-73.93099245,,55,BROOKLYN, NY,11213,Club/Bar/Restaurant
40.72572934,-73.97900235,NEW YORK,12,MANHATTAN, NY,10009,Club/Bar/Restaurant
40.823736,-73.95240387,NEW YORK,11,MANHATTAN, NY,10031,Club/Bar/Restaurant
40.85751875,-73.93219718,NEW YORK,26,MANHATTAN, NY,10040,Club/Bar/Restaurant
40.76369334,-73.98880931,NEW YORK,15,MANHATTAN, NY,10019,Club/Bar/Restaurant
40.76192584,-73.9900983,NEW YORK,32,MANHATTAN, NY,10036,Club/Bar/Restaurant
40.68077744,-73.99667581,,12,BROOKLYN, NY,11231,Club/Bar/Restaurant
40.61265191,-73.99671882,,20,BROOKLYN, NY,11214,Club/Bar/Restaurant
40.81254749,-73.90271399,BRONX,20,BRONX, NY,10455,Club/Bar/Restaurant
40.82460032,-73.95177094,NEW YORK,21,MANHATTAN, NY,10031,Club/Bar/Restaurant
40.81955851,-73.81755045,BRONX,16,BRONX, NY,10465,Club/Bar/Restaurant
40.75812799,-73.91722105,ASTORIA,43,QUEENS, NY,11103,Club/Bar/Restaurant
40.68290024,-73.94042226,,12,BROOKLYN, NY,11216,Club/Bar/Restaurant
40.60014699,-73.94451129,,17,BROOKLYN, NY,11229,Club/Bar/Restaurant
40.81561858,-73.94348264,NEW YORK,63,MANHATTAN, NY,10030,Club/Bar/Restaurant
40.70650025,-73.9227639,,15,BROOKLYN, NY,11237,Club/Bar/Restaurant
40.75658005,-73.9297516,ASTORIA,13,QUEENS, NY,11106,Club/Bar/Restaurant
40.67947376,-73.96457391,,18,BROOKLYN, NY,11238,Club/Bar/Restaurant
40.80019718,-73.96808181,NEW YORK,30,MANHATTAN, NY,10025,Club/Bar/Restaurant
40.70301813,-73.93311531,,21,BROOKLYN, NY,11206,Club/Bar/Restaurant
40.66157758,-73.99317331,,23,BROOKLYN, NY,11215,Club/Bar/Restaurant
40.80117228,-73.96145706,NEW YORK,13,MANHATTAN, NY,10025,Club/Bar/Restaurant
40.70398282,-73.93063656,,12,BROOKLYN, NY,11237,Club/Bar/Restaurant
40.69646833,-73.98472388,,22,BROOKLYN, NY,11201,Club/Bar/Restaurant
40.69790634,-73.9268959,,10,BROOKLYN, NY,11221,Club/Bar/Restaurant
40.74216218,-73.95871969,LONG ISLAND CITY,20,QUEENS, NY,11101,Club/Bar/Restaurant
40.6899801,-73.97222728,,34,BROOKLYN, NY,11205,Club/Bar/Restaurant
40.76399145,-73.81082576,FLUSHING,23,QUEENS, NY,11354,Club/Bar/Restaurant
40.71358729,-73.94149503,,12,BROOKLYN, NY,11211,Club/Bar/Restaurant
40.72483221,-73.98137656,NEW YORK,,MANHATTAN, NY,10009,Club/Bar/Restaurant
40.71091586,-73.94549398,,21,BROOKLYN, NY,11206,Club/Bar/Restaurant
40.87763782,-73.84670675,BRONX,16,BRONX, NY,10469,Club/Bar/Restaurant
40.86739232,-73.91678133,NEW YORK,11,MANHATTAN, NY,10034,Club/Bar/Restaurant
40.7249841,-73.98843338,NEW YORK,13,MANHATTAN, NY,10003,Club/Bar/Restaurant
40.71647268,-73.9892898,NEW YORK,28,MANHATTAN, NY,10002,Club/Bar/Restaurant
40.82990967,-73.94791149,NEW YORK,25,MANHATTAN, NY,10031,Club/Bar/Restaurant
40.73413951,-73.98039972,NEW YORK,47,MANHATTAN, NY,10003,Club/Bar/Restaurant
40.77334779,-73.97806306,NEW YORK,23,MANHATTAN, NY,10023,Club/Bar/Restaurant
40.78352999,-73.9743404,NEW YORK,13,MANHATTAN, NY,10024,Club/Bar/Restaurant
40.7512725,-73.94093859,LONG ISLAND CITY,28,QUEENS, NY,11101,Club/Bar/Restaurant
40.62643622,-74.07549352,STATEN ISLAND,21,STATEN ISLAND, NY,10304,Club/Bar/Restaurant
40.72241571,-73.95001219,,38,BROOKLYN, NY,11222,Club/Bar/Restaurant
40.68689067,-73.97765882,,11,BROOKLYN, NY,11217,Club/Bar/Restaurant
40.6171024,-73.93081689,,24,BROOKLYN, NY,11234,Club/Bar/Restaurant
40.624014,-74.03084689,,65,BROOKLYN, NY,11209,Club/Bar/Restaurant
40.71596994,-73.90152386,MASPETH,10,QUEENS, NY,11378,Club/Bar/Restaurant
40.72975498,-74.00434411,NEW YORK,10,MANHATTAN, NY,10014,Club/Bar/Restaurant
40.73324078,-74.00531135,NEW YORK,24,MANHATTAN, NY,10014,Club/Bar/Restaurant
40.67990697,-74.00989312,,16,BROOKLYN, NY,11231,Club/Bar/Restaurant
40.71091305,-73.95148888,,35,BROOKLYN, NY,11211,Club/Bar/Restaurant
40.88708117,-73.90413474,BRONX,12,BRONX, NY,10463,Club/Bar/Restaurant
40.84811307,-73.93780921,NEW YORK,13,MANHATTAN, NY,10033,Club/Bar/Restaurant
40.82880796,-73.82445928,BRONX,16,BRONX, NY,10465,Club/Bar/Restaurant
40.76680965,-73.92118495,ASTORIA,10,QUEENS, NY,11102,Club/Bar/Restaurant
40.76829629,-73.95507168,NEW YORK,68,MANHATTAN, NY,10021,Club/Bar/Restaurant
40.77247106,-73.95513385,NEW YORK,41,MANHATTAN, NY,10075,Club/Bar/Restaurant
40.76426567,-73.7713286,BAYSIDE,21,QUEENS, NY,11361,Club/Bar/Restaurant
40.58670162,-73.81481311,FAR ROCKAWAY,17,QUEENS, NY,11693,Club/Bar/Restaurant
40.69159906,-73.98437882,,40,BROOKLYN, NY,11201,Club/Bar/Restaurant
40.70425413,-73.9299438,,63,BROOKLYN, NY,11237,Club/Bar/Restaurant
40.89474939,-73.85614027,BRONX,13,BRONX, NY,10466,Club/Bar/Restaurant
40.86925225,-73.91543399,NEW YORK,10,MANHATTAN, NY,10034,Club/Bar/Restaurant
40.70433785,-73.90178269,RIDGEWOOD,15,QUEENS, NY,11385,Club/Bar/Restaurant
40.74865244,-73.86912728,CORONA,29,QUEENS, NY,11368,Club/Bar/Restaurant
40.56251465,-74.19169889,STATEN ISLAND,26,STATEN ISLAND, NY,10312,Club/Bar/Restaurant
40.7300087,-73.98063906,NEW YORK,18,MANHATTAN, NY,10009,Club/Bar/Restaurant
40.71113444,-73.9493281,,17,BROOKLYN, NY,11211,Club/Bar/Restaurant
40.74460027,-73.95348893,LONG ISLAND CITY,30,QUEENS, NY,11101,Club/Bar/Restaurant
40.68484087,-73.86797973,,21,BROOKLYN, NY,11208,Club/Bar/Restaurant
40.72722535,-73.97965852,NEW YORK,10,MANHATTAN, NY,10009,Club/Bar/Restaurant
40.76411415,-73.91703311,ASTORIA,10,QUEENS, NY,11103,Club/Bar/Restaurant
40.74164779,-73.9919165,NEW YORK,14,MANHATTAN, NY,10010,Club/Bar/Restaurant
40.85579314,-73.92898529,NEW YORK,19,MANHATTAN, NY,10040,Club/Bar/Restaurant
40.74336358,-73.87430548,ELMHURST,15,QUEENS, NY,11373,Club/Bar/Restaurant
40.76710753,-73.98631416,NEW YORK,27,MANHATTAN, NY,10019,Club/Bar/Restaurant
40.83111624,-73.87498166,BRONX,14,BRONX, NY,10472,Club/Bar/Restaurant
40.83881118,-73.93767696,NEW YORK,12,MANHATTAN, NY,10032,Club/Bar/Restaurant
40.61561908,-73.99997839,,10,BROOKLYN, NY,11214,Club/Bar/Restaurant
40.69892627,-73.91713227,,13,BROOKLYN, NY,11237,Club/Bar/Restaurant
40.6266308,-74.07594044,STATEN ISLAND,18,STATEN ISLAND, NY,10304,Club/Bar/Restaurant
40.76201429,-73.97571681,NEW YORK,10,MANHATTAN, NY,10019,Club/Bar/Restaurant
40.76226205,-73.92598056,ASTORIA,22,QUEENS, NY,11106,Club/Bar/Restaurant
40.84691111,-73.93823322,NEW YORK,19,MANHATTAN, NY,10033,Club/Bar/Restaurant
40.86732922,-73.91681756,NEW YORK,15,MANHATTAN, NY,10034,Club/Bar/Restaurant
40.66375721,-73.92472737,,10,BROOKLYN, NY,11212,Club/Bar/Restaurant
40.84133806,-73.9358567,NEW YORK,15,MANHATTAN, NY,10032,Club/Bar/Restaurant
40.67722158,-73.96900953,,12,BROOKLYN, NY,11238,Club/Bar/Restaurant
40.7488118,-73.9959109,NEW YORK,18,MANHATTAN, NY,10001,Club/Bar/Restaurant
40.76223598,-73.98986362,NEW YORK,51,MANHATTAN, NY,10019,Club/Bar/Restaurant
40.72893887,-73.98485715,NEW YORK,12,MANHATTAN, NY,10003,Club/Bar/Restaurant
40.691883,-73.73053304,CAMBRIA HEIGHTS,17,QUEENS, NY,11411,Club/Bar/Restaurant
40.77528508,-73.90951651,ASTORIA,15,QUEENS, NY,11105,Club/Bar/Restaurant
40.69693909,-73.90644209,RIDGEWOOD,20,QUEENS, NY,11385,Club/Bar/Restaurant
40.68210878,-73.94991261,,42,BROOKLYN, NY,11216,Club/Bar/Restaurant
40.71464768,-74.00736239,NEW YORK,10,MANHATTAN, NY,10007,Club/Bar/Restaurant
40.58411122,-73.93298959,,31,BROOKLYN, NY,11235,Club/Bar/Restaurant
40.65052979,-73.95582489,,11,BROOKLYN, NY,11226,Club/Bar/Restaurant
40.69507899,-73.82851854,RICHMOND HILL,20,QUEENS, NY,11418,Club/Bar/Restaurant
40.71946965,-73.98637445,NEW YORK,12,MANHATTAN, NY,10002,Club/Bar/Restaurant
40.71901757,-73.95643966,,25,BROOKLYN, NY,11211,Club/Bar/Restaurant
40.70735854,-73.93977642,,11,BROOKLYN, NY,11206,Club/Bar/Restaurant
40.72779195,-73.81148415,FLUSHING,11,QUEENS, NY,11367,Club/Bar/Restaurant
40.76333075,-73.91546379,ASTORIA,13,QUEENS, NY,11103,Club/Bar/Restaurant
40.83088435,-73.85078215,BRONX,14,BRONX, NY,10462,Club/Bar/Restaurant
40.67218121,-73.95743278,,10,BROOKLYN, NY,11238,Club/Bar/Restaurant
40.67587697,-73.98413014,,15,BROOKLYN, NY,11215,Club/Bar/Restaurant
40.68681527,-73.95461096,,17,BROOKLYN, NY,11216,Club/Bar/Restaurant
40.78397809,-73.97773096,NEW YORK,17,MANHATTAN, NY,10024,Club/Bar/Restaurant
40.72358699,-73.98820273,NEW YORK,11,MANHATTAN, NY,10009,Club/Bar/Restaurant
40.73135798,-74.00235251,NEW YORK,69,MANHATTAN, NY,10014,Club/Bar/Restaurant
40.71744011,-73.95855824,,11,BROOKLYN, NY,11249,Club/Bar/Restaurant
40.7501469,-73.88043909,JACKSON HEIGHTS,10,QUEENS, NY,11372,Club/Bar/Restaurant
40.80801204,-73.91894349,BRONX,11,BRONX, NY,10454,Club/Bar/Restaurant
40.6513983,-73.95895964,,12,Unspecified, NY,11226,Club/Bar/Restaurant
40.74164779,-73.9919165,NEW YORK,14,Unspecified, NY,10010,Club/Bar/Restaurant
40.71287692,-73.90517886,RIDGEWOOD,133,Unspecified, NY,11385,Club/Bar/Restaurant
40.691883,-73.73053304,CAMBRIA HEIGHTS,17,Unspecified, NY,11411,Club/Bar/Restaurant
40.75926849,-73.97114798,NEW YORK,80,Unspecified, NY,10022,Club/Bar/Restaurant
40.64495578,-73.92112349,,17,BROOKLYN, NY,11203,Club/Bar/Restaurant
40.76495968,-73.91724144,ASTORIA,16,QUEENS, NY,11103,Club/Bar/Restaurant
40.77383563,-73.95625939,NEW YORK,19,MANHATTAN, NY,10075,Club/Bar/Restaurant
40.70552033,-73.92271454,,12,BROOKLYN, NY,11237,Club/Bar/Restaurant
40.72970291,-74.00072522,NEW YORK,11,MANHATTAN, NY,10012,Club/Bar/Restaurant
40.60509494,-73.97230221,,14,BROOKLYN, NY,11223,Club/Bar/Restaurant
40.72749281,-73.98848346,NEW YORK,10,MANHATTAN, NY,10003,Club/Bar/Restaurant
40.76351646,-73.91419287,ASTORIA,11,QUEENS, NY,11103,Club/Bar/Restaurant
40.88712803,-73.90437698,BRONX,12,BRONX, NY,10463,Club/Bar/Restaurant
40.72442904,-73.98339702,NEW YORK,11,MANHATTAN, NY,10009,Club/Bar/Restaurant
40.72018921,-73.90548232,MASPETH,20,QUEENS, NY,11378,Club/Bar/Restaurant
40.7235816,-73.98916238,NEW YORK,102,MANHATTAN, NY,10003,Club/Bar/Restaurant
40.73508538,-74.00023093,NEW YORK,15,MANHATTAN, NY,10014,Club/Bar/Restaurant
40.74438357,-73.98464071,NEW YORK,44,MANHATTAN, NY,10016,Club/Bar/Restaurant
40.69687172,-73.98409629,,16,BROOKLYN, NY,11201,Club/Bar/Restaurant
40.76226755,-73.92599139,ASTORIA,17,QUEENS, NY,11106,Club/Bar/Restaurant
40.81091723,-73.85566401,BRONX,20,BRONX, NY,10473,Club/Bar/Restaurant
40.76961376,-73.92801217,ASTORIA,14,QUEENS, NY,11102,Club/Bar/Restaurant
40.62131558,-74.03192991,,15,BROOKLYN, NY,11209,Club/Bar/Restaurant
40.76494485,-73.98789577,NEW YORK,10,MANHATTAN, NY,10019,Club/Bar/Restaurant
40.67667785,-73.98029403,,11,BROOKLYN, NY,11217,Club/Bar/Restaurant
40.61361029,-74.0657686,STATEN ISLAND,98,STATEN ISLAND, NY,10305,Club/Bar/Restaurant
40.70404807,-73.93425038,,30,BROOKLYN, NY,11206,Club/Bar/Restaurant
40.80844735,-73.94499508,NEW YORK,12,MANHATTAN, NY,10027,Club/Bar/Restaurant
40.64523163,-74.10467425,STATEN ISLAND,11,STATEN ISLAND, NY,10310,Club/Bar/Restaurant
40.73298283,-74.00373453,NEW YORK,11,MANHATTAN, NY,10014,Club/Bar/Restaurant
40.68160169,-73.95854445,,16,BROOKLYN, NY,11238,Club/Bar/Restaurant
40.73332113,-73.95814784,,24,BROOKLYN, NY,11222,Club/Bar/Restaurant
40.76122585,-73.92378698,ASTORIA,10,QUEENS, NY,11106,Club/Bar/Restaurant
40.71785873,-73.73729297,QUEENS VILLAGE,34,QUEENS, NY,11428,Club/Bar/Restaurant
40.74660776,-73.99570532,NEW YORK,14,MANHATTAN, NY,10001,Club/Bar/Restaurant
40.73618847,-74.008321,NEW YORK,12,MANHATTAN, NY,10014,Club/Bar/Restaurant
40.69250767,-73.92736339,,19,BROOKLYN, NY,11221,Club/Bar/Restaurant
40.71876493,-73.99469342,NEW YORK,10,MANHATTAN, NY,10013,Club/Bar/Restaurant
40.72606677,-73.93966571,,15,BROOKLYN, NY,11222,Club/Bar/Restaurant
40.76989898,-73.95445686,NEW YORK,13,MANHATTAN, NY,10021,Club/Bar/Restaurant
40.74992339,-73.99510238,NEW YORK,16,MANHATTAN, NY,10001,Club/Bar/Restaurant
40.84151869,-73.9177353,BRONX,70,BRONX, NY,10452,Club/Bar/Restaurant
40.7410231,-73.92169179,SUNNYSIDE,11,QUEENS, NY,11104,Club/Bar/Restaurant
40.70476256,-73.91100803,RIDGEWOOD,43,QUEENS, NY,11385,Club/Bar/Restaurant
40.8138571,-73.94477023,NEW YORK,12,MANHATTAN, NY,10027,Club/Bar/Restaurant
40.71158055,-73.9357471,,12,BROOKLYN, NY,11206,Club/Bar/Restaurant
40.72530896,-73.95752151,,12,BROOKLYN, NY,11222,Club/Bar/Restaurant
40.80947766,-73.95357725,NEW YORK,48,MANHATTAN, NY,10027,Club/Bar/Restaurant
40.86958974,-73.91529255,NEW YORK,14,MANHATTAN, NY,10034,Club/Bar/Restaurant
40.72815072,-73.98201785,NEW YORK,25,MANHATTAN, NY,10009,Club/Bar/Restaurant
40.74664069,-73.86220199,CORONA,13,QUEENS, NY,11368,Club/Bar/Restaurant
40.67062342,-73.93155805,,19,BROOKLYN, NY,11213,Club/Bar/Restaurant
40.79593876,-73.94318875,NEW YORK,161,MANHATTAN, NY,10029,Club/Bar/Restaurant
40.78423707,-73.94706974,NEW YORK,12,MANHATTAN, NY,10128,Club/Bar/Restaurant
40.57134572,-74.09365556,STATEN ISLAND,57,STATEN ISLAND, NY,10306,Club/Bar/Restaurant
40.71996962,-73.95544697,,111,BROOKLYN, NY,11211,Club/Bar/Restaurant
40.62856535,-74.02897565,,18,BROOKLYN, NY,11209,Club/Bar/Restaurant
40.76854724,-73.92141755,ASTORIA,43,QUEENS, NY,11102,Club/Bar/Restaurant
40.71926915,-73.96152968,,11,BROOKLYN, NY,11211,Club/Bar/Restaurant
40.74235897,-73.99911225,NEW YORK,21,MANHATTAN, NY,10011,Club/Bar/Restaurant
40.81889454,-73.91849307,BRONX,19,BRONX, NY,10451,Club/Bar/Restaurant
40.80496388,-73.91310275,BRONX,16,BRONX, NY,10454,Club/Bar/Restaurant
40.68454578,-73.99192703,,20,BROOKLYN, NY,11201,Club/Bar/Restaurant
40.75541196,-73.92722622,ASTORIA,115,QUEENS, NY,11106,Club/Bar/Restaurant
40.60791158,-73.99483188,,18,BROOKLYN, NY,11214,Club/Bar/Restaurant
40.7644426,-73.9882352,NEW YORK,39,MANHATTAN, NY,10019,Club/Bar/Restaurant
40.75640502,-73.92219348,LONG ISLAND CITY,44,QUEENS, NY,11101,Club/Bar/Restaurant
40.76057774,-73.985904,NEW YORK,44,MANHATTAN, NY,10036,Club/Bar/Restaurant
40.80677215,-73.94308559,NEW YORK,205,MANHATTAN, NY,10027,Club/Bar/Restaurant
40.61044096,-73.98183346,,15,BROOKLYN, NY,11204,Club/Bar/Restaurant
40.74754365,-73.99406315,NEW YORK,39,MANHATTAN, NY,10001,Club/Bar/Restaurant
40.77671989,-73.95507683,NEW YORK,22,MANHATTAN, NY,10028,Club/Bar/Restaurant
40.81442578,-73.95922399,NEW YORK,44,MANHATTAN, NY,10027,Club/Bar/Restaurant
40.73445131,-74.00233819,NEW YORK,88,MANHATTAN, NY,10014,Club/Bar/Restaurant
40.74032621,-73.92210039,WOODSIDE,23,QUEENS, NY,11377,Club/Bar/Restaurant
40.62844731,-74.02903324,,33,BROOKLYN, NY,11209,Club/Bar/Restaurant
40.74349517,-74.0054493,NEW YORK,67,MANHATTAN, NY,10011,Club/Bar/Restaurant
40.86727173,-73.92092849,NEW YORK,10,MANHATTAN, NY,10034,Club/Bar/Restaurant
40.71706836,-73.96308212,,22,BROOKLYN, NY,11211,Club/Bar/Restaurant
40.75258112,-73.93973914,LONG ISLAND CITY,18,QUEENS, NY,11101,Club/Bar/Restaurant
40.6393631,-74.01627554,,25,BROOKLYN, NY,11220,Club/Bar/Restaurant
40.75772287,-73.86356875,CORONA,25,QUEENS, NY,11368,Club/Bar/Restaurant
40.85430528,-73.88731522,BRONX,68,BRONX, NY,10458,Club/Bar/Restaurant
40.77834689,-73.84614097,COLLEGE POINT,34,QUEENS, NY,11356,Club/Bar/Restaurant
40.76753131,-73.92087723,ASTORIA,27,QUEENS, NY,11102,Club/Bar/Restaurant
40.70015704,-73.9469129,,23,BROOKLYN, NY,11206,Club/Bar/Restaurant
40.64759218,-74.01468835,,28,BROOKLYN, NY,11220,Club/Bar/Restaurant
40.73377999,-73.98064518,NEW YORK,10,MANHATTAN, NY,10009,Club/Bar/Restaurant
40.70317785,-73.85804683,RIDGEWOOD,12,QUEENS, NY,11385,Club/Bar/Restaurant
40.77216233,-73.92596956,ASTORIA,18,QUEENS, NY,11102,Club/Bar/Restaurant
40.60031925,-73.99118459,,22,BROOKLYN, NY,11214,Club/Bar/Restaurant
40.66069546,-73.96063714,,19,BROOKLYN, NY,11225,Club/Bar/Restaurant
40.74104135,-74.00561149,NEW YORK,17,MANHATTAN, NY,10014,Club/Bar/Restaurant
40.71100589,-73.96536874,,31,BROOKLYN, NY,11211,Club/Bar/Restaurant
40.71171614,-73.9430405,,15,BROOKLYN, NY,11211,Club/Bar/Restaurant
40.82652235,-73.92281609,BRONX,96,BRONX, NY,10451,Club/Bar/Restaurant
40.6412581,-73.96430594,,23,BROOKLYN, NY,11226,Club/Bar/Restaurant
40.71307855,-73.96660131,,11,BROOKLYN, NY,11211,Club/Bar/Restaurant
40.76837969,-73.92124085,ASTORIA,10,QUEENS, NY,11102,Club/Bar/Restaurant
40.71423222,-73.96065963,,26,BROOKLYN, NY,11211,Club/Bar/Restaurant
40.69059892,-73.95818908,,24,BROOKLYN, NY,11205,Club/Bar/Restaurant
40.67994175,-73.86123657,OZONE PARK,12,QUEENS, NY,11416,Club/Bar/Restaurant
40.7121645,-73.96643223,,47,BROOKLYN, NY,11211,Club/Bar/Restaurant
40.6956435,-73.83929609,RICHMOND HILL,26,QUEENS, NY,11418,Club/Bar/Restaurant
40.63366213,-74.13630732,STATEN ISLAND,23,STATEN ISLAND, NY,10302,Club/Bar/Restaurant
40.69114686,-73.90890228,,16,BROOKLYN, NY,11207,Club/Bar/Restaurant
40.72296449,-74.00326136,NEW YORK,19,MANHATTAN, NY,10013,Club/Bar/Restaurant
40.7695999,-73.95470255,NEW YORK,10,MANHATTAN, NY,10021,Club/Bar/Restaurant
40.73678061,-73.98462803,NEW YORK,20,MANHATTAN, NY,10003,Club/Bar/Restaurant
40.73066824,-73.9543213,,45,BROOKLYN, NY,11222,Club/Bar/Restaurant
40.71070488,-73.96853587,,20,BROOKLYN, NY,11211,Club/Bar/Restaurant
40.7560045,-73.96927607,NEW YORK,17,MANHATTAN, NY,10022,Club/Bar/Restaurant
40.76757152,-73.91198909,ASTORIA,17,QUEENS, NY,11103,Club/Bar/Restaurant
40.77205769,-73.92543895,ASTORIA,21,QUEENS, NY,11102,Club/Bar/Restaurant
40.71911165,-73.95851391,,33,BROOKLYN, NY,11211,Club/Bar/Restaurant
40.73350709,-74.00350363,NEW YORK,26,MANHATTAN, NY,10014,Club/Bar/Restaurant
40.72829892,-73.98188431,NEW YORK,26,MANHATTAN, NY,10009,Club/Bar/Restaurant
40.75743164,-73.96877729,NEW YORK,10,MANHATTAN, NY,10022,Club/Bar/Restaurant
40.73937514,-74.00805075,NEW YORK,13,MANHATTAN, NY,10014,Club/Bar/Restaurant
40.72216253,-73.98892812,NEW YORK,11,MANHATTAN, NY,10002,Club/Bar/Restaurant
40.6051496,-73.94215546,,30,BROOKLYN, NY,11229,Club/Bar/Restaurant
40.87836063,-73.90334453,BRONX,10,BRONX, NY,10463,Club/Bar/Restaurant
40.82130491,-73.95420128,NEW YORK,53,MANHATTAN, NY,10031,Club/Bar/Restaurant
40.75513536,-73.97304111,NEW YORK,24,MANHATTAN, NY,10017,Club/Bar/Restaurant
40.75050236,-73.86203881,CORONA,31,QUEENS, NY,11368,Club/Bar/Restaurant
40.72363905,-73.98732243,NEW YORK,10,MANHATTAN, NY,10009,Club/Bar/Restaurant
40.71979651,-73.98851004,NEW YORK,31,MANHATTAN, NY,10002,Club/Bar/Restaurant
40.63028603,-74.10788602,STATEN ISLAND,39,STATEN ISLAND, NY,10310,Club/Bar/Restaurant
40.62469245,-73.92749483,,30,BROOKLYN, NY,11234,Club/Bar/Restaurant
40.72708959,-73.99154665,NEW YORK,13,MANHATTAN, NY,10012,Club/Bar/Restaurant
40.8247046,-73.95172028,NEW YORK,29,MANHATTAN, NY,10031,Club/Bar/Restaurant
40.71638437,-73.96142312,,22,BROOKLYN, NY,11211,Club/Bar/Restaurant
40.71837662,-73.96009803,,61,BROOKLYN, NY,11211,Club/Bar/Restaurant
40.73371023,-74.00215775,NEW YORK,19,MANHATTAN, NY,10014,Club/Bar/Restaurant
40.71299888,-73.96633081,,85,BROOKLYN, NY,11211,Club/Bar/Restaurant
40.76539402,-73.91819033,ASTORIA,22,QUEENS, NY,11103,Club/Bar/Restaurant
40.72251412,-73.99207034,NEW YORK,55,MANHATTAN, NY,10002,Club/Bar/Restaurant
40.63975499,-73.95203425,,68,BROOKLYN, NY,11226,Club/Bar/Restaurant
40.7540214,-73.99956687,NEW YORK,38,MANHATTAN, NY,10001,Club/Bar/Restaurant
40.72013698,-73.95527009,,22,BROOKLYN, NY,11211,Club/Bar/Restaurant
40.75576654,-73.92802713,ASTORIA,17,QUEENS, NY,11106,Club/Bar/Restaurant
40.69928615,-73.91382474,,18,BROOKLYN, NY,11237,Club/Bar/Restaurant
40.7226406,-74.00353552,NEW YORK,32,MANHATTAN, NY,10013,Club/Bar/Restaurant
40.76228615,-73.97636287,NEW YORK,29,MANHATTAN, NY,10019,Club/Bar/Restaurant
40.76385793,-73.98791402,NEW YORK,38,MANHATTAN, NY,10019,Club/Bar/Restaurant
40.61858308,-74.00921765,,11,BROOKLYN, NY,11228,Club/Bar/Restaurant
40.60079169,-74.00061579,,12,BROOKLYN, NY,11214,Club/Bar/Restaurant
40.71806827,-73.95749005,,28,BROOKLYN, NY,11211,Club/Bar/Restaurant
40.71954905,-73.9848196,NEW YORK,15,MANHATTAN, NY,10002,Club/Bar/Restaurant
40.74362677,-73.97363762,NEW YORK,19,MANHATTAN, NY,10016,Club/Bar/Restaurant
40.82641066,-73.94316996,NEW YORK,24,MANHATTAN, NY,10031,Club/Bar/Restaurant
40.76125915,-73.9942713,NEW YORK,20,MANHATTAN, NY,10036,Club/Bar/Restaurant
40.89025222,-73.89880989,BRONX,19,BRONX, NY,10471,Club/Bar/Restaurant
40.74644833,-73.9914684,NEW YORK,22,MANHATTAN, NY,10001,Club/Bar/Restaurant
40.70415201,-73.93361911,,17,BROOKLYN, NY,11206,Club/Bar/Restaurant
40.62140725,-74.02771897,,12,BROOKLYN, NY,11209,Club/Bar/Restaurant
40.71838773,-73.98277083,NEW YORK,128,MANHATTAN, NY,10002,Club/Bar/Restaurant
40.74466982,-73.91628864,SUNNYSIDE,15,QUEENS, NY,11104,Club/Bar/Restaurant
40.84897766,-73.93293602,NEW YORK,17,MANHATTAN, NY,10033,Club/Bar/Restaurant
40.62671373,-74.12791012,STATEN ISLAND,35,STATEN ISLAND, NY,10310,Club/Bar/Restaurant
40.86232547,-73.92047162,NEW YORK,10,MANHATTAN, NY,10034,Club/Bar/Restaurant
40.66205702,-73.95367624,,22,BROOKLYN, NY,11225,Club/Bar/Restaurant
40.83142462,-73.82689877,BRONX,23,BRONX, NY,10465,Club/Bar/Restaurant
40.80015915,-73.94684037,NEW YORK,37,MANHATTAN, NY,10026,Club/Bar/Restaurant
40.719602,-73.99309883,NEW YORK,23,MANHATTAN, NY,10002,Club/Bar/Restaurant
40.72101229,-73.98707762,NEW YORK,11,MANHATTAN, NY,10002,Club/Bar/Restaurant
40.71775427,-73.95461514,,18,BROOKLYN, NY,11211,Club/Bar/Restaurant
40.77157674,-73.95632586,NEW YORK,16,MANHATTAN, NY,10075,Club/Bar/Restaurant
40.68660256,-73.96667587,,10,BROOKLYN, NY,11238,Club/Bar/Restaurant
40.83828492,-73.82590515,BRONX,32,BRONX, NY,10461,Club/Bar/Restaurant
40.6772447,-73.82570906,SOUTH OZONE PARK,17,QUEENS, NY,11420,Club/Bar/Restaurant
40.66655342,-73.98783793,,38,BROOKLYN, NY,11215,Club/Bar/Restaurant
40.72642524,-73.99001338,NEW YORK,23,MANHATTAN, NY,10003,Club/Bar/Restaurant
40.64227539,-73.92720187,,32,BROOKLYN, NY,11203,Club/Bar/Restaurant
40.76223734,-73.92596615,ASTORIA,40,QUEENS, NY,11106,Club/Bar/Restaurant
40.68250595,-73.87617968,,34,BROOKLYN, NY,11208,Club/Bar/Restaurant
40.59011153,-73.9742167,,10,BROOKLYN, NY,11223,Club/Bar/Restaurant
40.71662604,-73.96179814,,38,BROOKLYN, NY,11211,Club/Bar/Restaurant
40.67946257,-74.00619398,,23,BROOKLYN, NY,11231,Club/Bar/Restaurant
40.71924028,-73.84531422,FOREST HILLS,73,QUEENS, NY,11375,Club/Bar/Restaurant
40.7272624,-73.99015397,NEW YORK,17,MANHATTAN, NY,10003,Club/Bar/Restaurant
40.62188106,-74.03171765,,59,BROOKLYN, NY,11209,Club/Bar/Restaurant
40.72144109,-73.99505036,NEW YORK,10,MANHATTAN, NY,10012,Club/Bar/Restaurant
40.82727489,-73.88682622,BRONX,10,BRONX, NY,10459,Club/Bar/Restaurant
40.82097116,-73.95709553,NEW YORK,44,MANHATTAN, NY,10031,Club/Bar/Restaurant
40.60681348,-73.96351763,,17,BROOKLYN, NY,11223,Club/Bar/Restaurant
40.85127593,-73.93962081,NEW YORK,19,MANHATTAN, NY,10033,Club/Bar/Restaurant
40.75911431,-73.83416524,FLUSHING,16,QUEENS, NY,11354,Club/Bar/Restaurant
40.89109953,-73.85011892,BRONX,18,BRONX, NY,10466,Club/Bar/Restaurant
40.62639539,-74.02391323,,12,BROOKLYN, NY,11209,Club/Bar/Restaurant
40.72513072,-73.97762435,NEW YORK,11,MANHATTAN, NY,10009,Club/Bar/Restaurant
40.74195923,-73.92609695,SUNNYSIDE,14,QUEENS, NY,11104,Club/Bar/Restaurant
40.75737944,-73.96860406,NEW YORK,18,MANHATTAN, NY,10022,Club/Bar/Restaurant
40.80190724,-73.96841329,NEW YORK,12,MANHATTAN, NY,10025,Club/Bar/Restaurant
40.84525505,-73.86591926,BRONX,11,BRONX, NY,10462,Club/Bar/Restaurant
40.84399491,-73.93581438,NEW YORK,10,MANHATTAN, NY,10033,Club/Bar/Restaurant
40.60697294,-74.00293156,,21,BROOKLYN, NY,11214,Club/Bar/Restaurant
40.63669022,-74.0118864,,10,BROOKLYN, NY,11220,Club/Bar/Restaurant
40.76052873,-73.98969422,NEW YORK,16,MANHATTAN, NY,10036,Club/Bar/Restaurant
40.72263217,-73.99247078,NEW YORK,13,MANHATTAN, NY,10002,Club/Bar/Restaurant
40.76172459,-73.96042222,NEW YORK,18,MANHATTAN, NY,10065,Club/Bar/Restaurant
40.61043274,-73.98193791,,10,BROOKLYN, NY,11204,Club/Bar/Restaurant
40.70521063,-73.82897939,KEW GARDENS,12,QUEENS, NY,11415,Club/Bar/Restaurant
40.85597788,-73.89129602,BRONX,21,BRONX, NY,10458,Club/Bar/Restaurant
40.61907282,-74.03286537,,33,BROOKLYN, NY,11209,Club/Bar/Restaurant
40.57128543,-74.09354029,STATEN ISLAND,56,STATEN ISLAND, NY,10306,Club/Bar/Restaurant
40.6583333,-73.9243947,,25,BROOKLYN, NY,11212,Club/Bar/Restaurant
40.76129741,-73.99152065,NEW YORK,11,MANHATTAN, NY,10036,Club/Bar/Restaurant
40.69388255,-73.82870553,RICHMOND HILL,19,QUEENS, NY,11418,Club/Bar/Restaurant
40.71597376,-73.83333467,FOREST HILLS,14,QUEENS, NY,11375,Club/Bar/Restaurant
40.77149859,-73.98242855,NEW YORK,23,MANHATTAN, NY,10023,Club/Bar/Restaurant
40.70246645,-73.99316552,,12,BROOKLYN, NY,11201,Club/Bar/Restaurant
40.68499993,-73.97984807,,11,BROOKLYN, NY,11217,Club/Bar/Restaurant
40.72577238,-74.00293318,NEW YORK,15,MANHATTAN, NY,10012,Club/Bar/Restaurant
40.76433288,-73.98899331,NEW YORK,14,MANHATTAN, NY,10019,Club/Bar/Restaurant
40.81431803,-73.94440859,NEW YORK,11,MANHATTAN, NY,10030,Club/Bar/Restaurant
40.71811491,-73.95743951,,10,BROOKLYN, NY,11211,Club/Bar/Restaurant
40.68163996,-73.95813701,,10,BROOKLYN, NY,11238,Club/Bar/Restaurant
40.72358699,-73.98820273,NEW YORK,11,MANHATTAN, NY,10003,Club/Bar/Restaurant
40.70796196,-73.94438547,,28,BROOKLYN, NY,11206,Club/Bar/Restaurant
40.6826733,-73.96189331,,11,BROOKLYN, NY,11238,Club/Bar/Restaurant
40.74099457,-73.99223775,NEW YORK,12,MANHATTAN, NY,10010,Club/Bar/Restaurant
40.71070456,-73.96739965,,20,BROOKLYN, NY,11211,Club/Bar/Restaurant
40.68152723,-73.95760348,,41,BROOKLYN, NY,11238,Club/Bar/Restaurant
40.73322653,-73.95477058,,17,BROOKLYN, NY,11222,Club/Bar/Restaurant
40.70214253,-73.924226,,34,BROOKLYN, NY,11237,Club/Bar/Restaurant
40.7087307,-73.7991771,JAMAICA,12,QUEENS, NY,11432,Club/Bar/Restaurant
40.73814565,-74.00537669,NEW YORK,22,MANHATTAN, NY,10014,Club/Bar/Restaurant
40.71795041,-73.95792662,,64,BROOKLYN, NY,11211,Club/Bar/Restaurant
40.70716915,-73.80248207,JAMAICA,10,QUEENS, NY,11432,Club/Bar/Restaurant
40.68232924,-73.97970827,,24,BROOKLYN, NY,11217,Club/Bar/Restaurant
40.69360833,-73.93186261,,16,BROOKLYN, NY,11221,Club/Bar/Restaurant
40.74391839,-73.92518535,SUNNYSIDE,13,QUEENS, NY,11104,Club/Bar/Restaurant
40.68478013,-73.86069286,WOODHAVEN,24,QUEENS, NY,11421,Club/Bar/Restaurant
40.79039136,-73.942594,NEW YORK,15,MANHATTAN, NY,10029,Club/Bar/Restaurant
40.75387106,-73.91746095,LONG ISLAND CITY,15,QUEENS, NY,11101,Club/Bar/Restaurant
40.71093446,-73.96513432,,34,BROOKLYN, NY,11211,Club/Bar/Restaurant
40.81762029,-73.9175011,BRONX,13,BRONX, NY,10455,Club/Bar/Restaurant
40.7243369,-74.00150444,NEW YORK,13,MANHATTAN, NY,10012,Club/Bar/Restaurant
40.67747682,-73.9689373,,10,BROOKLYN, NY,11238,Club/Bar/Restaurant
40.7420199,-73.92655158,SUNNYSIDE,11,QUEENS, NY,11104,Club/Bar/Restaurant
40.72468236,-73.99053316,NEW YORK,19,MANHATTAN, NY,10003,Club/Bar/Restaurant
40.687197,-73.97263228,,15,BROOKLYN, NY,11238,Club/Bar/Restaurant
40.72495163,-73.99490939,NEW YORK,13,MANHATTAN, NY,10012,Club/Bar/Restaurant
40.72817921,-73.9909079,NEW YORK,20,MANHATTAN, NY,10003,Club/Bar/Restaurant
40.63617701,-74.02748371,,10,BROOKLYN, NY,11220,Club/Bar/Restaurant
40.73438651,-73.98020479,NEW YORK,11,MANHATTAN, NY,10009,Club/Bar/Restaurant
40.71770885,-73.95787266,,10,BROOKLYN, NY,11211,Club/Bar/Restaurant
40.70951736,-73.89877406,RIDGEWOOD,12,QUEENS, NY,11385,Club/Bar/Restaurant
40.59851183,-73.95939546,,17,BROOKLYN, NY,11229,Club/Bar/Restaurant
40.57671594,-73.98402411,,14,BROOKLYN, NY,11224,Club/Bar/Restaurant
40.71687671,-73.95659257,,17,BROOKLYN, NY,11211,Club/Bar/Restaurant
40.71521836,-74.01030238,NEW YORK,13,MANHATTAN, NY,10007,Club/Bar/Restaurant
40.63705145,-73.93536848,,14,BROOKLYN, NY,11203,Club/Bar/Restaurant
40.74929666,-73.98456379,NEW YORK,13,MANHATTAN, NY,10001,Club/Bar/Restaurant
40.70400749,-73.93057522,,14,BROOKLYN, NY,11237,Club/Bar/Restaurant
40.83800167,-73.83486847,BRONX,14,BRONX, NY,10461,Club/Bar/Restaurant
40.51366901,-74.25089243,STATEN ISLAND,38,STATEN ISLAND, NY,10307,Club/Bar/Restaurant
40.7417798,-73.9973476,NEW YORK,34,MANHATTAN, NY,10011,Club/Bar/Restaurant
40.85442315,-73.86423434,BRONX,11,BRONX, NY,10462,Club/Bar/Restaurant
40.72104319,-73.95643113,,,BROOKLYN, NY,11211,Club/Bar/Restaurant
40.75005015,-73.97674978,NEW YORK,10,MANHATTAN, NY,10016,Club/Bar/Restaurant
40.69324937,-73.97326808,,10,BROOKLYN, NY,11205,Club/Bar/Restaurant
40.7248281,-73.9945847,NEW YORK,16,MANHATTAN, NY,10012,Club/Bar/Restaurant
40.75755914,-73.99255707,NEW YORK,21,MANHATTAN, NY,10036,Club/Bar/Restaurant
40.71863699,-73.95900843,,15,BROOKLYN, NY,11211,Club/Bar/Restaurant
40.58656823,-73.92910597,,17,BROOKLYN, NY,11235,Club/Bar/Restaurant
40.7390982,-74.00095627,NEW YORK,16,MANHATTAN, NY,10011,Club/Bar/Restaurant
40.81982436,-73.95841861,NEW YORK,23,MANHATTAN, NY,10027,Club/Bar/Restaurant
40.75548844,-73.88610719,JACKSON HEIGHTS,35,QUEENS, NY,11372,Club/Bar/Restaurant
40.76753406,-73.92087723,ASTORIA,43,QUEENS, NY,11102,Club/Bar/Restaurant
40.67958519,-73.90467097,,23,BROOKLYN, NY,11207,Club/Bar/Restaurant
40.91020136,-73.89660518,BRONX,10,BRONX, NY,10471,Club/Bar/Restaurant
40.7565485,-73.92756427,ASTORIA,37,QUEENS, NY,11106,Club/Bar/Restaurant
40.76230537,-73.97640618,NEW YORK,12,MANHATTAN, NY,10019,Club/Bar/Restaurant
40.7192426,-73.99702743,NEW YORK,14,MANHATTAN, NY,10013,Club/Bar/Restaurant
40.7159289,-73.96191037,,31,BROOKLYN, NY,11211,Club/Bar/Restaurant
40.65147649,-74.01065652,,15,BROOKLYN, NY,11232,Club/Bar/Restaurant
40.76754411,-73.91203605,ASTORIA,10,QUEENS, NY,11103,Club/Bar/Restaurant
40.7754951,-73.95346735,NEW YORK,11,MANHATTAN, NY,10028,Club/Bar/Restaurant
40.71191498,-73.93497847,,12,BROOKLYN, NY,11206,Club/Bar/Restaurant
40.71085754,-73.96491072,,32,BROOKLYN, NY,11211,Club/Bar/Restaurant
40.72620386,-73.97729928,NEW YORK,16,MANHATTAN, NY,10009,Club/Bar/Restaurant
40.70698407,-73.91230713,RIDGEWOOD,10,QUEENS, NY,11385,Club/Bar/Restaurant
40.81247629,-73.90290917,BRONX,15,BRONX, NY,10455,Club/Bar/Restaurant
40.72280254,-74.00339844,NEW YORK,17,MANHATTAN, NY,10013,Club/Bar/Restaurant
40.71689001,-73.96327341,,10,BROOKLYN, NY,11211,Club/Bar/Restaurant
40.81882498,-73.8171153,BRONX,17,BRONX, NY,10465,Club/Bar/Restaurant
40.6524601,-73.92535638,,14,BROOKLYN, NY,11203,Club/Bar/Restaurant
40.83197022,-73.8478816,BRONX,11,BRONX, NY,10462,Club/Bar/Restaurant
40.72260197,-73.99237337,NEW YORK,11,MANHATTAN, NY,10002,Club/Bar/Restaurant
40.71986615,-73.95766928,,11,BROOKLYN, NY,11211,Club/Bar/Restaurant
40.72890861,-73.98431956,NEW YORK,18,MANHATTAN, NY,10009,Club/Bar/Restaurant
40.70555204,-73.93396757,,16,BROOKLYN, NY,11206,Club/Bar/Restaurant
40.71488601,-73.96226087,,10,BROOKLYN, NY,11211,Club/Bar/Restaurant
40.57815347,-73.95890385,,21,BROOKLYN, NY,11235,Club/Bar/Restaurant
40.85418861,-73.88589841,BRONX,10,BRONX, NY,10458,Club/Bar/Restaurant
40.72124619,-73.99457056,NEW YORK,18,MANHATTAN, NY,10012,Club/Bar/Restaurant
40.7122186,-73.96382426,,15,BROOKLYN, NY,11211,Club/Bar/Restaurant
40.64440181,-73.9518075,,89,BROOKLYN, NY,11226,Club/Bar/Restaurant
40.7204606,-73.9872076,NEW YORK,10,MANHATTAN, NY,10002,Club/Bar/Restaurant
40.7444672,-73.97610574,NEW YORK,19,MANHATTAN, NY,10016,Club/Bar/Restaurant
40.7661376,-73.74517461,LITTLE NECK,13,QUEENS, NY,11363,Club/Bar/Restaurant
40.74218105,-73.85377037,CORONA,14,QUEENS, NY,11368,Club/Bar/Restaurant
40.79934282,-73.93898167,NEW YORK,12,MANHATTAN, NY,10035,Club/Bar/Restaurant
40.85239303,-73.93460257,NEW YORK,12,MANHATTAN, NY,10033,Club/Bar/Restaurant
40.82869712,-73.89015177,BRONX,18,BRONX, NY,10459,Club/Bar/Restaurant
40.76190888,-73.96158085,NEW YORK,30,MANHATTAN, NY,10065,Club/Bar/Restaurant
40.70182652,-73.92367456,,12,BROOKLYN, NY,11237,Club/Bar/Restaurant
40.86613852,-73.92558294,NEW YORK,27,MANHATTAN, NY,10034,Club/Bar/Restaurant
40.72367756,-73.98812695,NEW YORK,24,MANHATTAN, NY,10009,Club/Bar/Restaurant
40.5227827,-74.23491682,STATEN ISLAND,10,STATEN ISLAND, NY,10309,Club/Bar/Restaurant
40.64531666,-73.97054502,,12,BROOKLYN, NY,11218,Club/Bar/Restaurant
40.71604975,-73.96214117,,13,BROOKLYN, NY,11211,Club/Bar/Restaurant
40.733199,-73.8840525,ELMHURST,13,QUEENS, NY,11373,Club/Bar/Restaurant
40.71462381,-73.9580658,,12,BROOKLYN, NY,11211,Club/Bar/Restaurant
40.71523774,-73.99172851,NEW YORK,11,MANHATTAN, NY,10002,Club/Bar/Restaurant
40.73010355,-74.00479514,NEW YORK,15,MANHATTAN, NY,10014,Club/Bar/Restaurant
40.69726627,-73.96765506,,74,BROOKLYN, NY,11205,Club/Bar/Restaurant
40.80014228,-73.96807461,NEW YORK,22,MANHATTAN, NY,10025,Club/Bar/Restaurant
40.62671099,-74.12791012,STATEN ISLAND,24,STATEN ISLAND, NY,10310,Club/Bar/Restaurant
40.77162477,-73.90754663,ASTORIA,14,QUEENS, NY,11105,Club/Bar/Restaurant
40.82101512,-73.95719305,NEW YORK,10,MANHATTAN, NY,10031,Club/Bar/Restaurant
40.6783354,-73.83192893,OZONE PARK,13,QUEENS, NY,11417,Club/Bar/Restaurant
40.74235714,-73.87768155,ELMHURST,13,QUEENS, NY,11373,Club/Bar/Restaurant
40.7147337,-73.96677363,,12,BROOKLYN, NY,11211,Club/Bar/Restaurant
40.76360876,-73.99702906,NEW YORK,12,MANHATTAN, NY,10036,Club/Bar/Restaurant
40.79591128,-73.94311654,NEW YORK,10,MANHATTAN, NY,10029,Club/Bar/Restaurant
40.71484896,-73.96670864,,15,BROOKLYN, NY,11211,Club/Bar/Restaurant
40.67290293,-73.95020432,,13,BROOKLYN, NY,11216,Club/Bar/Restaurant
40.83367505,-73.94142918,NEW YORK,14,MANHATTAN, NY,10032,Club/Bar/Restaurant
40.72179234,-73.99345215,NEW YORK,10,MANHATTAN, NY,10002,Club/Bar/Restaurant
40.71958002,-73.95586209,,114,BROOKLYN, NY,11211,Club/Bar/Restaurant
40.71762841,-73.96344255,,33,BROOKLYN, NY,11211,Club/Bar/Restaurant
40.73940266,-74.0070187,NEW YORK,22,MANHATTAN, NY,10014,Club/Bar/Restaurant
40.87086825,-73.91459308,NEW YORK,25,MANHATTAN, NY,10034,Club/Bar/Restaurant
40.71760489,-73.95882508,,22,BROOKLYN, NY,11211,Club/Bar/Restaurant
40.71666424,-73.96113798,,45,BROOKLYN, NY,11211,Club/Bar/Restaurant
40.76118152,-73.98541294,NEW YORK,10,MANHATTAN, NY,10019,Club/Bar/Restaurant
40.77923644,-73.94766588,NEW YORK,26,MANHATTAN, NY,10128,Club/Bar/Restaurant
40.87868979,-73.87210416,BRONX,16,BRONX, NY,10467,Club/Bar/Restaurant
40.73571941,-74.00058817,NEW YORK,19,MANHATTAN, NY,10011,Club/Bar/Restaurant
40.72250807,-73.9861249,NEW YORK,10,MANHATTAN, NY,10009,Club/Bar/Restaurant
40.87824782,-73.90301563,BRONX,10,BRONX, NY,10463,Club/Bar/Restaurant
40.77023889,-73.91875118,ASTORIA,15,QUEENS, NY,11102,Club/Bar/Restaurant
40.71243818,-73.95592454,,13,BROOKLYN, NY,11211,Club/Bar/Restaurant
40.64520137,-73.97050183,,22,BROOKLYN, NY,11218,Club/Bar/Restaurant
40.8453424,-73.86550705,BRONX,21,BRONX, NY,10462,Club/Bar/Restaurant
40.7168144,-73.95883279,,13,BROOKLYN, NY,11211,Club/Bar/Restaurant
40.86940311,-73.91530725,NEW YORK,22,MANHATTAN, NY,10034,Club/Bar/Restaurant
40.71205737,-73.96614372,,11,BROOKLYN, NY,11211,Club/Bar/Restaurant
40.73394353,-74.00264127,NEW YORK,14,MANHATTAN, NY,10014,Club/Bar/Restaurant
40.71958002,-73.95586209,,114,BROOKLYN, NY,11249,Club/Bar/Restaurant
40.71183867,-73.78744465,JAMAICA,11,QUEENS, NY,11432,Club/Bar/Restaurant
40.71689001,-73.96327341,,10,BROOKLYN, NY,11249,Club/Bar/Restaurant
40.71706836,-73.96308212,,22,BROOKLYN, NY,11249,Club/Bar/Restaurant
40.68674355,-73.98432587,,11,BROOKLYN, NY,11217,Club/Bar/Restaurant
40.71811491,-73.95743951,,10,BROOKLYN, NY,11249,Club/Bar/Restaurant
40.71176537,-73.94268697,,16,BROOKLYN, NY,11211,Club/Bar/Restaurant
40.74072541,-73.92391147,SUNNYSIDE,17,QUEENS, NY,11104,Club/Bar/Restaurant
40.72985936,-74.00059172,NEW YORK,17,MANHATTAN, NY,10012,Club/Bar/Restaurant
40.62874433,-74.07993453,STATEN ISLAND,11,STATEN ISLAND, NY,10304,Club/Bar/Restaurant
40.71169202,-73.76970902,HOLLIS,11,QUEENS, NY,11423,Club/Bar/Restaurant
